{
"type": "FeatureCollection",
"name": "gatharaini_rivers",
"crs": { "type": "name", "properties": { "name": "urn:ogc:def:crs:EPSG::32737" } },
"features": [
{ "type": "Feature", "properties": { "name": "Nairobi River", "fclass": "river" }, "geometry": { "type": "LineString", "coordinates": [ [ 268680.601825800840743, 9862710.742890181019902 ], [ 268724.189909349137451, 9862718.265040185302496 ], [ 268746.580687105888501, 9862727.62866329215467 ], [ 268799.438668204355054, 9862753.485126152634621 ], [ 268842.551498499291483, 9862770.784240690991282 ], [ 268890.563769917935133, 9862800.673890208825469 ], [ 268901.158070224220864, 9862791.103926349431276 ], [ 268923.57980484951986, 9862789.385051177814603 ], [ 268951.488817542558536, 9862774.663489621132612 ], [ 268955.782282719039358, 9862779.234791914001107 ], [ 268988.471985066891648, 9862772.380904216319323 ], [ 269010.279691877658479, 9862744.514843072742224 ], [ 269031.430845388793387, 9862716.327521232888103 ], [ 269077.844545760657638, 9862683.724835216999054 ], [ 269099.314026471343823, 9862661.267042322084308 ], [ 269108.911187466350384, 9862631.433732064440846 ], [ 269144.581918376381509, 9862613.422302911058068 ], [ 269200.077489919727668, 9862611.718343103304505 ], [ 269234.114503599819727, 9862618.569300526753068 ], [ 269273.650270316342358, 9862626.143489411100745 ], [ 269324.859945301199332, 9862652.750621039420366 ], [ 269362.765146893623751, 9862667.015014061704278 ], [ 269397.402466203668155, 9862674.906078172847629 ], [ 269433.506771982414648, 9862700.14089410007 ], [ 269451.86162510770373, 9862717.143957009539008 ], [ 269483.369705809047446, 9862740.616555761545897 ], [ 269507.415813514380716, 9862754.19536104798317 ], [ 269547.356811182922684, 9862784.454525148496032 ], [ 269568.967553040012717, 9862794.724369484931231 ], [ 269608.268235379189719, 9862789.700563522055745 ], [ 269673.947481465060264, 9862790.791635284200311 ], [ 269723.662771297094878, 9862792.312615852802992 ], [ 269753.075923409836832, 9862789.957656664773822 ], [ 269767.711298577080015, 9862780.18072472885251 ], [ 269780.799183285911568, 9862770.546367270871997 ], [ 269789.361953430518042, 9862753.630783639848232 ], [ 269785.482586215483025, 9862746.250518545508385 ], [ 269784.6728516194853, 9862742.522558821365237 ], [ 269775.638652056979481, 9862735.934602500870824 ], [ 269772.577521241502836, 9862735.644639045000076 ], [ 269767.138902297534514, 9862729.214339649304748 ], [ 269769.448573960922658, 9862722.436173237860203 ], [ 269773.938036796171218, 9862718.369490249082446 ], [ 269785.204006984131411, 9862718.146039823070168 ], [ 269787.823086316871922, 9862714.299099711701274 ], [ 269793.502828463970218, 9862711.33937999419868 ], [ 269798.281537236412987, 9862707.516250742599368 ], [ 269813.688995243166573, 9862706.897869568318129 ], [ 269824.479454054613598, 9862702.614911584183574 ], [ 269832.552972023840994, 9862699.20359244197607 ], [ 269847.425795509829186, 9862698.949782282114029 ], [ 269859.922942926059477, 9862704.467594776302576 ], [ 269894.998093711328693, 9862707.558739356696606 ], [ 269928.844726799638011, 9862715.725598221644759 ], [ 269991.506641937594395, 9862745.770136239007115 ], [ 270029.157648094114847, 9862743.310997227206826 ], [ 270070.532950207416434, 9862718.734170462936163 ], [ 270085.169913940015249, 9862706.877911893650889 ], [ 270120.851971735188272, 9862674.045664511620998 ], [ 270184.372102383524179, 9862617.212236009538174 ], [ 270194.925527118961327, 9862602.819989148527384 ], [ 270210.453250012767967, 9862590.710052128881216 ], [ 270220.210521343513392, 9862583.694397553801537 ], [ 270229.934101436694618, 9862577.054766856133938 ], [ 270255.598519886669237, 9862570.969553157687187 ], [ 270276.615198227344081, 9862586.31553672067821 ], [ 270284.143591731088236, 9862596.662786295637488 ], [ 270293.322865748603363, 9862617.009820887818933 ], [ 270298.136707051366102, 9862625.187131376937032 ], [ 270306.796074238198344, 9862641.308728385716677 ], [ 270319.268480787635781, 9862664.213254379108548 ], [ 270340.79993514920352, 9862690.376572575420141 ], [ 270354.724496542010456, 9862706.922562142834067 ], [ 270387.08436156983953, 9862737.186620466411114 ], [ 270425.297418949776329, 9862756.17374974116683 ], [ 270453.569365216884762, 9862760.995963029563427 ], [ 270482.830987564113457, 9862752.933727962896228 ], [ 270507.320014043827541, 9862740.886073347181082 ], [ 270523.024299098644406, 9862730.711814047768712 ], [ 270564.922637613257393, 9862706.157518452033401 ], [ 270580.695071595662739, 9862694.235793758183718 ], [ 270609.423517836374231, 9862670.368030881509185 ], [ 270657.519323608954437, 9862635.532541204243898 ], [ 270681.431614319328219, 9862634.976059306412935 ], [ 270698.659152704291046, 9862627.147772885859013 ], [ 270708.368816319736652, 9862609.757561288774014 ], [ 270717.030721696210094, 9862594.080873703584075 ], [ 270737.054861166863702, 9862568.856990579515696 ], [ 270767.087079662655015, 9862543.264871528372169 ], [ 270795.700385135482065, 9862524.241440529003739 ], [ 270827.303610129572917, 9862511.137579275295138 ], [ 270855.593493871041574, 9862507.122658280655742 ], [ 270889.132469234988093, 9862495.590863021090627 ], [ 270915.727072014589794, 9862481.388132782652974 ], [ 270931.256765577476472, 9862466.634821359068155 ], [ 270958.690556477173232, 9862446.93580961227417 ], [ 270978.538530975289177, 9862433.435678403824568 ], [ 271024.15577069320716, 9862407.700907338410616 ], [ 271044.248822771245614, 9862393.968707326799631 ], [ 271075.956611469737254, 9862375.179982248693705 ], [ 271102.326273259124719, 9862363.87487368285656 ], [ 271120.762694391363766, 9862361.765690326690674 ], [ 271174.790473983972333, 9862371.352804770693183 ], [ 271227.437593698850833, 9862381.281694093719125 ], [ 271252.651793092954904, 9862381.301348574459553 ], [ 271278.738573799026199, 9862361.546004822477698 ], [ 271322.809308133379091, 9862377.42964731529355 ], [ 271402.711424208828248, 9862411.236611591652036 ], [ 271470.792331225122325, 9862429.350945621728897 ], [ 271500.456537234713323, 9862447.269451919943094 ], [ 271549.510973078198731, 9862453.280134411528707 ], [ 271576.611100353475194, 9862447.328708600252867 ], [ 271610.054105175309815, 9862458.779912076890469 ], [ 271657.71503170352662, 9862481.645227128639817 ], [ 271697.15928361134138, 9862491.729610305279493 ], [ 271719.64367903303355, 9862480.498869854956865 ], [ 271745.875073168601375, 9862489.389532677829266 ], [ 271799.561459467397071, 9862494.032289627939463 ], [ 271854.958595178090036, 9862503.277399906888604 ], [ 271884.117038492579013, 9862498.699009971693158 ], [ 271936.771165688638575, 9862513.737503221258521 ], [ 271988.749913476465736, 9862509.685588393360376 ], [ 272018.072403866506647, 9862508.856714326888323 ], [ 272068.856400274438784, 9862495.093030298128724 ], [ 272105.917218079208396, 9862477.901104237884283 ], [ 272141.957962839398533, 9862455.443749399855733 ], [ 272189.127202741627116, 9862451.896856157109141 ], [ 272214.34391393273836, 9862448.509889783337712 ], [ 272253.802861936856061, 9862439.504348393529654 ], [ 272304.770307426922955, 9862418.750784631818533 ], [ 272327.77093551796861, 9862416.37963081151247 ], [ 272341.037177249847446, 9862406.081855235621333 ], [ 272344.277415693388321, 9862390.677572583779693 ], [ 272349.800129258714151, 9862360.399153158068657 ] ] } },
{ "type": "Feature", "properties": { "name": "Nairobi river", "fclass": "river" }, "geometry": { "type": "LineString", "coordinates": [ [ 273709.750922755338252, 9862028.731013054028153 ], [ 273785.892366537824273, 9862029.995412811636925 ], [ 273827.831494749640115, 9862037.736684314906597 ], [ 273861.562495251884684, 9862050.514993645250797 ], [ 273945.442921012290753, 9862077.566309072077274 ], [ 274023.775735435250681, 9862066.389759099110961 ], [ 274083.114617295912467, 9862044.481356326490641 ], [ 274095.980740739032626, 9862004.2769561894238 ], [ 274090.188750866684131, 9861965.418540997430682 ], [ 274069.916243348328862, 9861938.272589491680264 ], [ 274038.134276264638174, 9861909.923252919688821 ], [ 273987.702345514378976, 9861872.368583764880896 ], [ 273978.916956468718126, 9861846.558687105774879 ], [ 273981.622682267217897, 9861816.897715227678418 ], [ 274000.761272209463641, 9861784.44020089879632 ], [ 274057.653185005008709, 9861759.864528937265277 ], [ 274083.790068205795251, 9861746.53526446223259 ], [ 274120.391716339741834, 9861717.796391421929002 ], [ 274159.549663900455926, 9861665.479491509497166 ], [ 274187.76379855396226, 9861643.436533762142062 ], [ 274216.014985407469794, 9861631.049023186787963 ], [ 274243.498521876812447, 9861632.463846899569035 ], [ 274268.258263666764833, 9861643.719993198290467 ], [ 274281.982182796811685, 9861660.309598535299301 ], [ 274294.512770012603141, 9861679.773887118324637 ], [ 274316.321312412794214, 9861707.053726246580482 ], [ 274361.127977646014187, 9861734.793724972754717 ], [ 274400.860503260919359, 9861774.364014400169253 ], [ 274448.15491932479199, 9861795.193374678492546 ], [ 274533.879370539216325, 9861826.82482435926795 ], [ 274576.890590125171002, 9861902.055053520947695 ], [ 274592.661739143077284, 9861977.817257720977068 ], [ 274650.985949398484081, 9862044.509814249351621 ], [ 274681.131327069946565, 9862116.511563936248422 ], [ 274705.21230367384851, 9862170.867910046130419 ], [ 274707.204622709657997, 9862229.16674661077559 ], [ 274736.691535908263177, 9862274.502254273742437 ], [ 274802.428055059921462, 9862299.880150940269232 ], [ 274850.696333377505653, 9862299.275728622451425 ], [ 275019.102690168714616, 9862367.368593143299222 ], [ 275100.246477172651794, 9862420.739919122308493 ], [ 275172.806139107909985, 9862446.952352592721581 ], [ 275276.69012454058975, 9862459.54071251489222 ], [ 275318.106443955446593, 9862466.473828056827188 ], [ 275358.379330111667514, 9862483.835609829053283 ], [ 275410.001753314281814, 9862536.785963924601674 ], [ 275473.198472641117405, 9862564.318270208314061 ], [ 275538.303208182973322, 9862571.413200173527002 ], [ 275605.568621130718384, 9862562.461768791079521 ], [ 275677.468456757022068, 9862534.203196845948696 ], [ 275727.544394867203664, 9862498.539923945441842 ], [ 275792.945339883561246, 9862482.03312261775136 ], [ 275841.004260952817276, 9862419.979314124211669 ], [ 275864.514332341146655, 9862376.675492405891418 ], [ 275905.74320386396721, 9862337.355732088908553 ], [ 275953.107984970207326, 9862338.752279879525304 ], [ 275991.319180059945211, 9862329.800796262919903 ], [ 276035.01245190447662, 9862284.831315893679857 ], [ 276059.85212861339096, 9862264.190344888716936 ], [ 276089.364862550748512, 9862261.127164831385016 ], [ 276234.523925138637424, 9862275.062873644754291 ], [ 276320.692396809579805, 9862263.980226323008537 ], [ 276411.718540365167428, 9862291.102175956591964 ], [ 276493.654420955688693, 9862327.031882856041193 ], [ 276513.861147590097971, 9862323.674009259790182 ], [ 276538.393180079641752, 9862297.591344110667706 ], [ 276568.588199013960548, 9862275.549860322847962 ], [ 276605.795268371119164, 9862283.983725368976593 ], [ 276661.035826204228215, 9862306.986128978431225 ], [ 276715.893923007650301, 9862320.58731477893889 ], [ 276781.633609855198301, 9862370.362572632730007 ], [ 276820.091199559508823, 9862403.095885409042239 ], [ 276870.198514073854312, 9862486.658161101862788 ], [ 276938.04402682359796, 9862533.968528626486659 ], [ 277029.691668899497017, 9862578.067423390224576 ], [ 277111.413359323516488, 9862602.770783783867955 ], [ 277168.949304432608187, 9862578.737098088487983 ], [ 277214.39801410358632, 9862566.937510782852769 ], [ 277244.496890785172582, 9862568.707784947007895 ], [ 277270.417475882801227, 9862590.294141432270408 ], [ 277277.739072266966105, 9862609.057196082547307 ], [ 277291.116617190884426, 9862627.44880179874599 ], [ 277316.025214411434717, 9862677.126387741416693 ], [ 277326.696413384459447, 9862726.704703433439136 ], [ 277331.051967679930385, 9862766.811005415394902 ], [ 277344.146133233967703, 9862821.390193877741694 ], [ 277375.784594576456584, 9862848.112584078684449 ], [ 277412.277088620117866, 9862874.053381277248263 ], [ 277458.753191299270838, 9862887.32713028229773 ], [ 277560.881989983958192, 9862864.267104269936681 ], [ 277661.18710245389957, 9862897.555509468540549 ], [ 277747.981240497610997, 9862912.164673767983913 ], [ 277821.769849058415275, 9862961.148962564766407 ], [ 277876.047847610432655, 9863035.334868481382728 ], [ 278027.099664474662859, 9863072.222468050196767 ], [ 278164.481339553545695, 9863035.55200669541955 ], [ 278207.442482778336853, 9863074.735993336886168 ], [ 278228.903445711242966, 9863120.418012181296945 ], [ 278247.387833698827308, 9863171.992650736123323 ], [ 278271.21538185828831, 9863238.490945840254426 ], [ 278327.324010092765093, 9863261.659082429483533 ], [ 278387.628369860642124, 9863271.204689919948578 ], [ 278490.935746403294615, 9863278.9908452257514 ], [ 278524.560098533867858, 9863284.955156452953815 ], [ 278559.139614800573327, 9863293.795718338340521 ], [ 278594.096327548089903, 9863289.486489219591022 ], [ 278623.238395354128443, 9863275.528782423585653 ], [ 278719.651759727508761, 9863213.544698763638735 ], [ 278741.788660370628349, 9863204.016715276986361 ], [ 278760.902743837854359, 9863202.670689262449741 ], [ 278778.878743809997104, 9863204.862932255491614 ], [ 278798.797007249027956, 9863214.765279896557331 ], [ 278838.620231377484743, 9863237.467610502615571 ], [ 278871.316905282903463, 9863278.092449842020869 ], [ 278983.514864573022351, 9863364.774233125150204 ], [ 279015.704746155417524, 9863443.0902303121984 ], [ 278984.017113519599661, 9863497.049171494320035 ], [ 278964.847792617394589, 9863572.362788604572415 ], [ 278968.374184345768299, 9863650.071203086525202 ], [ 278956.364855334977619, 9863737.257290422916412 ], [ 278993.238198787090369, 9863804.89301098883152 ], [ 279073.299436140572652, 9863891.561497030779719 ], [ 279180.412488883710466, 9864020.71938301064074 ], [ 279207.416784126893617, 9864037.229519940912724 ], [ 279267.233466981444508, 9864073.804259682074189 ], [ 279341.320053720963188, 9864021.657393552362919 ], [ 279377.148886240145657, 9864027.02585613168776 ], [ 279440.397665300639346, 9864088.763937475159764 ], [ 279466.625241333385929, 9864146.902213057503104 ], [ 279432.528756925137714, 9864222.215717982500792 ], [ 279439.934565098606981, 9864247.857635615393519 ], [ 279446.230048285739031, 9864269.67206571623683 ], [ 279497.571736854733899, 9864296.408268393948674 ], [ 279544.748139117320534, 9864295.845994459465146 ], [ 279670.166391201608349, 9864268.654584672302008 ], [ 279757.333183864015155, 9864290.661560839042068 ], [ 279839.114150389679708, 9864325.128781538456678 ], [ 279891.666606698418036, 9864325.167645886540413 ], [ 279942.196209714398719, 9864290.87573560513556 ], [ 279978.910512858186848, 9864242.782191526144743 ], [ 280011.767669922846835, 9864217.302861157804728 ], [ 280065.508074407349341, 9864221.489984391257167 ], [ 280118.0437865605345, 9864244.06844768114388 ], [ 280315.637572700274177, 9864324.297463342547417 ], [ 280397.976620471570641, 9864416.883335782214999 ], [ 280470.164135715865996, 9864508.875463766977191 ], [ 280549.547526478359941, 9864564.099457306787372 ], [ 280659.396358540048823, 9864591.464421078562737 ], [ 280717.293789457820822, 9864634.219326462596655 ], [ 280738.115027155901771, 9864733.284758657217026 ], [ 280770.541450292454101, 9864809.022847188636661 ], [ 280816.275629648007452, 9864831.806074682623148 ], [ 280847.903187358402647, 9864858.516168093308806 ], [ 280893.8578264946118, 9864869.078632541000843 ], [ 280936.475420227507129, 9864876.309691064059734 ], [ 280980.410083717375528, 9864878.697589710354805 ], [ 281024.61061543400865, 9864913.224936841055751 ], [ 281052.047328633605503, 9864962.471401374787092 ], [ 281140.928377212607302, 9865090.662095405161381 ], [ 281186.006152532529086, 9865143.438338436186314 ], [ 281224.457251483690925, 9865185.625663151964545 ], [ 281238.005436096107587, 9865245.19155097939074 ], [ 281227.411482555093244, 9865286.391922691836953 ], [ 281228.319430604577065, 9865293.028350904583931 ], [ 281260.760652548517101, 9865364.187416890636086 ], [ 281270.260974254109897, 9865448.855634527280927 ], [ 281270.846508052956779, 9865454.949904523789883 ], [ 281294.719355455657933, 9865476.31233779527247 ], [ 281318.581065991544165, 9865497.68581510707736 ], [ 281497.631091126590036, 9865622.380361299961805 ], [ 281671.922521070635412, 9865723.934458049014211 ], [ 281711.606994933914393, 9865784.779893575236201 ], [ 281714.876036866102368, 9865789.803314331918955 ], [ 281733.327633746666834, 9865872.863075422123075 ] ] } },
{ "type": "Feature", "properties": { "name": null, "fclass": "stream" }, "geometry": { "type": "LineString", "coordinates": [ [ 271833.971036475908477, 9862221.591320294886827 ], [ 271846.111492226831615, 9862227.529029725119472 ], [ 271855.40353683673311, 9862231.672771036624908 ], [ 271864.878393663908355, 9862229.777792880311608 ], [ 271877.733606376918033, 9862232.751926261931658 ] ] } },
{ "type": "Feature", "properties": { "name": "Ngong River", "fclass": "river" }, "geometry": { "type": "LineString", "coordinates": [ [ 271285.311426953994669, 9860920.326815342530608 ], [ 271330.630175424506888, 9860962.490881791338325 ], [ 271346.987600296037272, 9860970.975885655730963 ], [ 271374.003205047454685, 9861001.633949290961027 ], [ 271391.985704114544205, 9861052.834775935858488 ], [ 271408.698916291934438, 9861090.198264727368951 ], [ 271432.571929302124772, 9861153.492511732503772 ], [ 271442.18105984129943, 9861221.57566892541945 ], [ 271437.559129358967766, 9861295.177753144875169 ], [ 271440.805052789393812, 9861315.265646569430828 ], [ 271439.744711473817006, 9861375.576152009889483 ], [ 271437.39303161285352, 9861407.549381140619516 ], [ 271434.543797354213893, 9861435.208737967535853 ], [ 271428.945300577674061, 9861448.222218181937933 ], [ 271430.114533498650417, 9861476.150172350928187 ], [ 271426.690109021379612, 9861499.130610268563032 ], [ 271416.575660281989258, 9861507.473143072798848 ], [ 271413.172304446808994, 9861517.778594627976418 ], [ 271402.785666329669766, 9861532.524779491126537 ], [ 271399.878858833806589, 9861548.438150119036436 ], [ 271400.404807609447744, 9861559.144850011914968 ], [ 271399.873038439254742, 9861570.071925351396203 ], [ 271399.86290810193168, 9861583.001308286562562 ], [ 271401.07278216315899, 9861601.705078940838575 ], [ 271405.497778578661382, 9861623.0215781070292 ], [ 271411.012455276213586, 9861645.953720649704337 ], [ 271414.901773055549711, 9861654.771756518632174 ], [ 271415.839796996791847, 9861665.246513227000833 ], [ 271420.120158163830638, 9861672.250979524105787 ], [ 271425.347437357646413, 9861678.371369672939181 ], [ 271426.275188159546815, 9861687.751156469807029 ], [ 271427.656540377356578, 9861700.725867357105017 ], [ 271427.086554515350144, 9861717.8245101980865 ], [ 271425.185093804146163, 9861729.336703700944781 ], [ 271417.883735857554711, 9861741.928572854027152 ], [ 271415.326133510679938, 9861752.610737720504403 ], [ 271410.56479858228704, 9861762.760288368910551 ], [ 271403.23370514070848, 9861770.673665665090084 ], [ 271401.69145766220754, 9861778.370368177071214 ], [ 271406.402921177097596, 9861789.279425248503685 ], [ 271411.9878320756834, 9861807.842832723632455 ], [ 271414.317131363553926, 9861818.628362772986293 ], [ 271415.33350516151404, 9861828.572289548814297 ], [ 271413.333098559989594, 9861838.502796929329634 ], [ 271409.816863362386357, 9861850.821125403046608 ], [ 271407.329465881921351, 9861857.145622789859772 ], [ 271408.293069689767435, 9861863.395397052168846 ], [ 271409.689345714636147, 9861871.536806063726544 ], [ 271415.638490546029061, 9861879.869797768071294 ], [ 271431.204217621707357, 9861904.40245658904314 ], [ 271439.173273505992256, 9861934.824267318472266 ], [ 271448.901795194600709, 9861950.238742791116238 ], [ 271467.870012079016306, 9861965.560891397297382 ], [ 271486.940863190684468, 9861977.753076521679759 ], [ 271495.821228681830689, 9861981.631084347143769 ], [ 271510.523508574231528, 9861985.712721167132258 ], [ 271521.62340307876002, 9861984.150838611647487 ], [ 271537.192798033880536, 9861975.491793358698487 ], [ 271554.557476608722936, 9861977.219682637602091 ], [ 271572.28129649424227, 9862003.733766896650195 ], [ 271589.464992107707076, 9862037.668819047510624 ], [ 271597.261182053713128, 9862061.410095160827041 ], [ 271612.344943621195853, 9862090.200504262000322 ], [ 271626.487705167615786, 9862098.020034771412611 ], [ 271635.220862669288181, 9862105.094312090426683 ], [ 271645.023483011755161, 9862111.162944156676531 ], [ 271661.330184171558358, 9862113.442997764796019 ], [ 271681.67052609246457, 9862110.804406832903624 ], [ 271693.435508281050716, 9862112.870774129405618 ], [ 271714.896517463726923, 9862100.654926583170891 ], [ 271728.566274540207814, 9862086.906700579449534 ], [ 271750.674212936195545, 9862073.05445184186101 ], [ 271771.644763120566495, 9862047.377974154427648 ], [ 271776.183104040508624, 9862037.637484120205045 ], [ 271783.601489859109279, 9862031.947269566357136 ], [ 271796.920361078111455, 9862025.620164457708597 ], [ 271814.730413116514683, 9862027.204595632851124 ], [ 271823.97736793954391, 9862032.056166118010879 ], [ 271837.529614408209454, 9862040.516712345182896 ], [ 271844.275479175732471, 9862040.72105329670012 ], [ 271855.054160984407645, 9862037.057471986860037 ], [ 271867.950498980935663, 9862030.099605966359377 ], [ 271888.167272272869013, 9862028.854500209912658 ], [ 271921.259703825577162, 9862032.895132703706622 ], [ 271955.740180109860376, 9862027.082221351563931 ], [ 271977.16394163510995, 9862019.75495277531445 ], [ 272012.546099587110803, 9862013.94274160079658 ], [ 272024.67719092394691, 9862017.579928256571293 ], [ 272033.367027803673409, 9862023.083603281527758 ], [ 272043.945525432238355, 9862047.744969604536891 ], [ 272025.681502484716475, 9862071.642846329137683 ], [ 271999.550898600369692, 9862090.690245166420937 ], [ 271994.189981719246134, 9862098.91484304331243 ], [ 271975.025766008533537, 9862106.575686221942306 ], [ 271961.706342930148821, 9862113.632770488038659 ], [ 271951.595418020384386, 9862117.51808163896203 ], [ 271934.689425153075717, 9862127.204697173088789 ], [ 271922.068242620734964, 9862138.210811180993915 ], [ 271906.753921826661099, 9862148.164112167432904 ], [ 271899.63225205661729, 9862158.80952363088727 ], [ 271884.818569446098991, 9862169.15032265894115 ], [ 271873.189107637270354, 9862178.907411770895123 ], [ 271861.563364434055984, 9862183.886504571884871 ], [ 271851.37314679112751, 9862189.519266102463007 ], [ 271846.050812205125112, 9862191.074608854949474 ], [ 271841.17293287900975, 9862193.692075526341796 ], [ 271838.054417031700723, 9862195.669421119615436 ], [ 271833.421916140418034, 9862197.678768647834659 ], [ 271829.531396554899402, 9862204.654717916622758 ], [ 271827.779298873268999, 9862210.260868890210986 ], [ 271827.351829572347924, 9862215.978652976453304 ], [ 271829.764557983842678, 9862219.740994762629271 ], [ 271833.971036475908477, 9862221.591320294886827 ], [ 271841.675501970690675, 9862220.203733710572124 ], [ 271846.375905541935936, 9862216.767674397677183 ], [ 271849.461989215924405, 9862213.551562368869781 ], [ 271859.121175425301772, 9862217.972094621509314 ], [ 271871.381413966417313, 9862227.338552856817842 ], [ 271877.733606376918033, 9862232.751926261931658 ], [ 271897.60210473171901, 9862235.609853643923998 ], [ 271903.343376799311955, 9862239.297361582517624 ], [ 271913.19479306647554, 9862239.880155716091394 ], [ 271927.172320432495326, 9862231.142426764592528 ], [ 271938.813020002737176, 9862221.241561494767666 ], [ 271947.514049585908651, 9862212.378066763281822 ], [ 271950.780790378979873, 9862205.888282975181937 ], [ 271955.196162836859003, 9862196.789190800860524 ], [ 271964.107013648143038, 9862190.093655904754996 ], [ 271975.284652605419978, 9862188.730891095474362 ], [ 271988.394610763061792, 9862193.353185394778848 ], [ 272008.31288688594941, 9862203.754186723381281 ], [ 272023.844588072272018, 9862214.859623819589615 ], [ 272033.199073654832318, 9862224.588792691007257 ], [ 272037.416313810972497, 9862241.226574344560504 ], [ 272038.13948782812804, 9862256.069890370592475 ], [ 272041.170521213673055, 9862266.380329070612788 ], [ 272049.573243840190116, 9862268.919641122221947 ], [ 272063.731833275873214, 9862270.689214797690511 ], [ 272078.461766451830044, 9862267.813959516584873 ], [ 272087.303735030465759, 9862263.794929860159755 ], [ 272104.384778066421859, 9862258.023737190291286 ], [ 272114.475192193931434, 9862251.871065486222506 ], [ 272125.20141248323489, 9862244.070923175662756 ], [ 272139.125018950377125, 9862233.065817948430777 ], [ 272152.563911619829014, 9862229.824574265629053 ], [ 272162.091376319644041, 9862231.833869440481067 ], [ 272169.312266455730423, 9862236.728074816986918 ], [ 272183.414817835320719, 9862253.296101432293653 ], [ 272194.634381038544234, 9862269.596441050991416 ], [ 272199.746231948956847, 9862281.036621917039156 ], [ 272207.354648718435783, 9862288.629804223775864 ], [ 272211.463888243655674, 9862301.009318683296442 ], [ 272210.085672168934252, 9862312.566119009628892 ], [ 272218.229888550355099, 9862318.279487608000636 ], [ 272235.850358598167077, 9862320.272938776761293 ], [ 272250.411442152806558, 9862319.786537194624543 ], [ 272260.16827899182681, 9862313.124835692346096 ], [ 272274.589181426214054, 9862321.132527094334364 ], [ 272283.982876716647297, 9862337.718997377902269 ], [ 272293.360473131353501, 9862346.364259552210569 ], [ 272301.276195136364549, 9862359.620471775531769 ], [ 272314.132040712866001, 9862361.753997864201665 ], [ 272349.800129258714151, 9862360.399153158068657 ] ] } },
{ "type": "Feature", "properties": { "name": null, "fclass": "stream" }, "geometry": { "type": "LineString", "coordinates": [ [ 273048.764360943459906, 9861632.97513385117054 ], [ 273034.695157552487217, 9861673.875550273805857 ], [ 273021.099440640828107, 9861707.1338020414114 ], [ 273005.227219222288113, 9861747.579363420605659 ], [ 272987.996901530830655, 9861788.023875955492258 ], [ 272936.286423190846108, 9861934.530268177390099 ], [ 272917.683016903349198, 9861994.306833237409592 ], [ 272890.021651155664586, 9862063.964131385087967 ], [ 272852.380765718407929, 9862169.127766707912087 ], [ 272836.505800190090667, 9862213.167935507372022 ], [ 272828.33836926164804, 9862237.438579708337784 ], [ 272841.436517397756688, 9862271.613452438265085 ], [ 272838.712286987982225, 9862296.341779792681336 ], [ 272836.282801808032673, 9862314.213059002533555 ] ] } },
{ "type": "Feature", "properties": { "name": null, "fclass": "stream" }, "geometry": { "type": "LineString", "coordinates": [ [ 273056.97574926179368, 9861896.079440295696259 ], [ 273113.729025756940246, 9861892.860746013000607 ], [ 273203.343379467027262, 9861890.231596153229475 ], [ 273262.616844868403859, 9861895.674889044836164 ], [ 273300.620958035811782, 9861910.53594121336937 ], [ 273325.976763626560569, 9861899.772002240642905 ], [ 273340.931867831910495, 9861879.101219095289707 ], [ 273358.58923839405179, 9861862.03812356479466 ], [ 273381.22606060327962, 9861854.855551673099399 ], [ 273415.17292203719262, 9861847.692806454375386 ], [ 273471.291808660840616, 9861844.141770517453551 ], [ 273539.632492814096622, 9861841.949524480849504 ], [ 273592.856573747238144, 9861838.993471072986722 ], [ 273602.109159304876812, 9861836.478939751163125 ], [ 273647.95100674580317, 9861835.773416304960847 ], [ 273683.181713757687248, 9861838.167550891637802 ], [ 273692.723484955553431, 9861850.341016907244921 ], [ 273700.479104624770116, 9861854.649388264864683 ], [ 273700.17464737908449, 9861859.681484919041395 ], [ 273700.168903086800128, 9861867.102788144722581 ], [ 273709.426536882645451, 9861872.440907433629036 ], [ 273730.775380757870153, 9861875.277747118845582 ], [ 273739.426372719637584, 9861873.359989676624537 ], [ 273750.042778584524058, 9861863.436263836920261 ], [ 273753.026364153425675, 9861863.139950858429074 ], [ 273760.345427194028161, 9861856.177772199735045 ], [ 273774.087041636696085, 9861849.950528502464294 ], [ 273785.434359645470977, 9861844.926979478448629 ], [ 273791.417710720561445, 9861837.808927446603775 ], [ 273798.876667879289016, 9861837.073675181716681 ], [ 273810.724748745444231, 9861832.271715495735407 ], [ 273823.373992590932176, 9861827.901718389242887 ], [ 273831.883592855767347, 9861821.681487616151571 ], [ 273838.899222652893513, 9861818.424197871237993 ], [ 273850.413182855583727, 9861799.442981131374836 ], [ 273861.924720441747922, 9861783.591761773452163 ], [ 273872.835142948140856, 9861767.729018682613969 ], [ 273880.604988860257436, 9861753.644515855237842 ], [ 273891.51023983664345, 9861744.462047331035137 ], [ 273904.801966772880405, 9861744.173713771626353 ], [ 273922.263902804406825, 9861749.385455682873726 ], [ 273932.701383922016248, 9861754.879321271553636 ], [ 273948.97244462632807, 9861759.780456649139524 ], [ 273971.214790697558783, 9861758.758020870387554 ], [ 273980.469414037594106, 9861767.967145634815097 ], [ 273976.732774673844688, 9861777.59756195358932 ], [ 273961.494004684616812, 9861790.935259701684117 ], [ 273959.835703579708934, 9861804.869646249338984 ], [ 273969.237688859226182, 9861810.661326693370938 ], [ 273981.622682267217897, 9861816.897715227678418 ] ] } },
{ "type": "Feature", "properties": { "name": "Nairobi River", "fclass": "river" }, "geometry": { "type": "LineString", "coordinates": [ [ 272349.800129258714151, 9862360.399153158068657 ], [ 272351.358233246370219, 9862346.54198838584125 ], [ 272369.286258624750189, 9862325.16556172631681 ], [ 272400.340343809861224, 9862316.33047585003078 ], [ 272411.161603682558052, 9862315.133315602317452 ], [ 272422.470406317035668, 9862316.856412993744016 ], [ 272478.35970328503754, 9862351.495907304808497 ], [ 272518.024424844421446, 9862349.790220096707344 ], [ 272549.54203630250413, 9862331.742382546886802 ], [ 272587.247106790484395, 9862301.831815114244819 ], [ 272648.969528134679422, 9862279.040484916418791 ], [ 272695.600358932744712, 9862251.813404951244593 ], [ 272732.471135313622653, 9862249.784803239628673 ], [ 272765.521166279097088, 9862265.29460072517395 ], [ 272787.501622163632419, 9862286.436477208510041 ], [ 272813.206784888869151, 9862313.409918097779155 ], [ 272832.762462062644772, 9862317.605790914967656 ], [ 272836.282801808032673, 9862314.213059002533555 ], [ 272859.588319263420999, 9862291.779057396575809 ], [ 272883.229805752635002, 9862266.746191468089819 ], [ 272924.113617814145982, 9862257.542655892670155 ], [ 272955.975192799698561, 9862255.200464740395546 ], [ 273036.933094465173781, 9862247.344104591757059 ], [ 273069.331942525110207, 9862226.797379480674863 ], [ 273095.885787329636514, 9862221.542263047769666 ], [ 273101.996650380955543, 9862222.310140723362565 ] ] } },
{ "type": "Feature", "properties": { "name": null, "fclass": "stream" }, "geometry": { "type": "LineString", "coordinates": [ [ 272547.534904590982478, 9861534.359843729063869 ], [ 272554.166847652290016, 9861552.127604279667139 ], [ 272558.832260417169891, 9861564.983127119019628 ], [ 272563.198576542548835, 9861575.95819191634655 ], [ 272574.954918205155991, 9861589.007262602448463 ], [ 272594.408020386123098, 9861596.211515050381422 ], [ 272620.650923252629582, 9861604.327986523509026 ], [ 272643.277688562229741, 9861610.185368169099092 ], [ 272657.383896125829779, 9861607.641466056928039 ], [ 272676.701289273914881, 9861603.276700871065259 ], [ 272690.811301708570682, 9861595.844221921637654 ], [ 272719.782308595720679, 9861588.666642365977168 ], [ 272743.761276092496701, 9861587.789448598399758 ], [ 272788.129534966486972, 9861578.378652069717646 ], [ 272844.693859226477798, 9861574.828155521303415 ], [ 272878.639067034237087, 9861569.91070775128901 ], [ 272908.517253343830816, 9861569.933965969830751 ], [ 272928.881457122624852, 9861565.005943145602942 ], [ 272959.657122755306773, 9861570.427232725545764 ], [ 272992.22497475228738, 9861590.228061426430941 ], [ 273021.615316921495833, 9861616.330672487616539 ], [ 273048.764360943459906, 9861632.97513385117054 ], [ 273076.811639769235626, 9861639.743607686832547 ], [ 273074.532285113818944, 9861664.914646161720157 ], [ 273067.210974842542782, 9861760.667391734197736 ], [ 273058.064013031835202, 9861885.1750154979527 ], [ 273056.97574926179368, 9861896.079440295696259 ], [ 273052.600539025617763, 9861939.564402170479298 ], [ 273051.206175009836443, 9861986.314410673454404 ], [ 273041.623490670928732, 9862084.310629203915596 ], [ 273044.765111660351977, 9862109.939342508092523 ], [ 273063.287289015657734, 9862154.901982937008142 ], [ 273084.988696546992287, 9862191.339730177074671 ], [ 273101.996650380955543, 9862222.310140723362565 ] ] } },
{ "type": "Feature", "properties": { "name": null, "fclass": "stream" }, "geometry": { "type": "LineString", "coordinates": [ [ 272545.152612057048827, 9861520.145702071487904 ], [ 272547.534904590982478, 9861534.359843729063869 ] ] } },
{ "type": "Feature", "properties": { "name": null, "fclass": "river" }, "geometry": { "type": "LineString", "coordinates": [ [ 273101.996650380955543, 9862222.310140723362565 ], [ 273169.405316005810164, 9862230.834350388497114 ], [ 273219.302786494721659, 9862240.108139641582966 ], [ 273264.168780960142612, 9862220.35632754303515 ], [ 273297.650724950479344, 9862181.085704147815704 ], [ 273340.942473869072273, 9862152.90489481203258 ], [ 273394.089075485942885, 9862106.349847380071878 ], [ 273433.356622528401203, 9862099.710993729531765 ], [ 273481.275984832784161, 9862104.492837075144053 ], [ 273519.209285333927255, 9862095.773648174479604 ], [ 273538.927038600901142, 9862077.407041687518358 ], [ 273561.931131917284802, 9862055.912977106869221 ], [ 273614.802880625473335, 9862033.568270191550255 ], [ 273635.556594629888423, 9862028.684706462547183 ], [ 273709.750922755338252, 9862028.731013054028153 ] ] } },
{ "type": "Feature", "properties": { "name": null, "fclass": "stream" }, "geometry": { "type": "LineString", "coordinates": [ [ 270161.006085636443458, 9867324.928845154121518 ], [ 270168.916367635072675, 9867331.316603347659111 ], [ 270184.752105505089276, 9867338.73895026743412 ], [ 270204.940691049676389, 9867346.031857019290328 ], [ 270224.97288015880622, 9867354.043561175465584 ], [ 270243.045224809553474, 9867362.783762039616704 ], [ 270253.975426929478999, 9867365.125728687271476 ], [ 270264.236853470676579, 9867368.573218220844865 ], [ 270273.73442010814324, 9867366.35726704634726 ], [ 270277.940668705967255, 9867368.716280052438378 ], [ 270283.631501166266389, 9867380.555072817951441 ], [ 270285.300301498966292, 9867381.949926882982254 ], [ 270305.104364089434966, 9867382.462576981633902 ], [ 270309.121496269479394, 9867384.644481657072902 ], [ 270335.851031645725016, 9867383.624974051490426 ], [ 270345.246576535922941, 9867383.831144286319613 ], [ 270351.85530811100034, 9867388.979156035929918 ], [ 270372.365012526046485, 9867383.774170964956284 ], [ 270384.27890711335931, 9867380.74157858081162 ], [ 270396.166374962660484, 9867383.228042429313064 ], [ 270407.255549284513108, 9867381.422518022358418 ], [ 270420.059661024948582, 9867378.877248097211123 ], [ 270436.499575958296191, 9867382.263023778796196 ], [ 270456.755687551223673, 9867388.560525082051754 ], [ 270474.415834493469447, 9867382.910977777093649 ], [ 270489.126028348284308, 9867377.104363601654768 ], [ 270512.317446640110575, 9867373.438772661611438 ], [ 270527.872793202288449, 9867368.827304182574153 ], [ 270546.09328140609432, 9867358.223181189969182 ], [ 270582.174555085017346, 9867356.381184982135892 ], [ 270604.050611573620699, 9867355.015134682878852 ], [ 270632.801064550527371, 9867346.011623492464423 ], [ 270662.489692487637512, 9867332.938644969835877 ], [ 270697.243817261769436, 9867319.471314691007137 ], [ 270736.829023437923752, 9867306.450034869834781 ], [ 270744.457639598113019, 9867302.496211098507047 ], [ 270754.077589357213583, 9867300.335648015141487 ], [ 270769.590720763197169, 9867292.61621805280447 ], [ 270795.722136975731701, 9867272.694272551685572 ], [ 270815.399495623249095, 9867263.982559137046337 ], [ 270855.978269413113594, 9867261.989096906036139 ], [ 270885.980689698481001, 9867260.861425299197435 ], [ 270910.125833016703837, 9867261.963509619235992 ], [ 270974.498364029917866, 9867254.590552005916834 ], [ 271018.687874245923012, 9867247.401480155065656 ], [ 271053.427631031605415, 9867238.11491010710597 ], [ 271084.938300235953648, 9867229.77708950266242 ], [ 271106.404728021007031, 9867225.302790304645896 ], [ 271192.058461867389269, 9867207.980561396107078 ], [ 271227.269925825879909, 9867193.119991943240166 ], [ 271359.208533673547208, 9867165.059916492551565 ], [ 271385.801385739585385, 9867153.112764937803149 ], [ 271403.103537081857212, 9867149.652869476005435 ], [ 271429.943291481467895, 9867149.850013714283705 ], [ 271446.095389079768211, 9867150.946057684719563 ], [ 271450.851741770864464, 9867147.122801857069135 ], [ 271455.374607850215398, 9867142.912263389676809 ], [ 271483.786205556709319, 9867140.179631274193525 ], [ 271503.685237914847676, 9867132.62941013276577 ] ] } },
{ "type": "Feature", "properties": { "name": null, "fclass": "stream" }, "geometry": { "type": "LineString", "coordinates": [ [ 273655.969294195878319, 9867706.808418989181519 ], [ 273751.989947885973379, 9867743.930807156488299 ], [ 273765.705275100015569, 9867743.222064450383186 ], [ 273777.494905333442148, 9867742.290693413466215 ], [ 273863.895783787535038, 9867781.540468150749803 ], [ 273884.977930745342746, 9867784.409569138661027 ], [ 273900.23372250207467, 9867793.01452355645597 ], [ 273912.700276848918293, 9867794.959259573370218 ], [ 273931.807875058206264, 9867803.445400059223175 ], [ 273944.940440752892755, 9867807.978678487241268 ], [ 273960.444992162403651, 9867811.374525392428041 ], [ 274010.592383751587477, 9867830.302182644605637 ], [ 274030.478768857079558, 9867839.408247016370296 ], [ 274045.871741237700917, 9867843.146864119917154 ], [ 274060.081837636476848, 9867850.766680736094713 ], [ 274091.045696520304773, 9867858.50947986356914 ], [ 274108.472754170419648, 9867866.430289838463068 ], [ 274116.020585542777553, 9867866.093006683513522 ], [ 274137.992169917793944, 9867855.40312547981739 ], [ 274159.961609300575219, 9867847.610973646864295 ], [ 274167.610575128055643, 9867845.990800514817238 ], [ 274177.447426127677318, 9867836.265237124636769 ], [ 274245.309366798610426, 9867805.402587797492743 ], [ 274274.341342827538028, 9867791.123419487848878 ], [ 274341.961597315676045, 9867755.836593199521303 ], [ 274542.56270159262931, 9867649.487874004989862 ], [ 274580.808478379622102, 9867624.88548237644136 ], [ 274623.534049572481308, 9867608.979573706164956 ], [ 274639.906981594045646, 9867597.113220602273941 ], [ 274674.405919808952603, 9867566.148569386452436 ], [ 274686.401423766859807, 9867557.685468062758446 ], [ 274705.345123953884467, 9867561.880146229639649 ], [ 274759.400598265347071, 9867534.303254745900631 ], [ 274773.612462578108534, 9867524.370813582092524 ], [ 274798.555089353816584, 9867515.187320806086063 ], [ 274807.638315302319825, 9867515.923990767449141 ], [ 274827.278156325803138, 9867496.970603756606579 ], [ 274873.738044716825243, 9867474.088615154847503 ], [ 274880.01733489218168, 9867472.998314430937171 ], [ 274907.610674758616369, 9867446.983475809916854 ], [ 274921.677741187275387, 9867437.139415772631764 ], [ 274998.850861585407984, 9867399.293846752494574 ], [ 275011.711923310998827, 9867394.503313699737191 ], [ 275037.44131967460271, 9867360.004109410569072 ], [ 275105.497665734495968, 9867321.565654058009386 ], [ 275127.180420416756533, 9867294.772284999489784 ], [ 275146.877005102869589, 9867289.356389289721847 ], [ 275163.444169847411104, 9867285.718837551772594 ], [ 275178.038500772032421, 9867270.34519412741065 ], [ 275218.680235594860278, 9867242.017449693754315 ], [ 275257.373044521606062, 9867214.783209590241313 ], [ 275281.503277289448306, 9867205.145685849711299 ], [ 275316.820483162882738, 9867181.403910417109728 ], [ 275360.208155643893406, 9867157.988842502236366 ], [ 275386.406367065093946, 9867151.814620004966855 ], [ 275409.778649842832237, 9867128.395829642191529 ], [ 275427.164106308599003, 9867117.061156030744314 ], [ 275452.506365478096996, 9867109.227309796959162 ], [ 275482.008172627422027, 9867091.497875412926078 ], [ 275504.17847003787756, 9867082.754770701751113 ], [ 275526.812483970948961, 9867079.188067654147744 ], [ 275532.979058682336472, 9867079.944700226187706 ], [ 275541.743483456666581, 9867075.162215182557702 ], [ 275560.668660416093189, 9867059.061845613643527 ], [ 275622.082920233602636, 9867030.296046143397689 ], [ 275634.571308571146801, 9867017.553152104839683 ], [ 275693.246979768271558, 9866973.832296282052994 ], [ 275714.214660603262018, 9866965.530710086226463 ], [ 275735.253272858099081, 9866951.62178648263216 ], [ 275854.723500552529003, 9866904.074892545118928 ], [ 275871.068249341857154, 9866900.016910260543227 ], [ 275894.978853388747666, 9866886.154356637969613 ], [ 275926.237633207230829, 9866870.837321680039167 ], [ 275980.051050896639936, 9866838.736918779090047 ], [ 276017.59001163119683, 9866821.024525480344892 ], [ 276050.927164159656968, 9866810.144063387066126 ], [ 276051.902865921030752, 9866800.367812873795629 ], [ 276097.351180874044076, 9866790.03823347017169 ], [ 276135.437544653657824, 9866754.586144678294659 ], [ 276253.919501587632112, 9866703.211870346218348 ], [ 276376.148847834672779, 9866642.140849655494094 ], [ 276455.469011546869297, 9866605.082394380122423 ], [ 276494.673072209174279, 9866593.54268815740943 ], [ 276535.533381494577043, 9866555.095485774800181 ], [ 276542.863200652645901, 9866548.310123993083835 ], [ 276556.93435801716987, 9866547.767519002780318 ], [ 276646.965104970149696, 9866508.294886970892549 ], [ 276662.957963136897888, 9866498.242198199033737 ], [ 276675.290976203745231, 9866484.725064657628536 ], [ 276745.097293775237631, 9866457.171134229749441 ], [ 276766.780976546288002, 9866443.82680744305253 ], [ 276780.710001191822812, 9866439.755994942039251 ], [ 276791.558712378377095, 9866431.31425715982914 ], [ 276814.66536040767096, 9866420.5589949041605 ], [ 276830.447345478925854, 9866409.62136865966022 ], [ 276841.193824427784421, 9866403.944526251405478 ], [ 276849.986852738307789, 9866390.457971394062042 ], [ 276851.642301885411143, 9866379.720056401565671 ], [ 276857.680509547528345, 9866373.331907683983445 ], [ 276877.151248489273712, 9866371.91955903545022 ], [ 276892.562191372155212, 9866365.969665391370654 ], [ 276912.080066119669937, 9866361.018192034214735 ], [ 276933.373163003008813, 9866364.031134175136685 ], [ 276940.963978075073101, 9866365.574058601632714 ], [ 276945.706906377512496, 9866364.571111254394054 ], [ 276948.907154721673578, 9866357.262900810688734 ], [ 276950.114803049480543, 9866349.942159922793508 ], [ 276970.555689449654892, 9866331.166534664109349 ], [ 276977.084233254892752, 9866324.048800183460116 ], [ 277090.061583560425788, 9866279.063252409920096 ], [ 277234.225556637044065, 9866195.324895774945617 ], [ 277243.317583509604447, 9866183.91784112714231 ], [ 277301.766164291184396, 9866145.262573644518852 ], [ 277329.921551662031561, 9866141.334989374503493 ], [ 277410.146947169327177, 9866143.960070131346583 ], [ 277420.611729965137783, 9866142.828626923263073 ], [ 277435.260674123826902, 9866128.528003010898829 ], [ 277447.065983176813461, 9866105.930404709652066 ], [ 277448.950864611542784, 9866101.054407233372331 ], [ 277410.508415590855293, 9866076.506375476717949 ], [ 277413.334390907199122, 9866063.479970563203096 ], [ 277442.792575408238918, 9866043.936861885711551 ], [ 277452.72744148405036, 9866036.821660522371531 ], [ 277450.479711553023662, 9866020.517801264300942 ], [ 277459.524878707132302, 9866012.251721343025565 ], [ 277467.537717400118709, 9866015.088955255225301 ], [ 277482.828452372283209, 9866006.009059002622962 ], [ 277487.784294961369596, 9866003.070801619440317 ], [ 277493.936718236480374, 9866007.797893038019538 ], [ 277502.857423443580046, 9866002.252441700547934 ], [ 277515.220240447437391, 9865978.416567478328943 ], [ 277558.502504820760805, 9865961.106705805286765 ], [ 277593.473879843601026, 9865937.55296752601862 ], [ 277635.8677011259133, 9865902.28129855543375 ], [ 277695.528776350896806, 9865849.50363078340888 ], [ 277703.374491502298042, 9865837.443158460780978 ], [ 277718.327536801341921, 9865833.384186265990138 ], [ 277741.540817332570441, 9865828.756202712655067 ], [ 277775.310189732233994, 9865834.974633477628231 ], [ 277851.00360438413918, 9865854.10868114233017 ], [ 277884.246829846524633, 9865864.308234941214323 ], [ 277918.715913718100637, 9865872.661697406321764 ], [ 277940.47607791912742, 9865876.106286281719804 ], [ 277970.496092108543962, 9865879.490604419261217 ], [ 277989.067203588376287, 9865875.091435216367245 ], [ 278021.995080217020586, 9865860.030140865594149 ], [ 278119.966318011283875, 9865814.469636881724 ], [ 278163.991434845142066, 9865785.846163326874375 ], [ 278216.375345948734321, 9865758.810409458354115 ], [ 278330.337838992360048, 9865674.707325514405966 ], [ 278460.735784851014614, 9865598.855954764410853 ], [ 278562.780140187474899, 9865539.263712173327804 ], [ 278623.660615624394268, 9865523.006494596600533 ], [ 278647.318923104205169, 9865518.511548984795809 ], [ 278658.862300116219558, 9865518.862909847870469 ], [ 278669.209772460279055, 9865510.631012385711074 ], [ 278681.61069216474425, 9865510.441076509654522 ], [ 278693.0940578362206, 9865501.590670265257359 ], [ 278706.445062372309621, 9865496.12592813000083 ], [ 278724.275976575154345, 9865483.951213410124183 ], [ 278741.04444095591316, 9865478.466871237382293 ], [ 278758.651655955356546, 9865467.729762172326446 ], [ 278770.287590881285723, 9865463.314434541389346 ], [ 278790.244406929938123, 9865451.484142657369375 ], [ 278802.290705793653615, 9865449.11517277918756 ], [ 278806.626170120434836, 9865442.040124420076609 ], [ 278830.709598548943177, 9865419.529153812676668 ], [ 278854.158293805667199, 9865397.316332658752799 ], [ 278871.728792822337709, 9865375.961843073368073 ], [ 278883.820299924002029, 9865357.556270932778716 ], [ 278904.682103893719614, 9865341.203219994902611 ], [ 278911.925087112351321, 9865346.329223141074181 ], [ 278928.23256108770147, 9865347.038007756695151 ], [ 278934.439339344389737, 9865353.457236181944609 ], [ 278943.847771507396828, 9865350.588636111468077 ], [ 279028.821647482807748, 9865388.66358352266252 ], [ 279146.716588110430166, 9865435.676846602931619 ], [ 279218.387456469179597, 9865474.52711240015924 ], [ 279272.648156708688475, 9865543.878320695832372 ], [ 279267.246288564929273, 9865563.085097227245569 ], [ 279271.546674161101691, 9865573.418041992932558 ], [ 279303.615263316023629, 9865591.170340375974774 ], [ 279336.584668689756654, 9865610.084561474621296 ], [ 279346.979718358721584, 9865612.779706778004766 ], [ 279372.326836957596242, 9865612.521823490038514 ], [ 279378.746321669896133, 9865632.47827198728919 ], [ 279383.495245193014853, 9865638.365528889000416 ], [ 279401.26424894190859, 9865649.747961584478617 ], [ 279418.149164668866433, 9865682.685132743790746 ], [ 279478.133185916114599, 9865765.1571832485497 ], [ 279498.880133152124472, 9865783.863304475322366 ], [ 279508.407015388133004, 9865786.414019474759698 ], [ 279518.428041972336359, 9865798.222074801102281 ], [ 279541.785224954190198, 9865809.542210718616843 ], [ 279575.262622258858755, 9865818.834767214953899 ], [ 279629.033096792642027, 9865812.968258839100599 ], [ 279648.772785154287703, 9865808.647307766601443 ], [ 279684.935877666110173, 9865813.882902489975095 ], [ 279701.091281776432879, 9865824.589458765462041 ], [ 279710.341402416699566, 9865825.038616836071014 ], [ 279737.857332368032075, 9865827.292812807485461 ], [ 279760.627634932403453, 9865834.354501640424132 ], [ 279809.216202950454317, 9865866.595877420157194 ], [ 279830.462471292528789, 9865872.273977214470506 ], [ 279868.209265102166682, 9865873.374365856871009 ], [ 279902.192117250175215, 9865891.647694494575262 ], [ 280014.738099262700416, 9865915.906394558027387 ], [ 280072.776334921130911, 9865934.440560245886445 ], [ 280159.86722959834151, 9865954.389422442764044 ], [ 280164.499775435426272, 9865951.970734318718314 ], [ 280175.181280756311025, 9865958.702808784320951 ], [ 280186.081412659492344, 9865955.669351670891047 ], [ 280195.896139255841263, 9865960.35475292801857 ], [ 280198.784647113527171, 9865968.209226345643401 ], [ 280205.417424548126291, 9865970.547655120491982 ], [ 280211.254585995222442, 9865964.845123201608658 ], [ 280231.680759999435395, 9865980.741706600412726 ], [ 280237.187818196776789, 9865985.025814469903708 ], [ 280243.139885435579345, 9865989.66415586322546 ], [ 280264.833342604339123, 9865992.666084099560976 ], [ 280273.564381141564809, 9865987.452287491410971 ], [ 280286.824784274445847, 9865983.92286266759038 ], [ 280292.800428245216608, 9865986.758493654429913 ], [ 280298.231010925257578, 9865973.789466112852097 ], [ 280304.610942362807691, 9865971.759139481931925 ], [ 280314.248485916003119, 9865975.172542493790388 ], [ 280331.608843218826223, 9865997.381941573694348 ], [ 280362.361134844424669, 9866018.871156118810177 ], [ 280392.287044748489279, 9866028.702877754345536 ], [ 280436.880904074991122, 9866028.182378239929676 ], [ 280451.159721331787296, 9866017.177361093461514 ], [ 280465.017933655704837, 9866018.160704247653484 ], [ 280489.466979944438208, 9866028.087959118187428 ], [ 280505.802952497440856, 9866035.38816500082612 ], [ 280536.271176679816563, 9866034.215904735028744 ], [ 280546.178627084358595, 9866033.84708902798593 ], [ 280553.089801128488034, 9866036.030870934948325 ], [ 280557.434285795199685, 9866047.016264893114567 ], [ 280562.340296450303867, 9866051.211442587897182 ], [ 280568.840154637466185, 9866052.631808195263147 ], [ 280593.885371676937211, 9866069.339041780680418 ], [ 280598.154930999036878, 9866076.210188861936331 ], [ 280606.025004489463754, 9866076.226974345743656 ], [ 280611.82219990825979, 9866079.526966379955411 ], [ 280617.144322441890836, 9866077.894010627642274 ], [ 280623.39663639315404, 9866082.952816836535931 ], [ 280640.357621427800041, 9866072.690745107829571 ], [ 280667.23511590261478, 9866049.595642898231745 ], [ 280679.331829471047968, 9866038.965067353099585 ], [ 280686.749435189354699, 9866033.573358558118343 ], [ 280705.969144374190364, 9866039.979812229052186 ], [ 280712.661823752103373, 9866036.467714961618185 ], [ 280723.133519562485162, 9866040.854948930442333 ], [ 280738.432642895146273, 9866035.03764683008194 ], [ 280759.2920940205222, 9866036.77812091819942 ], [ 280777.911492846091278, 9866042.078167021274567 ], [ 280795.926959449891001, 9866051.259703598916531 ], [ 280801.238607009174302, 9866064.026383433490992 ], [ 280809.977532178512774, 9866078.542975727468729 ], [ 280844.200126812560484, 9866088.488338015973568 ], [ 280851.81955498282332, 9866081.083921778947115 ], [ 280867.732256344053894, 9866073.409041862934828 ], [ 280887.630283707287163, 9866065.460567690432072 ], [ 280906.322193765256088, 9866062.875137135386467 ], [ 280928.65927629172802, 9866068.553895555436611 ], [ 280957.693430901970714, 9866095.306101243942976 ], [ 280971.779174881870858, 9866104.827607640996575 ], [ 280990.543723062495701, 9866109.508394137024879 ], [ 280997.496200964204036, 9866116.116036782041192 ], [ 281012.267028473666869, 9866117.299080224707723 ], [ 281023.022752018703613, 9866129.107503956183791 ], [ 281032.193018365418538, 9866132.144496198743582 ], [ 281040.324336069403216, 9866124.950585316866636 ], [ 281051.433383771218359, 9866125.401033161208034 ], [ 281064.789896607049741, 9866127.401458228006959 ], [ 281075.590780764410738, 9866122.99650907702744 ], [ 281117.346469687763602, 9866137.061461180448532 ], [ 281137.23680276167579, 9866139.674900466576219 ], [ 281150.776804537046701, 9866118.903708927333355 ], [ 281174.994490817654878, 9866110.095707468688488 ], [ 281184.157261054613627, 9866108.111624537035823 ], [ 281193.323472627089359, 9866101.382970966398716 ], [ 281209.418847341556102, 9866087.360001979395747 ], [ 281222.900012499769218, 9866040.277966316789389 ], [ 281248.933639225084335, 9866014.063468193635345 ], [ 281269.143523989478126, 9866005.80554904974997 ], [ 281281.476574163418263, 9865991.547607813030481 ], [ 281278.280302085331641, 9865978.273761069402099 ], [ 281273.284359386190772, 9865975.306160343810916 ], [ 281272.70577607449377, 9865959.612159170210361 ], [ 281278.309430048451759, 9865938.149532111361623 ], [ 281281.850862631166819, 9865920.644747564569116 ], [ 281293.569162223604508, 9865909.848022343590856 ], [ 281303.533277216716669, 9865908.030422952026129 ], [ 281317.242921545403078, 9865914.2337556630373 ], [ 281325.824764732737094, 9865915.102635456249118 ], [ 281336.996117840171792, 9865906.362600386142731 ], [ 281357.8018167730188, 9865890.042674334719777 ], [ 281365.743227590282913, 9865883.744467698037624 ], [ 281372.644372186390683, 9865884.368815863505006 ], [ 281375.284111895074602, 9865882.236229563131928 ], [ 281378.67993335693609, 9865881.298629032447934 ], [ 281385.095084851840511, 9865876.691433537751436 ], [ 281395.344244573498145, 9865865.561858456581831 ], [ 281402.236905855126679, 9865862.5365328527987 ], [ 281429.77725128387101, 9865876.834466859698296 ], [ 281457.951423258986324, 9865892.061860041692853 ], [ 281470.432970549969468, 9865887.901450630277395 ], [ 281479.995317690190859, 9865887.488125192001462 ], [ 281490.374829231179319, 9865880.793543495237827 ], [ 281504.10894742119126, 9865883.93337413482368 ], [ 281511.570013168500736, 9865879.946275075897574 ], [ 281526.244222066248767, 9865860.801710467785597 ], [ 281545.095056273974478, 9865853.858906876295805 ], [ 281565.766476334480103, 9865838.456839136779308 ], [ 281640.475099881121423, 9865847.602019634097815 ], [ 281656.078895617160015, 9865851.318297730758786 ], [ 281671.994318715762347, 9865855.112217459827662 ], [ 281704.091309867682867, 9865864.093752542510629 ], [ 281761.566543794237077, 9865890.877476187422872 ] ] } },
{ "type": "Feature", "properties": { "name": null, "fclass": "stream" }, "geometry": { "type": "LineString", "coordinates": [ [ 271941.581773720798083, 9867060.657894670963287 ], [ 271944.913555983628612, 9867056.335866885259748 ], [ 271951.773390479269437, 9867053.166746012866497 ], [ 271977.787251400295645, 9867056.050858316943049 ], [ 271984.921903289563488, 9867057.527216508984566 ], [ 272001.333731511840597, 9867053.635293120518327 ], [ 272017.566977494803723, 9867050.362605154514313 ], [ 272022.698027079517487, 9867051.572014577686787 ], [ 272027.239707926055416, 9867051.929348388686776 ], [ 272031.940053466823883, 9867048.537403307855129 ], [ 272038.661673966853414, 9867051.528693465515971 ], [ 272042.034562555258162, 9867051.763488076627254 ], [ 272050.006668125628494, 9867049.856060905382037 ], [ 272056.727217609877698, 9867054.274111326783895 ], [ 272078.298927376803476, 9867057.663647815585136 ], [ 272088.576628341455944, 9867054.121044801548123 ], [ 272095.520505141757894, 9867042.789583342149854 ], [ 272099.4415929854149, 9867039.397054094821215 ], [ 272118.77597860712558, 9867042.442044999450445 ], [ 272125.265495901519898, 9867043.199004583060741 ], [ 272134.580878110486083, 9867046.247537791728973 ], [ 272153.205951536947396, 9867045.089131100103259 ], [ 272158.428436194255482, 9867043.124339316040277 ], [ 272197.209635654347949, 9867032.878536293283105 ], [ 272227.565826621837914, 9867034.693047493696213 ], [ 272246.754667767090723, 9867038.821814861148596 ], [ 272258.387094272882678, 9867039.803830413147807 ], [ 272271.914134413178544, 9867037.933745618909597 ], [ 272292.736142002977431, 9867031.567646510899067 ], [ 272315.940048157819547, 9867025.723160261288285 ], [ 272344.940842562995385, 9867023.86467351205647 ], [ 272369.895919431583025, 9867043.161218667402864 ], [ 272374.085448937956244, 9867052.919409887865186 ], [ 272381.206377264927141, 9867057.835451645776629 ], [ 272387.617073950939812, 9867059.775780785828829 ], [ 272393.681114562554285, 9867063.795157790184021 ], [ 272399.269751800282393, 9867063.434359734877944 ], [ 272424.891479931364302, 9867084.445710862055421 ], [ 272424.924901375430636, 9867084.412555454298854 ], [ 272428.075503840926103, 9867084.160531746223569 ], [ 272433.165096590295434, 9867081.255525236949325 ], [ 272487.544519762450363, 9867112.839773420244455 ], [ 272498.630182013264857, 9867115.524626100435853 ], [ 272513.364496357855387, 9867121.828874973580241 ], [ 272522.042814489337616, 9867128.23919128999114 ], [ 272530.32377558783628, 9867130.103492019698024 ], [ 272541.883146771229804, 9867139.435839330777526 ], [ 272547.647652786399703, 9867142.072465594857931 ], [ 272552.854258239909541, 9867146.434055712074041 ], [ 272559.218951005372219, 9867150.343046249821782 ], [ 272563.037474782555364, 9867150.10258000716567 ], [ 272566.344240372476634, 9867149.430385513231158 ], [ 272569.413250018667895, 9867154.077939089387655 ], [ 272612.922187958960421, 9867178.077795771881938 ], [ 272717.561179154668935, 9867227.605859568342566 ], [ 272740.485380569472909, 9867238.461911272257566 ], [ 272750.12244740803726, 9867243.025882337242365 ], [ 272754.729543660883792, 9867245.208168502897024 ], [ 272777.397166918439325, 9867256.782929301261902 ], [ 272793.981457849266008, 9867260.356674080714583 ], [ 272816.667174050118774, 9867277.516802383586764 ], [ 272887.132272542687133, 9867309.533140979707241 ], [ 272933.707234958477784, 9867327.253013065084815 ], [ 272985.344427905860357, 9867348.869802517816424 ], [ 273002.748737634217832, 9867357.476484604179859 ], [ 273030.201703772589099, 9867371.04558277502656 ], [ 273039.06768789072521, 9867379.579533997923136 ], [ 273058.798142487648875, 9867388.829426942393184 ], [ 273067.789028731058352, 9867394.078616673126817 ], [ 273094.398562382324599, 9867419.083217825740576 ], [ 273118.49905793950893, 9867434.91711562499404 ], [ 273187.767208562116139, 9867489.660878779366612 ], [ 273271.575890898529906, 9867556.813760336488485 ], [ 273278.477041828795336, 9867557.880660302937031 ], [ 273286.206814448174555, 9867567.409146612510085 ], [ 273303.322586208465509, 9867574.810011094436049 ], [ 273333.597041983623058, 9867596.565588414669037 ], [ 273339.652369655086659, 9867597.33323416300118 ], [ 273343.125784124131314, 9867597.092493182048202 ], [ 273345.884258482663427, 9867600.191367652267218 ], [ 273353.396674205781892, 9867602.608048718422651 ], [ 273362.458390792948194, 9867602.426759907975793 ], [ 273374.588186436332762, 9867608.164896599948406 ], [ 273390.017043870873749, 9867608.596641479060054 ], [ 273396.684852254227735, 9867609.07717820070684 ], [ 273402.806971177575178, 9867609.844871612265706 ], [ 273413.83720390277449, 9867612.186742363497615 ], [ 273425.866791896871291, 9867617.946920437738299 ], [ 273442.857797059987206, 9867628.455556929111481 ], [ 273456.30137358920183, 9867633.940279643982649 ], [ 273464.960505320050288, 9867636.21402538754046 ], [ 273472.193021598737687, 9867640.776148226112127 ], [ 273491.21296800597338, 9867647.393135296180844 ], [ 273500.706821376748849, 9867649.921880334615707 ], [ 273505.782277741585858, 9867651.009535228833556 ], [ 273510.422348816180602, 9867653.755878565832973 ], [ 273516.0626143256668, 9867658.792400110512972 ], [ 273524.678898621234111, 9867658.798794539645314 ], [ 273551.643848401494324, 9867669.93418057449162 ], [ 273570.744276015087962, 9867673.10047310590744 ], [ 273655.969294195878319, 9867706.808418989181519 ] ] } },
{ "type": "Feature", "properties": { "name": null, "fclass": "stream" }, "geometry": { "type": "LineString", "coordinates": [ [ 269768.815868832403794, 9867041.455291751772165 ], [ 269826.013433339830954, 9867042.173317303881049 ], [ 269842.829911891021766, 9867048.14756547100842 ], [ 269849.732619768357836, 9867047.301151569932699 ], [ 269859.349067083676346, 9867049.830187190324068 ], [ 269869.811070544528775, 9867053.023481158539653 ], [ 269875.929636232962366, 9867058.613570660352707 ], [ 269883.376613628293853, 9867059.371312323957682 ], [ 269894.153329287015367, 9867073.293338499963284 ], [ 269897.103253947221674, 9867088.193802921101451 ], [ 269905.683665936463512, 9867106.383440192788839 ], [ 269911.324510048958473, 9867125.400372978299856 ], [ 269930.684731986839324, 9867153.441834278404713 ], [ 269934.322486470802687, 9867171.495000401511788 ], [ 269936.693748274934478, 9867186.11851392686367 ], [ 269949.795171913632657, 9867217.362716272473335 ], [ 269954.989089883049019, 9867223.836920596659184 ], [ 269957.923708125483245, 9867229.557315438985825 ], [ 269963.12007726856973, 9867232.790852811187506 ], [ 269968.771568424417637, 9867237.750140847638249 ], [ 269976.745992835029028, 9867247.644078420475125 ], [ 270005.485889064439107, 9867267.485860047861934 ], [ 270016.12566148431506, 9867285.876115716993809 ], [ 270024.036997638468165, 9867290.870288155972958 ], [ 270034.398346462578047, 9867294.682859556749463 ], [ 270048.059928166447207, 9867291.806445231661201 ], [ 270067.861084854870569, 9867281.457910969853401 ], [ 270079.278274910408072, 9867287.560758855193853 ], [ 270090.089159800380003, 9867285.755038490518928 ], [ 270109.4300068601151, 9867280.538131967186928 ], [ 270119.666288582258858, 9867287.801415368914604 ], [ 270121.388970723899547, 9867291.552155066281557 ], [ 270121.047874137409963, 9867300.986325087025762 ], [ 270124.938048801326659, 9867309.129636822268367 ], [ 270137.735783382784575, 9867315.05655668862164 ], [ 270161.006085636443458, 9867324.928845154121518 ] ] } },
{ "type": "Feature", "properties": { "name": "Gatharaini River", "fclass": "stream" }, "geometry": { "type": "LineString", "coordinates": [ [ 270020.119779042084701, 9864793.496350161731243 ], [ 270046.327743155008648, 9864819.043692398816347 ], [ 270063.396038292208686, 9864830.227727932855487 ], [ 270077.396238552115392, 9864850.147032655775547 ], [ 270094.016624513256829, 9864864.737287366762757 ], [ 270105.533811303146649, 9864870.862489027902484 ], [ 270119.743848449666984, 9864878.493960293009877 ], [ 270122.892985495040193, 9864880.177546672523022 ], [ 270127.198593319451902, 9864883.532126417383552 ], [ 270133.346833623130806, 9864879.333943853154778 ], [ 270136.670592774054967, 9864871.08552266843617 ], [ 270141.038674853276461, 9864865.580857129767537 ], [ 270163.977108036575373, 9864857.823114603757858 ], [ 270195.105288566148374, 9864854.739111797884107 ], [ 270208.942171846050769, 9864855.41336896456778 ], [ 270217.204294927243609, 9864852.831614864990115 ], [ 270228.084402100066654, 9864847.774369785562158 ], [ 270247.54340168077033, 9864848.021597325801849 ], [ 270263.590044497803319, 9864841.442005384713411 ], [ 270305.338229258777574, 9864853.032092886045575 ], [ 270327.261187624768354, 9864848.414685498923063 ], [ 270337.53376954770647, 9864851.652181927114725 ], [ 270348.630817330209538, 9864854.005488961935043 ], [ 270375.035984847694635, 9864854.700456243008375 ], [ 270401.711950825178064, 9864850.672891780734062 ], [ 270416.966861463559326, 9864845.818091513589025 ], [ 270429.700742608343717, 9864833.16386211104691 ], [ 270438.151396097266115, 9864817.011296888813376 ], [ 270441.15147550124675, 9864809.846545716747642 ], [ 270454.68290699692443, 9864802.358079176396132 ], [ 270466.869818173523527, 9864791.638981025665998 ], [ 270482.572568287316244, 9864783.455387314781547 ], [ 270492.872588004800491, 9864779.946136396378279 ], [ 270509.561506051104516, 9864777.746906273066998 ], [ 270528.60935076122405, 9864776.987322712317109 ], [ 270541.068263705528807, 9864774.464093824848533 ], [ 270557.126939009933267, 9864766.667883915826678 ], [ 270563.295145839278121, 9864765.433873072266579 ], [ 270567.045593970804475, 9864766.885648975148797 ], [ 270570.983029879047535, 9864771.279598649591208 ], [ 270574.165309522708412, 9864773.283951006829739 ], [ 270579.137456691125408, 9864778.441853245720267 ], [ 270586.390377175586764, 9864785.337968222796917 ], [ 270599.600382113130763, 9864790.491136018186808 ], [ 270623.470909319643397, 9864786.560954369604588 ], [ 270636.221274279872887, 9864781.405604161322117 ], [ 270645.86038824939169, 9864783.226888617500663 ], [ 270716.973339181975462, 9864753.872268600389361 ], [ 270735.252824909752235, 9864738.888599107041955 ], [ 270749.576897452352569, 9864757.425520734861493 ], [ 270764.601807263854425, 9864762.104480950161815 ], [ 270788.696667429758236, 9864755.940295277163386 ], [ 270806.591958927980158, 9864748.366699393838644 ], [ 270809.444190957176033, 9864745.260958589613438 ], [ 270812.306109733472113, 9864729.535481292754412 ], [ 270814.726223176403437, 9864723.774949423968792 ], [ 270817.956203219422605, 9864721.642800932750106 ], [ 270823.0983509622165, 9864722.863375579938293 ], [ 270826.703472409048118, 9864725.100313050672412 ], [ 270832.772446053451858, 9864722.605355592444539 ], [ 270839.922551230527461, 9864718.407949982210994 ], [ 270846.361145477683749, 9864712.971250744536519 ], [ 270852.807704901439138, 9864711.660029780119658 ], [ 270857.473620051634498, 9864709.68382721580565 ], [ 270863.336717611528002, 9864699.844708908349276 ], [ 270868.450085645366926, 9864695.048487504944205 ], [ 270873.530515355756506, 9864689.654987769201398 ], [ 270879.70838064479176, 9864690.323344815522432 ], [ 270884.786704330239445, 9864687.672784360125661 ], [ 270891.349491168220993, 9864679.968831969425082 ], [ 270897.729577680758666, 9864678.237271292135119 ], [ 270899.736227270681411, 9864674.522569850087166 ], [ 270903.456904537510127, 9864656.740554863587022 ], [ 270907.211174372816458, 9864653.204159360378981 ], [ 270914.471001132042147, 9864651.086166378110647 ], [ 270920.274241225153673, 9864646.710765734314919 ], [ 270925.853809576597996, 9864643.673482805490494 ], [ 270930.485153617162723, 9864643.223568506538868 ], [ 270934.281828669831157, 9864642.452266376465559 ], [ 270940.015294314711355, 9864641.958957133814692 ], [ 270946.625860188039951, 9864644.518947534263134 ], [ 270949.299396771937609, 9864642.165168687701225 ], [ 270955.221438560285605, 9864642.545762928202748 ], [ 270958.248607333225664, 9864643.576688999310136 ], [ 270963.048317338805646, 9864641.324084481224418 ], [ 270967.259582807309926, 9864637.035944283008575 ], [ 270979.10422361077508, 9864622.56718416325748 ], [ 270985.052179346967023, 9864618.191895894706249 ], [ 270990.553828060743399, 9864615.143493715673685 ], [ 270996.744526474969462, 9864613.588752644136548 ], [ 271003.772822307888418, 9864608.539619650691748 ], [ 271009.367679792572744, 9864600.082833584398031 ], [ 271013.129631217569113, 9864586.536932008340955 ], [ 271017.810128850920592, 9864580.05922712571919 ], [ 271021.666130763129331, 9864574.509949270635843 ], [ 271030.436813706939574, 9864561.952255964279175 ], [ 271036.036153423599899, 9864562.155639579519629 ], [ 271041.337471472448669, 9864559.040723850950599 ], [ 271040.373089705244638, 9864553.675769524648786 ], [ 271041.856465258286335, 9864550.038091348484159 ], [ 271044.695190930389799, 9864550.01815065741539 ], [ 271047.586188985384069, 9864554.411283558234572 ], [ 271052.561437484982889, 9864555.510066837072372 ], [ 271056.447675910254475, 9864554.075220318511128 ], [ 271061.516762719256803, 9864548.947164041921496 ], [ 271068.659171093488112, 9864540.259304901584983 ], [ 271082.302810942695942, 9864531.532197376713157 ], [ 271091.62545389123261, 9864525.024879205971956 ], [ 271117.629163083736785, 9864511.949532834812999 ], [ 271122.30624323739903, 9864509.918041788041592 ], [ 271126.06094853131799, 9864505.806519418954849 ], [ 271130.905333848611917, 9864503.354868257418275 ], [ 271138.644315905170515, 9864500.606813553720713 ], [ 271148.799516112194397, 9864497.163819743320346 ], [ 271155.92627811251441, 9864494.348933691158891 ], [ 271159.958556596480776, 9864491.188804684206843 ], [ 271165.70731389161665, 9864485.264936972409487 ], [ 271170.032400313357357, 9864477.714123053476214 ], [ 271176.20575128076598, 9864469.744440088048577 ], [ 271182.567058144486509, 9864463.456056218594313 ], [ 271188.837065113359131, 9864460.087502086535096 ], [ 271198.166959892259911, 9864458.623656393960118 ], [ 271236.912343334290199, 9864451.608043596148491 ], [ 271244.949204597505741, 9864452.355248907580972 ], [ 271250.922817820392083, 9864458.044788997620344 ], [ 271260.246052515693009, 9864465.252150163054466 ], [ 271270.550022361217998, 9864471.022434387356043 ], [ 271275.571252313093282, 9864470.218892365694046 ], [ 271281.410776095290203, 9864462.060932273045182 ], [ 271286.458540188206825, 9864455.694120386615396 ], [ 271291.860080078942701, 9864452.523983644321561 ], [ 271297.570697251707315, 9864452.77169182151556 ], [ 271304.003861185687128, 9864454.380361311137676 ], [ 271313.166953383130021, 9864452.673060463741422 ], [ 271342.473647544858977, 9864443.803138893097639 ], [ 271346.451175929047167, 9864439.44846654124558 ], [ 271344.48502265085699, 9864404.916963875293732 ], [ 271345.675222478283104, 9864377.145675869658589 ], [ 271349.072919260011986, 9864374.040364164859056 ], [ 271352.390474267071113, 9864373.821707203984261 ], [ 271357.710264764958993, 9864375.628606915473938 ], [ 271362.460438133275602, 9864379.879376530647278 ], [ 271366.555147047154605, 9864382.393188955262303 ], [ 271368.560142372734845, 9864380.824177829548717 ], [ 271386.601270031591412, 9864386.191171355545521 ], [ 271393.525203695695382, 9864386.55041323415935 ], [ 271398.110746267659124, 9864387.737375903874636 ], [ 271400.403105774428695, 9864388.867277169600129 ], [ 271405.580970471957698, 9864387.035256400704384 ], [ 271408.677723506931216, 9864384.416363196447492 ], [ 271409.828946116729639, 9864378.411551890894771 ], [ 271409.732212144997902, 9864373.90997146256268 ], [ 271409.914054016582668, 9864369.054678104817867 ], [ 271412.801690345397219, 9864363.316645042970777 ], [ 271416.523542455746792, 9864358.486189903691411 ], [ 271419.878313434775919, 9864353.290466139093041 ], [ 271420.516998802195303, 9864347.882513254880905 ], [ 271436.542713921051472, 9864339.378454841673374 ], [ 271442.379828327975702, 9864334.350540786981583 ], [ 271446.871106343576685, 9864327.817405175417662 ], [ 271454.098788830160629, 9864324.029302654787898 ], [ 271462.003494447795674, 9864322.896170105785131 ], [ 271470.189450063742697, 9864317.925361201167107 ], [ 271478.233183699310757, 9864309.702742334455252 ], [ 271483.123477261862718, 9864305.437256962060928 ], [ 271486.399531945004128, 9864301.270074205473065 ], [ 271485.767003313056193, 9864298.659379692748189 ], [ 271486.79353926377371, 9864295.56330992653966 ], [ 271489.833627707033884, 9864294.249479562044144 ], [ 271494.875694787886459, 9864295.293010342866182 ], [ 271497.960753251216374, 9864293.404083764180541 ], [ 271499.476662195054814, 9864290.883520666509867 ], [ 271500.52604830742348, 9864287.02431445941329 ], [ 271500.527704325388186, 9864284.867575537413359 ], [ 271503.611208546557464, 9864285.002665631473064 ], [ 271510.478336520900484, 9864286.843932446092367 ], [ 271514.783957114152145, 9864290.13211920298636 ], [ 271525.558155726699624, 9864292.38561256043613 ], [ 271535.859556538169272, 9864301.473948311060667 ], [ 271549.137299789581448, 9864305.277790028601885 ], [ 271564.164631920517422, 9864306.682909520342946 ], [ 271576.24411265051458, 9864319.765338324010372 ], [ 271586.990791858755983, 9864328.865069966763258 ], [ 271597.162265662453137, 9864333.186352390795946 ], [ 271611.433025344857015, 9864334.048936516046524 ], [ 271625.859387953300029, 9864335.232384938746691 ], [ 271639.018246020772494, 9864334.379783865064383 ], [ 271650.575508006790187, 9864331.656780578196049 ], [ 271657.823662261711434, 9864330.191334245726466 ], [ 271662.689970110717695, 9864328.159990884363651 ], [ 271668.583115819492377, 9864322.634413383901119 ], [ 271681.885235823458061, 9864309.162239246070385 ], [ 271689.694653161684982, 9864301.625177210196853 ], [ 271698.704449180921074, 9864296.555459668859839 ], [ 271704.439775044447742, 9864293.595727413892746 ], [ 271706.802622420131229, 9864289.903435427695513 ], [ 271716.088243292411789, 9864288.063506294041872 ], [ 271723.360677346587181, 9864283.965753579512239 ], [ 271742.316552772652358, 9864286.789582489058375 ], [ 271750.694445577100851, 9864292.80169178545475 ], [ 271756.237511615850963, 9864293.768179560080171 ], [ 271769.355196830874775, 9864288.52464972063899 ], [ 271778.209171459428035, 9864283.410572461783886 ], [ 271789.312141881906427, 9864277.900053462013602 ], [ 271796.910050226957537, 9864270.351772153750062 ], [ 271806.066320969490334, 9864262.981649462133646 ], [ 271814.062669418868609, 9864258.453105583786964 ], [ 271849.791476960410364, 9864250.91533911973238 ], [ 271863.808794372831471, 9864248.360125547274947 ], [ 271872.86194506357424, 9864244.805688727647066 ], [ 271885.077337172057014, 9864254.835580423474312 ], [ 271892.534640938916709, 9864256.433964140713215 ], [ 271900.340288006816991, 9864253.796565216034651 ], [ 271907.755326637241524, 9864252.441847814247012 ], [ 271911.218681000638753, 9864250.796536106616259 ], [ 271916.494790982222185, 9864251.475251998752356 ], [ 271962.071771938237362, 9864234.289493249729276 ], [ 271971.702887855470181, 9864231.90787791274488 ], [ 271978.081516523670871, 9864232.012309016659856 ], [ 271982.903572675422765, 9864229.604886885732412 ], [ 271988.23868110915646, 9864225.925937876105309 ], [ 272002.046713433577679, 9864220.450675198808312 ], [ 272022.345794300897978, 9864213.642107082530856 ], [ 272034.351064693648368, 9864207.324889922514558 ], [ 272044.315376092563383, 9864205.93894556351006 ], [ 272055.320892461109906, 9864211.355804512277246 ], [ 272065.200514142983593, 9864218.795810844749212 ], [ 272077.360168554238044, 9864228.914124231785536 ], [ 272083.702363303396851, 9864232.978065960109234 ], [ 272093.15262926754076, 9864234.157684296369553 ], [ 272102.013714751461521, 9864234.264014484360814 ], [ 272143.445890677161515, 9864236.308703264221549 ], [ 272161.966340818442404, 9864240.735894294455647 ], [ 272176.34772060753312, 9864242.450173437595367 ], [ 272195.746148139587604, 9864248.780381228774786 ], [ 272203.479227846255526, 9864253.66383396089077 ], [ 272214.273823156428989, 9864258.306306397542357 ], [ 272225.962669881409965, 9864258.138292504474521 ], [ 272240.057879263767973, 9864255.583125730976462 ], [ 272246.457611648598686, 9864257.191747933626175 ], [ 272255.339108829968609, 9864259.709202602505684 ], [ 272269.963611243059859, 9864263.746294071897864 ], [ 272317.503688208060339, 9864270.485130295157433 ], [ 272325.160195054369979, 9864273.598892234265804 ], [ 272328.39901835238561, 9864274.408761626109481 ], [ 272330.927198163291905, 9864272.851214228197932 ], [ 272335.370522113400511, 9864270.742124462500215 ], [ 272347.438808804785367, 9864269.324598103761673 ], [ 272360.366051485878415, 9864265.574036434292793 ], [ 272364.501796668220777, 9864258.078417342156172 ], [ 272368.791554903611541, 9864252.982969339936972 ], [ 272370.921889503952116, 9864247.620425652712584 ], [ 272372.408272089669481, 9864240.023238714784384 ], [ 272376.887199710472487, 9864235.02747736684978 ], [ 272383.66907441848889, 9864231.858403304591775 ], [ 272421.10466358443955, 9864204.933463387191296 ], [ 272444.20964719512267, 9864182.698126163333654 ], [ 272476.122130459349137, 9864157.826158391311765 ], [ 272482.759452106431127, 9864154.435773253440857 ], [ 272487.294002781272866, 9864149.484298631548882 ], [ 272491.225778679014184, 9864146.678030889481306 ], [ 272496.392310156719759, 9864145.056143580004573 ], [ 272503.590577137190849, 9864135.992334473878145 ], [ 272526.831197581661399, 9864111.058439178392291 ], [ 272544.998151409090497, 9864097.313527682796121 ], [ 272581.376012747874483, 9864070.564772710204124 ], [ 272589.574206882098224, 9864064.056626195088029 ], [ 272595.352143388357945, 9864063.552282385528088 ], [ 272600.522310793458018, 9864057.174540240317583 ], [ 272599.592363853240386, 9864050.449264723807573 ], [ 272612.243250858853571, 9864044.121489895507693 ], [ 272653.382454785634764, 9864006.968805931508541 ], [ 272658.094452802557498, 9864002.880163485184312 ], [ 272664.876160219428129, 9863999.910179134458303 ], [ 272672.137308225559536, 9863995.945149892941117 ], [ 272676.649300902034156, 9863991.369708908721805 ], [ 272688.067763911327347, 9863980.804963622242212 ], [ 272696.423536335467361, 9863972.029615817591548 ], [ 272702.815729525173083, 9863968.915552493184805 ], [ 272712.590003934456035, 9863968.502750378102064 ], [ 272722.340489647467621, 9863970.08075319416821 ], [ 272735.826404061168432, 9863978.120730331167579 ], [ 272747.452451476943679, 9863987.221054552122951 ], [ 272754.739424080878962, 9863993.143799910321832 ], [ 272759.158962867455557, 9863993.003400363028049 ], [ 272803.157759979076218, 9864015.743504203855991 ], [ 272806.706035982584581, 9864019.473480606451631 ], [ 272812.192254980909638, 9864021.944084985181689 ], [ 272819.238611933775246, 9864022.259158244356513 ], [ 272824.948529356624931, 9864023.347417769953609 ], [ 272828.362315615289845, 9864028.260723650455475 ], [ 272836.25080070074182, 9864033.686217114329338 ], [ 272844.165643663262017, 9864033.758630769327283 ], [ 272853.324443438963499, 9864037.537136310711503 ], [ 272865.977964894962497, 9864042.2916040122509 ], [ 272874.858961764082778, 9864045.417348464950919 ], [ 272883.053965071216226, 9864043.056748343631625 ], [ 272890.939401263603941, 9864037.908761408179998 ], [ 272900.146947069675662, 9864036.16830219887197 ], [ 272908.76145787909627, 9864038.397972017526627 ], [ 272920.230937339249067, 9864048.438266972079873 ], [ 272933.719004825223237, 9864053.657892040908337 ], [ 272941.567609609570354, 9864053.000283867120743 ], [ 272951.125867244496476, 9864058.471286348998547 ], [ 272958.898593125399202, 9864069.703243531286716 ], [ 272965.252698705764487, 9864087.282621547579765 ], [ 273002.288024113164283, 9864132.358753960579634 ], [ 273010.776763073401526, 9864138.934942852705717 ], [ 273013.634170330595225, 9864143.560251474380493 ], [ 273020.009719903813675, 9864147.646300606429577 ], [ 273028.811178551404737, 9864152.884452927857637 ], [ 273035.733186580822803, 9864155.676885295659304 ], [ 273045.450723852904048, 9864156.657593287527561 ], [ 273050.894287987845019, 9864156.672808822244406 ], [ 273067.443264306639321, 9864162.425637414678931 ], [ 273083.727586154825985, 9864164.882350012660027 ], [ 273095.984359228808898, 9864164.382939210161567 ], [ 273137.779209775966592, 9864172.256446262821555 ], [ 273190.022033853631001, 9864172.108279976993799 ], [ 273204.896850785589777, 9864183.555769452825189 ], [ 273212.099213989451528, 9864183.649743309244514 ], [ 273221.552340928581543, 9864181.002528969198465 ], [ 273251.620073297293857, 9864166.304469330236316 ], [ 273269.35706080601085, 9864161.528973966836929 ], [ 273306.589115473267157, 9864138.397528525441885 ], [ 273311.084527053521015, 9864126.33439482934773 ], [ 273319.688989254762419, 9864127.126223500818014 ], [ 273329.616847126395442, 9864129.644435431808233 ], [ 273338.074154867441393, 9864133.632517613470554 ], [ 273345.310253348317929, 9864133.273052182048559 ], [ 273352.091144208156038, 9864131.331646533682942 ], [ 273354.076533316983841, 9864126.234458547085524 ], [ 273358.477404235047288, 9864121.360314333811402 ], [ 273369.076605587382801, 9864119.388640178367496 ], [ 273378.76257510232972, 9864117.947153847664595 ], [ 273389.90028661582619, 9864110.501146184280515 ], [ 273393.554930975136813, 9864106.124137787148356 ], [ 273404.979763241717592, 9864101.708813838660717 ], [ 273418.353845781530254, 9864095.79080444201827 ], [ 273420.413961858837865, 9864094.885448094457388 ], [ 273428.604297792073339, 9864084.008568065240979 ], [ 273437.994100403564516, 9864076.793491737917066 ], [ 273479.867880978970788, 9864054.03058672696352 ], [ 273506.062954004039057, 9864022.971730498597026 ], [ 273557.274051050073467, 9864003.390199743211269 ], [ 273571.093145441147499, 9863997.804337536916137 ], [ 273616.968165663129184, 9863968.629656864330173 ], [ 273621.676465124997776, 9863969.341091690585017 ], [ 273649.703653435455635, 9863973.565288294106722 ], [ 273665.681304859521333, 9863983.951815789565444 ], [ 273714.637834197958, 9863986.643545666709542 ], [ 273751.981914128758945, 9863991.637972101569176 ], [ 273756.63690188631881, 9863989.263604659587145 ], [ 273774.622917961911298, 9863993.601793358102441 ], [ 273800.352375876856968, 9863974.531724931672215 ], [ 273817.842308629129548, 9863972.487877706065774 ], [ 273817.796710594790056, 9863973.892470851540565 ], [ 273822.966735816095024, 9863982.235695889219642 ], [ 273852.125388495274819, 9863977.059677544981241 ], [ 273859.164409500837792, 9863986.952732047066092 ], [ 273867.680881098029204, 9863986.306674504652619 ], [ 273884.72150183992926, 9863989.549188457429409 ], [ 273896.788622618478257, 9863989.50307690910995 ], [ 273916.368572715902701, 9863991.121693504974246 ], [ 273925.263924967264757, 9863989.956100190058351 ], [ 273937.907868773210794, 9863992.586959335952997 ], [ 273947.593591045821086, 9863991.421967128291726 ], [ 273977.870347910095006, 9863994.39804820343852 ], [ 274003.423582638031803, 9863987.416484916582704 ], [ 274027.34394274209626, 9863990.420903028920293 ], [ 274037.875488415535074, 9863989.521993424743414 ], [ 274048.140555971884169, 9863987.715956861153245 ], [ 274054.354852595715784, 9863984.236770631745458 ], [ 274063.22656995250145, 9863984.862884040921926 ], [ 274071.965393213555217, 9863984.58197220787406 ], [ 274080.827694454288576, 9863982.951828511431813 ], [ 274090.967707172385417, 9863984.563250076025724 ], [ 274102.266572675609495, 9863984.6935067884624 ], [ 274106.264610348269343, 9863982.517719700932503 ], [ 274117.012109975563362, 9863990.400647008791566 ], [ 274121.475300881545991, 9863991.366265900433064 ], [ 274135.793077984359115, 9864003.310942530632019 ], [ 274141.963292082480621, 9864013.877975402399898 ], [ 274142.809638319304213, 9864028.101832915097475 ], [ 274146.808168600662611, 9864039.91699786297977 ], [ 274150.371762383496389, 9864052.771475449204445 ], [ 274162.892512638936751, 9864056.364447144791484 ], [ 274168.210074896574952, 9864061.002646282315254 ], [ 274171.413124961196445, 9864064.898215131834149 ], [ 274178.727205756353214, 9864079.060625229030848 ], [ 274183.200058176415041, 9864081.961754869669676 ], [ 274186.349735129973851, 9864082.848951637744904 ], [ 274188.010055423830636, 9864080.671385705471039 ], [ 274190.015307264809962, 9864078.704222677275538 ], [ 274192.464341989893001, 9864078.706083843484521 ], [ 274197.629393847309984, 9864078.953329853713512 ], [ 274203.070416870818008, 9864082.26441603153944 ], [ 274209.311051225173287, 9864088.064617993310094 ], [ 274222.054908585734665, 9864105.692939925938845 ], [ 274224.858788334066048, 9864107.508916061371565 ], [ 274228.219468480849173, 9864109.059874216094613 ], [ 274235.264756590127945, 9864110.713171571493149 ], [ 274238.022268534870818, 9864114.951260017231107 ], [ 274242.840086363372393, 9864118.018549459055066 ], [ 274247.013753410778008, 9864119.105603070929646 ], [ 274251.164576824812684, 9864120.955781646072865 ], [ 274259.509651105792727, 9864126.105035878717899 ], [ 274273.84523873362923, 9864129.268032511696219 ], [ 274292.655701904557645, 9864132.666686514392495 ], [ 274307.561243490548804, 9864132.899204798042774 ], [ 274327.848469009972177, 9864141.287050468847156 ], [ 274347.405861410195939, 9864143.248461950570345 ], [ 274395.623830893775448, 9864165.482531510293484 ], [ 274410.905486092437059, 9864168.834254249930382 ], [ 274424.429942910792306, 9864170.005817735567689 ], [ 274437.555242279428057, 9864169.075673148036003 ], [ 274443.49922437465284, 9864169.721663692966104 ], [ 274465.394847744959407, 9864185.664704391732812 ], [ 274479.13911414006725, 9864190.56365754082799 ], [ 274490.011803604313172, 9864194.841070657595992 ], [ 274504.925969181698747, 9864213.046111635863781 ], [ 274513.781484879669733, 9864220.341377744451165 ], [ 274539.693100527278148, 9864239.782409980893135 ], [ 274542.674496103194542, 9864242.38377352617681 ], [ 274544.252260618144646, 9864260.998977690935135 ], [ 274549.009800925152376, 9864270.160276437178254 ], [ 274559.4629258242785, 9864284.579397218301892 ], [ 274576.560559390927665, 9864300.68467104062438 ], [ 274591.312190422380809, 9864313.038819482550025 ], [ 274603.350848452886567, 9864321.132805828005075 ], [ 274611.327957807283383, 9864327.089132979512215 ], [ 274645.915548848453909, 9864355.738626608625054 ], [ 274649.244623755803332, 9864354.922705547884107 ], [ 274710.32545024616411, 9864399.396976264193654 ], [ 274725.370366192306392, 9864406.663719894364476 ], [ 274740.518848618783522, 9864409.462297981604934 ], [ 274756.125655455572996, 9864409.728480566293001 ], [ 274779.447673155809753, 9864408.982975907623768 ], [ 274805.717982150672469, 9864410.451698832213879 ], [ 274823.969680784502998, 9864416.681217053905129 ], [ 274833.918232249212451, 9864421.201217006891966 ], [ 274848.94435637188144, 9864423.866974202916026 ], [ 274865.059095056611113, 9864429.59717208147049 ], [ 274922.880492859403603, 9864471.104779383167624 ], [ 274934.497440292849205, 9864477.473049337044358 ], [ 274946.404703570646234, 9864482.669178104028106 ], [ 274961.861444844980724, 9864490.002564145252109 ], [ 274976.505654218490236, 9864497.202614787966013 ], [ 274986.67596640822012, 9864502.884067622944713 ], [ 274996.850898770615458, 9864517.192314188927412 ], [ 275008.498785655770916, 9864541.566259503364563 ], [ 275014.15647349820938, 9864552.796416405588388 ], [ 275020.930736082955264, 9864559.548120070248842 ], [ 275028.909660161880311, 9864563.104395726695657 ], [ 275037.257223146385513, 9864564.957711074501276 ], [ 275039.775278057204559, 9864561.995534425601363 ], [ 275046.263697948365007, 9864563.99122672714293 ], [ 275102.943562557222322, 9864569.298531020060182 ], [ 275167.966600507497787, 9864582.254556272178888 ], [ 275175.010488438594621, 9864585.743759354576468 ], [ 275181.02043206943199, 9864587.473646223545074 ], [ 275211.500313875614665, 9864586.633942246437073 ], [ 275215.918982161500026, 9864587.577370457351208 ], [ 275220.058110114885494, 9864590.168524147942662 ], [ 275227.056735760881566, 9864594.630968326702714 ], [ 275239.60589450923726, 9864604.804541025310755 ], [ 275248.867460540845059, 9864605.076958874240518 ], [ 275256.616591994999908, 9864603.34638181887567 ], [ 275285.086032891529612, 9864596.599128719419241 ], [ 275301.276154118939303, 9864590.904381396248937 ], [ 275352.425013458414469, 9864579.263586373999715 ], [ 275360.627982337260619, 9864580.939820218831301 ], [ 275390.766241858014837, 9864605.017942475154996 ], [ 275398.155622242600657, 9864607.965456986799836 ], [ 275409.262364476860967, 9864611.844806825742126 ], [ 275420.795166839787271, 9864611.676530221477151 ], [ 275442.69616414164193, 9864605.698518808931112 ], [ 275466.156783671118319, 9864598.184346882626414 ], [ 275475.93209620914422, 9864596.211972713470459 ], [ 275487.641322655370459, 9864598.277939012274146 ], [ 275494.266485246014781, 9864596.059874195605516 ], [ 275505.218241016496904, 9864598.788866909220815 ], [ 275512.28603233222384, 9864600.088201355189085 ], [ 275522.94622688414529, 9864605.648322282359004 ], [ 275527.305975090479478, 9864610.91614225693047 ], [ 275533.960287357796915, 9864614.338675888255239 ], [ 275539.387750816182233, 9864620.868133438751101 ], [ 275545.874726691050455, 9864624.766118360683322 ], [ 275554.432953807292506, 9864627.714505033567548 ], [ 275568.046250228188001, 9864643.894398348405957 ], [ 275579.596407731703948, 9864650.240438956767321 ], [ 275590.848099653841928, 9864653.799145916476846 ], [ 275602.248731198429596, 9864651.739508705213666 ], [ 275610.440303013892844, 9864653.758579956367612 ], [ 275616.523652476840653, 9864661.482999972999096 ], [ 275628.565823024022393, 9864679.696731872856617 ], [ 275633.583237739047036, 9864683.792685145512223 ], [ 275640.271976950054523, 9864685.843803877010942 ], [ 275650.367686878191307, 9864687.090106999501586 ], [ 275653.0074372185627, 9864685.11236047744751 ], [ 275659.537926719116513, 9864690.35968448407948 ], [ 275670.613135604420677, 9864691.750502055510879 ], [ 275687.828008920885623, 9864685.182771950960159 ], [ 275698.271041293512098, 9864683.454208865761757 ], [ 275711.969559422810562, 9864675.114245228469372 ], [ 275740.665665478911251, 9864692.533100014552474 ], [ 275756.904136423661839, 9864696.504759360104799 ], [ 275784.183542079175822, 9864688.208177102729678 ], [ 275834.495088274241425, 9864694.417412683367729 ], [ 275864.316505537368357, 9864680.858207015320659 ], [ 275871.653487194678746, 9864679.448045270517468 ], [ 275907.842765388544649, 9864680.149876153096557 ], [ 275924.08849664859008, 9864674.433029223233461 ], [ 275937.563353845325764, 9864682.251457314938307 ], [ 275978.502740167547017, 9864672.383553436025977 ], [ 275994.087698592338711, 9864657.143612187355757 ], [ 276042.979930992471054, 9864655.853120042011142 ], [ 276047.969255632953718, 9864652.87068515829742 ], [ 276070.681356407119893, 9864633.975262718275189 ], [ 276075.988507343397941, 9864622.819784380495548 ], [ 276097.860507673234679, 9864610.858306350186467 ], [ 276121.042255982174538, 9864589.14296361617744 ], [ 276156.049195560335647, 9864592.907491240650415 ], [ 276215.807414568902459, 9864589.844498094171286 ], [ 276230.555440291296691, 9864592.122845577076077 ] ] } },
{ "type": "Feature", "properties": { "name": "Gatharaini River", "fclass": "stream" }, "geometry": { "type": "LineString", "coordinates": [ [ 269634.015072590496857, 9864899.400054523721337 ], [ 269639.627128967549652, 9864897.61260686814785 ], [ 269654.878838084056042, 9864897.016041638329625 ], [ 269680.575736122846138, 9864892.401567058637738 ], [ 269713.180945361964405, 9864879.618838915601373 ], [ 269740.12148377543781, 9864864.663925787433982 ], [ 269765.643831468361896, 9864826.503381971269846 ], [ 269783.041531730559655, 9864814.737553739920259 ], [ 269806.080814946326427, 9864806.194624979048967 ], [ 269826.961717883590609, 9864767.090394668281078 ], [ 269846.501844432961661, 9864763.234345428645611 ], [ 269862.454529234557413, 9864748.624911177903414 ], [ 269875.634406989440322, 9864749.586255047470331 ], [ 269894.137529444531538, 9864747.930407548323274 ], [ 269918.266189671994653, 9864755.868178464472294 ], [ 269947.525648184702732, 9864765.336219528689981 ], [ 269954.759381763171405, 9864768.25065135024488 ], [ 269995.257128273427952, 9864784.606846231967211 ] ] } },
{ "type": "Feature", "properties": { "name": null, "fclass": "stream" }, "geometry": { "type": "LineString", "coordinates": [ [ 269995.257128273427952, 9864784.606846231967211 ], [ 270020.119779042084701, 9864793.496350161731243 ] ] } },
{ "type": "Feature", "properties": { "name": null, "fclass": "stream" }, "geometry": { "type": "LineString", "coordinates": [ [ 270175.146519839763641, 9862542.205192567780614 ], [ 270185.751065822783858, 9862547.854235284030437 ], [ 270195.595614086138085, 9862557.351663280278444 ], [ 270207.674598177429289, 9862570.854661613702774 ], [ 270218.26963838445954, 9862574.424358800053596 ], [ 270229.934101436694618, 9862577.054766856133938 ] ] } },
{ "type": "Feature", "properties": { "name": null, "fclass": "stream" }, "geometry": { "type": "LineString", "coordinates": [ [ 271503.685237914847676, 9867132.62941013276577 ], [ 271508.230025673226919, 9867128.872357323765755 ], [ 271518.983552847406827, 9867129.19012644700706 ], [ 271533.103343548311386, 9867123.759120415896177 ], [ 271542.486321495322045, 9867125.779129773378372 ], [ 271550.923414924938697, 9867127.322839083150029 ], [ 271563.593914802186191, 9867124.677913833409548 ], [ 271571.498587560490705, 9867123.65525603108108 ], [ 271577.922520737687591, 9867122.830568885430694 ], [ 271584.916301409539301, 9867119.208079664036632 ], [ 271593.35951029881835, 9867112.611486556008458 ], [ 271651.265826209681109, 9867102.689764272421598 ], [ 271693.268215729040094, 9867087.336595011875033 ], [ 271717.609622583142482, 9867078.93807802349329 ], [ 271746.828240988659672, 9867083.638488706201315 ], [ 271784.981481553870253, 9867079.596998194232583 ], [ 271822.456203125766478, 9867074.813962772488594 ], [ 271827.802965171053074, 9867070.438145456835628 ], [ 271857.91141059959773, 9867061.291864868253469 ], [ 271879.300107159884647, 9867056.408266155049205 ], [ 271909.940053391153924, 9867065.865604544058442 ], [ 271917.410260776989162, 9867065.229722434654832 ], [ 271929.501338914735243, 9867063.270087854936719 ], [ 271937.417033748468384, 9867062.369095627218485 ], [ 271939.087341129779816, 9867061.739919435232878 ] ] } },
{ "type": "Feature", "properties": { "name": null, "fclass": "stream" }, "geometry": { "type": "LineString", "coordinates": [ [ 271939.087341129779816, 9867061.739919435232878 ], [ 271941.581773720798083, 9867060.657894670963287 ] ] } },
{ "type": "Feature", "properties": { "name": null, "fclass": "stream" }, "geometry": { "type": "LineString", "coordinates": [ [ 272347.101061912951991, 9860245.374557416886091 ], [ 272359.853469141351525, 9860265.613627925515175 ], [ 272385.451850647397805, 9860300.373732455074787 ], [ 272425.875171387626324, 9860352.874915018677711 ], [ 272460.138923066202551, 9860395.826314622536302 ], [ 272496.066304657142609, 9860432.474717531353235 ], [ 272513.240600376389921, 9860449.5650849416852 ], [ 272526.50904652744066, 9860464.79427401162684 ], [ 272534.002823406481184, 9860476.446495739743114 ], [ 272538.140525231137872, 9860480.752143397927284 ], [ 272551.129590194439515, 9860497.363625274971128 ], [ 272562.272353416890837, 9860511.938587533310056 ], [ 272572.925147751695476, 9860526.723305394873023 ], [ 272581.963673183228821, 9860541.683715667575598 ], [ 272585.781883848481812, 9860555.921116003766656 ], [ 272589.064269154332578, 9860572.060439260676503 ], [ 272587.448826823849231, 9860587.908353377133608 ], [ 272590.075614434317686, 9860616.722082892432809 ], [ 272595.125694064423442, 9860635.782668840140104 ], [ 272594.291574681759812, 9860663.166922811418772 ], [ 272587.586376384599134, 9860682.151924423873425 ], [ 272579.833778142521624, 9860702.408021993935108 ], [ 272579.644860701286234, 9860730.378971956670284 ], [ 272581.035890182596631, 9860745.167472055181861 ], [ 272583.130688062752597, 9860756.826503690332174 ], [ 272587.201728168060072, 9860775.178469767794013 ], [ 272592.220963088911958, 9860791.009466061368585 ], [ 272603.715328912599944, 9860811.523975389078259 ], [ 272622.338423657231033, 9860812.379140244796872 ], [ 272627.359522430051584, 9860811.630985463038087 ], [ 272633.349551305756904, 9860810.308462705463171 ], [ 272645.772806326509453, 9860810.318197349086404 ], [ 272655.327735672413837, 9860805.580885360017419 ], [ 272665.832576488959603, 9860810.333914706483483 ], [ 272673.47129929845687, 9860821.731839243322611 ], [ 272682.065889124409296, 9860835.021794438362122 ], [ 272677.26800233789254, 9860849.252430532127619 ], [ 272668.665215703076683, 9860860.637632453814149 ], [ 272667.698210027941968, 9860872.968926744535565 ], [ 272663.868804248748347, 9860887.20032312348485 ], [ 272658.127674013725482, 9860897.636596320196986 ], [ 272654.28861806896748, 9860909.976702896878123 ], [ 272648.546743368729949, 9860921.364148398861289 ], [ 272648.53783335047774, 9860932.745022553950548 ], [ 272646.623862190113869, 9860946.03780916146934 ], [ 272644.695054723531939, 9860964.064323209226131 ], [ 272637.034027494373731, 9860981.146239781752229 ], [ 272629.388598812627606, 9860992.521138455718756 ], [ 272620.775425323401578, 9861002.955168783664703 ], [ 272611.214546298142523, 9861015.290802227333188 ], [ 272604.514589066791814, 9861027.617615161463618 ], [ 272607.376232720562257, 9861040.914142157882452 ], [ 272609.268661593378056, 9861055.150022314861417 ], [ 272607.353961187181994, 9861069.382924098521471 ], [ 272601.609122917521745, 9861084.564002389088273 ], [ 272595.865029077511281, 9861098.79391005076468 ], [ 272597.756718694814481, 9861113.980962002649903 ], [ 272603.475582728628069, 9861132.0134620629251 ], [ 272608.248223540314939, 9861150.056281231343746 ], [ 272609.18405650096247, 9861163.340240282937884 ], [ 272613.002325959620066, 9861177.577624101191759 ], [ 272614.897731728386134, 9861188.019876807928085 ], [ 272616.799075746326707, 9861205.109277395531535 ], [ 272611.053503991221078, 9861221.241530707105994 ], [ 272595.581055939663202, 9861234.214045250788331 ], [ 272593.662678265129216, 9861253.169626824557781 ], [ 272598.633622313500382, 9861259.632632067427039 ], [ 272595.732242964906618, 9861268.677560172975063 ], [ 272586.948548769345507, 9861269.400667931884527 ], [ 272551.605024949531071, 9861268.753688212484121 ], [ 272550.697351031238213, 9861319.165110602974892 ], [ 272549.357417344581336, 9861352.919620513916016 ], [ 272552.191816948237829, 9861386.887532221153378 ], [ 272558.158777953998651, 9861429.396317385137081 ], [ 272557.959617696760688, 9861442.104265561327338 ], [ 272554.63565157528501, 9861450.606921480968595 ], [ 272547.257470445765648, 9861461.893570465967059 ], [ 272548.435466915252618, 9861464.449382591992617 ], [ 272556.937039109645411, 9861482.904333034530282 ], [ 272554.663572899647988, 9861500.432885471731424 ], [ 272545.152612057048827, 9861520.145702071487904 ] ] } }
]
}
