{
"type": "FeatureCollection",
"name": "motoine_rivers",
"crs": { "type": "name", "properties": { "name": "urn:ogc:def:crs:EPSG::32737" } },
"features": [
{ "type": "Feature", "properties": { "name": "Motoine River", "fclass": "river" }, "geometry": { "type": "LineString", "coordinates": [ [ 250957.301408229308436, 9854079.91864125430584 ], [ 251227.82485459552845, 9854117.007901880890131 ], [ 251460.343723274912918, 9854174.294196860864758 ], [ 251591.245572587329661, 9854200.151776729151607 ], [ 251683.427238169271732, 9854212.789235208183527 ], [ 251732.470007789146621, 9854248.285313412547112 ], [ 251815.744631675508572, 9854249.089967021718621 ], [ 251852.913156226626597, 9854266.854833142831922 ], [ 251913.133160343189957, 9854265.42650561966002 ], [ 251974.067885217635194, 9854311.275609565898776 ], [ 252025.333948581130244, 9854350.46806744672358 ], [ 252095.226530372601701, 9854351.271678129211068 ], [ 252193.066388038132573, 9854373.22766157053411 ], [ 252269.218139753938885, 9854358.805167712271214 ], [ 252283.757835618715035, 9854358.862401567399502 ], [ 252294.217489248723723, 9854352.445032045245171 ], [ 252319.972505166369956, 9854360.089386258274317 ], [ 252338.723335079208482, 9854369.419885037466884 ], [ 252374.201726423867512, 9854384.782750496640801 ], [ 252393.001757534308126, 9854388.88121279142797 ], [ 252412.660283634497318, 9854391.575633840635419 ], [ 252439.593546188436449, 9854388.812185555696487 ], [ 252458.623378521646373, 9854384.902352269738913 ], [ 252471.270811379654333, 9854384.548611307516694 ], [ 252485.906069671502337, 9854377.305357776582241 ], [ 252510.479948585474631, 9854373.610638625919819 ], [ 252541.420543640502729, 9854371.448079373687506 ], [ 252553.810528495610924, 9854372.642709109932184 ], [ 252572.701430079876445, 9854374.694869291037321 ], [ 252609.165250901220134, 9854383.598676266148686 ], [ 252639.928168849495705, 9854393.393367622047663 ], [ 252666.871960526885232, 9854403.748780306428671 ], [ 252692.907084348029457, 9854409.346957698464394 ], [ 252716.085115856549237, 9854410.35208722949028 ], [ 252740.571196655306267, 9854405.197160061448812 ], [ 252781.772176586964633, 9854382.768107717856765 ], [ 252786.007535819866462, 9854377.362841578200459 ], [ 252791.703348253155127, 9854369.680222131311893 ], [ 252809.546901199937565, 9854347.672814935445786 ], [ 252821.130526774155442, 9854329.232672959566116 ], [ 252821.175799195712898, 9854315.914749830961227 ], [ 252822.769882720924215, 9854288.627619862556458 ], [ 252820.390727635531221, 9854284.91991869546473 ], [ 252821.577334957371932, 9854277.620432099327445 ], [ 252828.771765246347059, 9854262.317827573046088 ], [ 252836.127458517963532, 9854253.44205915927887 ], [ 252844.25722168845823, 9854250.440601078793406 ], [ 252850.281094113277504, 9854249.406199300661683 ], [ 252855.567969610099681, 9854250.859961735084653 ], [ 252863.036367391614476, 9854252.924048079177737 ], [ 252870.718777483183658, 9854252.2008449845016 ], [ 252880.703455836570356, 9854254.012761717662215 ], [ 252891.523866906994954, 9854254.973693227395415 ], [ 252900.544068017770769, 9854252.194256979972124 ], [ 252918.091696256829891, 9854262.397475721314549 ], [ 252938.794819160888437, 9854267.150222228839993 ], [ 252965.866398281272268, 9854271.466185562312603 ], [ 252977.763911443093093, 9854263.070110002532601 ], [ 252981.006871184479678, 9854259.411670302972198 ], [ 252993.357226304477081, 9854255.064479058608413 ], [ 253007.441248242394067, 9854254.169995859265327 ], [ 253030.372768980800174, 9854256.889419257640839 ], [ 253061.162173855962465, 9854261.850247824564576 ], [ 253066.748688038467662, 9854264.366166779771447 ], [ 253087.431802861072356, 9854279.063090540468693 ], [ 253100.279140555358026, 9854291.695607006549835 ], [ 253109.637150217109593, 9854297.112972673028708 ], [ 253119.631187240418512, 9854300.904876377433538 ], [ 253129.294525098113809, 9854301.001973608508706 ], [ 253139.515121495700441, 9854300.413759326562285 ], [ 253149.390939997159876, 9854299.438088394701481 ], [ 253158.579271925729699, 9854295.364610619843006 ], [ 253163.502022642584052, 9854293.145651152357459 ], [ 253179.204122737515718, 9854287.971833160147071 ], [ 253185.762925834453199, 9854286.307400995865464 ], [ 253197.332704501517583, 9854283.364307593554258 ], [ 253215.796001445298316, 9854277.938535930588841 ], [ 253222.277088669070508, 9854276.030683582648635 ], [ 253254.053480616916204, 9854272.773738250136375 ], [ 253275.286735498521011, 9854282.261200090870261 ], [ 253291.067853485932574, 9854288.359017001464963 ], [ 253302.920346716622589, 9854292.982169441878796 ], [ 253314.488717938540503, 9854304.120231350883842 ], [ 253330.303846020222409, 9854322.042706146836281 ], [ 253349.86010203071055, 9854339.459680210798979 ], [ 253359.26104344316991, 9854346.669010641053319 ], [ 253373.67077158842585, 9854355.055302329361439 ], [ 253381.370968485513004, 9854359.34290968067944 ], [ 253385.488813570904313, 9854360.861982503905892 ], [ 253389.620653956808383, 9854359.162202274426818 ], [ 253402.148784846824128, 9854367.690614771097898 ], [ 253411.084621171554318, 9854372.112055310979486 ], [ 253418.050338032044237, 9854376.067165112122893 ], [ 253424.873775135783944, 9854377.267861654981971 ], [ 253431.43161424761638, 9854376.676376610994339 ], [ 253442.951494029082824, 9854379.750622492283583 ], [ 253457.119088140811073, 9854384.995253097265959 ], [ 253471.838580806332175, 9854395.583022704347968 ], [ 253479.093498176487628, 9854399.825981581583619 ], [ 253485.794235415145522, 9854401.292039424180984 ], [ 253496.245419317856431, 9854404.287900947034359 ], [ 253508.63214335514931, 9854409.077425867319107 ], [ 253517.822424044716172, 9854415.313150923699141 ], [ 253523.40953168834676, 9854417.154304523020983 ], [ 253537.756518193637021, 9854420.972166165709496 ], [ 253542.227884290361544, 9854425.566612077876925 ], [ 253547.337906017986825, 9854425.571151316165924 ], [ 253553.27383866845048, 9854423.242472518235445 ], [ 253555.419942277309019, 9854426.12033811211586 ], [ 253558.492330277396832, 9854426.465970000252128 ], [ 253563.502479248243617, 9854426.105394622310996 ], [ 253574.924486095056636, 9854426.557994978502393 ], [ 253581.200007678125985, 9854430.457174498587847 ], [ 253582.905754794977838, 9854427.748651366680861 ], [ 253588.140143519820413, 9854425.607392614707351 ], [ 253593.863133808074053, 9854424.871362997218966 ], [ 253597.094712598016486, 9854421.467328328639269 ], [ 253601.346837894845521, 9854422.212217139080167 ], [ 253609.422768246760825, 9854417.097971342504025 ], [ 253615.748851966985967, 9854414.205508643761277 ], [ 253624.157158439891646, 9854410.905624305829406 ], [ 253634.089704360521864, 9854408.702169982716441 ], [ 253639.097650255105691, 9854410.81934024207294 ], [ 253641.148478184652049, 9854408.155369868502021 ], [ 253642.885088755807374, 9854408.300709964707494 ], [ 253644.319783898739843, 9854409.939067656174302 ], [ 253647.381970358284889, 9854409.233858942985535 ], [ 253651.48781409431831, 9854411.726314464583993 ], [ 253654.880599829339189, 9854414.837573627009988 ], [ 253662.937359338015085, 9854418.771515613421798 ], [ 253669.8591190710722, 9854422.073950933292508 ], [ 253673.954193262499757, 9854424.157125066965818 ], [ 253677.349935154954437, 9854423.938912468031049 ], [ 253680.256515243905596, 9854422.94596941396594 ], [ 253693.043446036637761, 9854428.37739422917366 ], [ 253707.399275833362481, 9854434.761488215997815 ], [ 253723.896869798074476, 9854436.368969302624464 ], [ 253737.352540788037004, 9854440.938196310773492 ], [ 253747.058484480978223, 9854443.170145427808166 ], [ 253756.754413887945702, 9854444.141089089214802 ], [ 253766.987609298201278, 9854441.860467029735446 ], [ 253774.966170794097707, 9854446.092989260330796 ], [ 253783.72542120757862, 9854448.766550898551941 ], [ 253789.523567351861857, 9854451.149889200925827 ], [ 253794.601105591311352, 9854450.114625906571746 ], [ 253808.234350297279889, 9854455.303440351039171 ], [ 253827.984797775570769, 9854467.156620418652892 ], [ 253829.372960029693786, 9854471.051451602950692 ], [ 253837.576416456577135, 9854472.762177789583802 ], [ 253848.692431844508974, 9854479.287179177626967 ], [ 253858.391946609306615, 9854488.764306528493762 ], [ 253863.844088690471835, 9854492.142856426537037 ], [ 253869.451807315810584, 9854495.842323396354914 ], [ 253874.546038340660743, 9854501.08992512896657 ], [ 253878.575235459255055, 9854502.133265428245068 ], [ 253881.298133985401364, 9854507.40088683180511 ], [ 253884.836070235120133, 9854510.036627056077123 ], [ 253886.982067264150828, 9854513.036157973110676 ], [ 253890.17294135960401, 9854517.861739333719015 ], [ 253892.854034792631865, 9854520.054265156388283 ], [ 253896.405241755739553, 9854520.278640350326896 ], [ 253906.900402993342141, 9854523.882884999737144 ], [ 253908.996407659695251, 9854533.043547134846449 ], [ 253913.588589897146448, 9854539.496388714760542 ], [ 253917.364500797615619, 9854549.974840477108955 ], [ 253926.301365352032008, 9854565.789438771083951 ], [ 253942.924703480006428, 9854588.811787117272615 ], [ 253954.663079626741819, 9854596.565133836120367 ], [ 253962.052264559431933, 9854600.04494415782392 ], [ 253971.245962662593229, 9854602.420216845348477 ], [ 253979.874830138694961, 9854601.465521488338709 ], [ 253986.545282496634172, 9854599.402956262230873 ], [ 253997.008343691733899, 9854588.970306590199471 ], [ 254014.205370451469207, 9854580.180701956152916 ], [ 254023.130969774356345, 9854571.007686391472816 ], [ 254036.288771972496761, 9854559.924806624650955 ], [ 254053.469673602114199, 9854556.765416556969285 ], [ 254060.495209411601536, 9854556.019467141479254 ], [ 254065.051598748192191, 9854552.605546168982983 ], [ 254070.207578257686691, 9854550.98409454151988 ], [ 254074.585321393271443, 9854548.156266901642084 ], [ 254074.166267679713201, 9854543.642866337671876 ], [ 254077.075965035473928, 9854539.121352672576904 ], [ 254081.929915199027164, 9854539.125651739537716 ], [ 254091.104003492713673, 9854538.492218812927604 ], [ 254104.637544746423373, 9854530.540036302059889 ], [ 254115.954244306922192, 9854524.15660191886127 ], [ 254119.876486754714279, 9854520.255421318113804 ], [ 254121.673087953357026, 9854515.511696131899953 ], [ 254121.188540105504217, 9854509.527080144733191 ], [ 254115.928278197767213, 9854503.195332314819098 ], [ 254110.479384247038979, 9854496.155490851029754 ], [ 254107.532787902164273, 9854479.494495905935764 ], [ 254107.029180573357735, 9854469.892802719026804 ], [ 254105.258931411022786, 9854457.45828291028738 ], [ 254104.565213278256124, 9854448.818758023902774 ], [ 254102.204382675263332, 9854436.992088342085481 ], [ 254101.531421846913872, 9854430.056028697639704 ], [ 254101.403228704555659, 9854423.961114037781954 ], [ 254103.2368196088064, 9854415.168970046564937 ], [ 254105.201731035514968, 9854408.943174598738551 ], [ 254100.382718061242485, 9854394.647645317018032 ], [ 254096.603313361876644, 9854375.563474301248789 ], [ 254099.339711666951189, 9854365.599628496915102 ], [ 254099.735807180491975, 9854358.332675985991955 ], [ 254105.765132843429456, 9854351.092841435223818 ], [ 254118.684224538243143, 9854345.551502346992493 ], [ 254120.561133702838561, 9854338.131005020812154 ], [ 254142.653920520824613, 9854332.387635856866837 ], [ 254147.037674389983295, 9854335.333839915692806 ], [ 254162.118781935772859, 9854339.827054716646671 ], [ 254182.455391514260555, 9854343.451081102713943 ], [ 254197.818986679019872, 9854343.243473811075091 ], [ 254204.877537593099987, 9854342.917890639975667 ], [ 254208.831265110959066, 9854341.173703940585256 ], [ 254221.151459332322702, 9854345.609159346669912 ], [ 254229.077414324186975, 9854346.368355298414826 ], [ 254239.623853992059594, 9854342.329253755509853 ], [ 254246.586834311339771, 9854336.782634723931551 ], [ 254254.300276963971555, 9854326.093160502612591 ], [ 254255.762568425765494, 9854321.714168101549149 ], [ 254257.817089697404299, 9854314.869023129343987 ], [ 254265.632787347101839, 9854301.856760850176215 ], [ 254277.900101375009399, 9854290.585075244307518 ], [ 254288.356708509789314, 9854287.408680908381939 ], [ 254301.855662279966054, 9854280.772786671295762 ], [ 254304.626992817473365, 9854269.07235474511981 ], [ 254303.680116310453741, 9854257.169522702693939 ], [ 254303.162822525395313, 9854237.900224637240171 ], [ 254306.133488192135701, 9854227.394594021141529 ], [ 254309.777943655441049, 9854222.884802706539631 ], [ 254312.599399367754813, 9854217.434068584814668 ], [ 254321.411356992844958, 9854210.849330069497228 ], [ 254331.635493094450794, 9854206.179454339668155 ], [ 254338.284060432051774, 9854203.663367182016373 ], [ 254345.080640940082958, 9854197.441866209730506 ], [ 254348.269942061539041, 9854191.471577104181051 ], [ 254353.526662952062907, 9854189.219727944582701 ], [ 254363.384853290714091, 9854182.923513615503907 ], [ 254372.653196447266964, 9854176.405550057068467 ], [ 254375.191355460265186, 9854176.562659550458193 ], [ 254380.259767779993126, 9854173.237695069983602 ], [ 254385.872651092824526, 9854171.085714109241962 ], [ 254389.00336356041953, 9854168.411649636924267 ], [ 254392.811072427663021, 9854168.116370595991611 ], [ 254396.943459147005342, 9854165.763972947373986 ], [ 254404.543692383071175, 9854169.741728406399488 ], [ 254410.273916267004097, 9854173.363862745463848 ], [ 254413.401106879289728, 9854174.660810589790344 ], [ 254417.612501930241706, 9854171.091737199574709 ], [ 254421.975166937045287, 9854172.699497481808066 ], [ 254435.908357889391482, 9854178.541168436408043 ], [ 254443.565470905072289, 9854181.147367779165506 ], [ 254451.458845217654016, 9854180.966323083266616 ], [ 254460.199523611401673, 9854179.425486830994487 ], [ 254464.699743938428583, 9854176.564594194293022 ], [ 254468.599200850818306, 9854173.238593604415655 ], [ 254476.761625732528046, 9854170.956136338412762 ], [ 254482.696573793917196, 9854169.689345829188824 ], [ 254488.141547815670492, 9854168.56591808795929 ], [ 254495.758921714616008, 9854165.763095613569021 ], [ 254498.602098323754035, 9854160.920758493244648 ], [ 254502.531354105885839, 9854161.654288653284311 ], [ 254507.10929702813155, 9854159.025753121823072 ], [ 254510.54247618521913, 9854154.228184625506401 ], [ 254512.554129269061377, 9854145.502588408067822 ], [ 254531.024337536626263, 9854132.079462755471468 ], [ 254541.747689872252522, 9854129.378946863114834 ], [ 254552.720661393483169, 9854121.380282405763865 ], [ 254558.33749879480456, 9854114.759534453973174 ], [ 254561.787664207426133, 9854103.358378205448389 ], [ 254573.539550442335894, 9854083.237206725403666 ], [ 254586.973783792229369, 9854074.223087210208178 ], [ 254594.381254898820771, 9854069.583904141560197 ], [ 254600.230978357547428, 9854051.426417205482721 ], [ 254600.535440095205558, 9854047.05746909417212 ], [ 254605.437232711003162, 9854043.300970112904906 ], [ 254616.884654590976425, 9854040.103341450914741 ], [ 254625.554599579423666, 9854042.986970271915197 ], [ 254632.388103709468851, 9854045.326965998858213 ], [ 254637.416643373813713, 9854049.291373420506716 ], [ 254645.933111093036132, 9854049.486966691911221 ], [ 254654.072630431619473, 9854047.912416195496917 ], [ 254656.958844533917727, 9854044.751441055908799 ], [ 254666.299426676763687, 9854044.626986671239138 ], [ 254675.769314662495162, 9854036.781854616478086 ], [ 254700.307894995552488, 9854034.801513019949198 ] ] } },
{ "type": "Feature", "properties": { "name": "Kirichwa Kubwa", "fclass": "stream" }, "geometry": { "type": "LineString", "coordinates": [ [ 250902.919483841455076, 9856710.165099583566189 ], [ 250914.618636592407711, 9856712.277134319767356 ], [ 250925.385149721434573, 9856711.501277459785342 ], [ 250936.147683606221108, 9856702.628356644883752 ], [ 250942.978442777559394, 9856695.731980916112661 ], [ 250947.695865837828023, 9856686.599303599447012 ], [ 250952.89719709858764, 9856684.203542251139879 ], [ 250968.415192978049163, 9856686.141965743154287 ], [ 250980.003311069041956, 9856687.910992350429296 ], [ 250990.399442087713396, 9856690.508581610396504 ], [ 250999.326790447114035, 9856692.197825144976377 ], [ 251014.489790448307758, 9856692.697929365560412 ], [ 251031.94809605833143, 9856691.087304035201669 ], [ 251048.987089909147471, 9856685.228672429919243 ], [ 251053.9038101270271, 9856677.335069220513105 ], [ 251063.123432242777199, 9856675.838842904195189 ], [ 251070.633029421122046, 9856681.862958837300539 ], [ 251078.935253177536651, 9856685.432110466063023 ], [ 251089.904134958691429, 9856682.410934587940574 ], [ 251104.336486803047592, 9856678.20923219807446 ], [ 251112.102951633336488, 9856670.716363543644547 ], [ 251119.075119293556781, 9856667.569981062784791 ], [ 251131.462896343291504, 9856658.908671155571938 ], [ 251140.516785288025858, 9856655.974297016859055 ], [ 251151.338487748493208, 9856655.718377623707056 ], [ 251173.776760040695081, 9856662.817580122500658 ], [ 251192.531124978559092, 9856668.575079873204231 ], [ 251213.490730208926834, 9856673.350046982988715 ], [ 251224.456866927095689, 9856673.426097396761179 ], [ 251239.108929206850007, 9856672.554108986631036 ], [ 251252.841475670720683, 9856666.537694066762924 ], [ 251267.001632096798858, 9856655.366981631144881 ], [ 251277.009635153022828, 9856643.595282081514597 ], [ 251294.218163013312733, 9856634.82761593721807 ], [ 251299.221182183391647, 9856630.053450340405107 ], [ 251312.826149721309775, 9856629.822106882929802 ], [ 251316.413907922193175, 9856639.183329805731773 ], [ 251320.698963696981082, 9856640.569803576916456 ], [ 251324.570070572925033, 9856644.245648784562945 ], [ 251326.904163458297262, 9856648.639136711135507 ], [ 251329.340417433413677, 9856650.809346962720156 ], [ 251333.143368540884694, 9856656.022684203460813 ], [ 251335.198429393349215, 9856661.212355598807335 ], [ 251342.307419437303906, 9856667.014870779588819 ], [ 251353.792746557388455, 9856671.692970803007483 ], [ 251368.139203870960046, 9856676.484209302812815 ], [ 251385.614104261680041, 9856681.256083058193326 ], [ 251397.638906513544498, 9856680.171599831432104 ], [ 251405.301364761369769, 9856676.970516743138433 ], [ 251408.988135584630072, 9856675.060125090181828 ], [ 251413.006276872678427, 9856676.125576039776206 ], [ 251421.151676211418817, 9856680.767539922147989 ], [ 251432.016585966601269, 9856681.99389086663723 ], [ 251451.954518077807734, 9856683.814503915607929 ], [ 251459.305156418238766, 9856680.712698947638273 ], [ 251470.458453330647899, 9856683.156069790944457 ], [ 251477.015230764489388, 9856683.914035374298692 ], [ 251490.082408772897907, 9856687.520552249625325 ], [ 251503.699978536984418, 9856685.607855297625065 ], [ 251512.014426196576096, 9856675.294789757579565 ], [ 251519.112818256631726, 9856655.235455447807908 ], [ 251526.657350131630665, 9856646.879601541906595 ], [ 251544.101923061243724, 9856635.523746697232127 ], [ 251557.23302134644473, 9856629.761215798556805 ], [ 251572.162599362462061, 9856629.774381719529629 ], [ 251579.166063740121899, 9856628.984128585085273 ], [ 251587.201342321612174, 9856632.243299052119255 ], [ 251593.284522738278611, 9856639.803676242008805 ], [ 251596.609805134445196, 9856656.443123096600175 ], [ 251604.703175880335039, 9856669.580272814258933 ], [ 251608.707615490566241, 9856673.554885346442461 ], [ 251617.687127854092978, 9856679.182047791779041 ], [ 251629.043766064511146, 9856678.273951673880219 ], [ 251643.864708746754332, 9856675.222975505515933 ], [ 251665.080111246119486, 9856667.609231540933251 ], [ 251678.723225579713471, 9856661.957763021811843 ], [ 251689.058347122598207, 9856657.940482528880239 ], [ 251692.318402996810619, 9856647.534478219226003 ], [ 251696.968622262880672, 9856638.81104838848114 ], [ 251702.719727601972409, 9856631.559769490733743 ], [ 251708.266887148987735, 9856628.334699057042599 ], [ 251711.006228922284208, 9856627.673423122614622 ] ] } },
{ "type": "Feature", "properties": { "name": "Motoine River", "fclass": "stream" }, "geometry": { "type": "LineString", "coordinates": [ [ 248548.596786237176275, 9854808.611098358407617 ], [ 248617.922216195118381, 9854761.207920849323273 ], [ 248696.799958887684625, 9854713.824463659897447 ], [ 248818.685106072807685, 9854654.610695920884609 ], [ 248928.633128057408612, 9854597.75337821431458 ], [ 249069.612393158546183, 9854562.295318955555558 ], [ 249172.383940595056629, 9854512.555291414260864 ], [ 249222.580368684051791, 9854479.371362503618002 ], [ 249313.442269780614879, 9854389.289767030626535 ], [ 249406.733837320061866, 9854246.988321967422962 ], [ 249476.063058184459805, 9854194.851036619395018 ], [ 249549.534843626344809, 9854141.556051610037684 ], [ 249574.077423946728231, 9854123.746863437816501 ], [ 249672.054815364972455, 9854081.126447487622499 ], [ 249784.326620588806691, 9854088.351656457409263 ], [ 249846.769332504656631, 9854067.457357930019498 ], [ 249847.092294807865983, 9854067.347033491358161 ], [ 249961.164025386300636, 9854029.187945893034339 ], [ 249997.121655405673664, 9854032.007966265082359 ], [ 250114.045125491655199, 9854041.184108467772603 ], [ 250219.121166795463068, 9854076.875232875347137 ], [ 250271.661528309516143, 9854098.282601704820991 ], [ 250440.904833790962584, 9854175.700457435101271 ], [ 250496.43220247537829, 9854193.393718890845776 ], [ 250606.018279953597812, 9854202.994301864877343 ], [ 250746.230450773000484, 9854226.194934006780386 ], [ 250860.749752343515866, 9854209.484354328364134 ], [ 250957.301408229308436, 9854079.91864125430584 ] ] } },
{ "type": "Feature", "properties": { "name": null, "fclass": "stream" }, "geometry": { "type": "LineString", "coordinates": [ [ 248181.578183574049035, 9853849.601602071896195 ], [ 248239.393902722542407, 9853812.387258905917406 ], [ 248317.818254485842772, 9853761.917621623724699 ], [ 248535.232725860114442, 9853745.512007975950837 ], [ 248633.19825272494927, 9853728.986495066434145 ], [ 248888.875500602589455, 9853653.280552031472325 ], [ 249022.739053655328462, 9853570.351139610633254 ], [ 249142.230162448278861, 9853511.136031972244382 ], [ 249271.241396729485132, 9853499.395265821367502 ], [ 249438.453712294023717, 9853520.896293917670846 ], [ 249512.494420853763586, 9853539.956431124359369 ], [ 249894.664698281412711, 9853599.626826526597142 ], [ 250085.729157092660898, 9853651.999748731032014 ], [ 250212.339979615586344, 9853659.238047994673252 ], [ 250346.09000572928926, 9853687.831624494865537 ], [ 250455.967975367122563, 9853706.912667581811547 ], [ 250546.676321903127246, 9853773.430530520156026 ], [ 250654.079225587163819, 9853882.683172402903438 ], [ 250713.748495399195235, 9853949.183873239904642 ], [ 250821.138723768090131, 9854072.672445798292756 ], [ 250957.301408229308436, 9854079.91864125430584 ] ] } },
{ "type": "Feature", "properties": { "name": "Kirichwa Kubwa", "fclass": "stream" }, "geometry": { "type": "LineString", "coordinates": [ [ 247839.360146249528043, 9856288.443379364907742 ], [ 247855.055210352904396, 9856279.442118588835001 ], [ 247864.317577162262751, 9856255.335772681981325 ], [ 247891.487917823367752, 9856237.57283078879118 ], [ 247926.170728465454886, 9856222.681630574166775 ], [ 247965.46565232926514, 9856216.975833216682076 ], [ 247995.514179199904902, 9856217.578002896159887 ], [ 248018.623509128083242, 9856221.614151496440172 ], [ 248046.358850269607501, 9856219.349244896322489 ], [ 248067.142131284432253, 9856234.865403324365616 ], [ 248102.385313202190446, 9856240.626992652192712 ], [ 248121.440855696040671, 9856258.442434208467603 ], [ 248137.611494324548403, 9856265.348399246111512 ], [ 248168.803650554415071, 9856269.391769314184785 ], [ 248190.762803085206542, 9856264.820822611451149 ], [ 248220.809241872979328, 9856267.712737625464797 ], [ 248250.289078095433069, 9856256.832271723076701 ], [ 248277.43721965662553, 9856263.748057916760445 ], [ 248300.561430333706085, 9856251.136266162618995 ], [ 248316.797352402820252, 9856247.290263459086418 ], [ 248323.366420917940559, 9856246.875801742076874 ], [ 248335.73647310276283, 9856245.913449132815003 ], [ 248363.123394622321939, 9856247.254324957728386 ], [ 248392.185617104929406, 9856242.678671041503549 ], [ 248418.103171798778931, 9856243.741682481020689 ], [ 248432.789293605135754, 9856242.405301500111818 ], [ 248443.998921259975759, 9856244.284770414233208 ], [ 248445.846891895082081, 9856244.474474351853132 ], [ 248448.830376839992823, 9856244.76475047506392 ], [ 248480.16806947227451, 9856247.845842337235808 ], [ 248496.951687999797286, 9856254.000123769044876 ], [ 248522.130079278489575, 9856259.918558102101088 ], [ 248555.061384999076836, 9856261.264373224228621 ], [ 248567.109460779611254, 9856271.72847974486649 ], [ 248577.577659037167905, 9856281.007566777989268 ], [ 248589.384047045139596, 9856275.39877575263381 ], [ 248608.355021978437435, 9856275.714413402602077 ], [ 248643.427976041857619, 9856284.971256313845515 ], [ 248678.447681910649408, 9856291.517923597246408 ], [ 248705.876718637853628, 9856307.958028314635158 ], [ 248741.941883185179904, 9856315.700279237702489 ], [ 248761.423891296726651, 9856329.688628055155277 ], [ 248784.79017355007818, 9856345.096341047435999 ], [ 248808.709757607226493, 9856351.810042817145586 ], [ 248835.613955381413689, 9856357.541915068402886 ], [ 248835.823708817013539, 9856371.999746639281511 ], [ 248840.048353642312577, 9856378.751157738268375 ], [ 248849.174960981239565, 9856394.289936453104019 ], [ 248871.940487761894474, 9856396.732776427641511 ], [ 248901.592632794869132, 9856404.69048716686666 ], [ 248909.020877623785054, 9856414.586275193840265 ], [ 248915.887197354750242, 9856417.899851316586137 ], [ 248918.967183725733776, 9856422.327278830111027 ], [ 248920.521191614476265, 9856427.549786301329732 ], [ 248922.911730544466991, 9856431.058477396145463 ], [ 248923.431502886931412, 9856434.974781548604369 ], [ 248922.571519250283018, 9856450.493573173880577 ], [ 248937.696963810711168, 9856455.849868522956967 ] ] } },
{ "type": "Feature", "properties": { "name": null, "fclass": "stream" }, "geometry": { "type": "LineString", "coordinates": [ [ 248937.696963810711168, 9856455.849868522956967 ], [ 248951.63499907424557, 9856456.879980424419045 ] ] } },
{ "type": "Feature", "properties": { "name": null, "fclass": "stream" }, "geometry": { "type": "LineString", "coordinates": [ [ 248951.63499907424557, 9856456.879980424419045 ], [ 248970.191731057799188, 9856459.750452952459455 ], [ 248983.550290474056965, 9856473.86602683365345 ], [ 248991.945725509402109, 9856497.833137901499867 ], [ 248993.602373530418845, 9856500.323495743796229 ] ] } },
{ "type": "Feature", "properties": { "name": null, "fclass": "stream" }, "geometry": { "type": "LineString", "coordinates": [ [ 248993.602373530418845, 9856500.323495743796229 ], [ 249002.797315309057012, 9856514.158808253705502 ] ] } },
{ "type": "Feature", "properties": { "name": null, "fclass": "stream" }, "geometry": { "type": "LineString", "coordinates": [ [ 249002.797315309057012, 9856514.158808253705502 ], [ 249006.944498029130045, 9856520.390237543731928 ], [ 249014.783492150570964, 9856531.62484148517251 ], [ 249009.927709048177348, 9856545.956462191417813 ], [ 249015.162659480236471, 9856568.383172979578376 ], [ 249021.642093467584345, 9856593.565351678058505 ], [ 249022.601724474749062, 9856603.632343549281359 ] ] } },
{ "type": "Feature", "properties": { "name": null, "fclass": "stream" }, "geometry": { "type": "LineString", "coordinates": [ [ 249022.601724474749062, 9856603.632343549281359 ], [ 249025.780498439329676, 9856609.652734505012631 ] ] } },
{ "type": "Feature", "properties": { "name": "Kirichwa Kubwa", "fclass": "stream" }, "geometry": { "type": "LineString", "coordinates": [ [ 249025.780498439329676, 9856609.652734505012631 ], [ 249032.47125230677193, 9856610.090101696550846 ], [ 249033.684421845944598, 9856610.500465046614408 ], [ 249054.045892413356341, 9856612.100426806136966 ], [ 249066.118108032329474, 9856607.985172681510448 ], [ 249077.717087773053208, 9856597.697076885029674 ], [ 249091.644431737600826, 9856585.72968047298491 ], [ 249103.986228454654338, 9856578.93774051964283 ], [ 249114.617370732390555, 9856580.285675281658769 ], [ 249118.007066120480886, 9856586.992074416950345 ], [ 249120.205120279773837, 9856606.617456348612905 ], [ 249129.852559137827484, 9856612.422369990497828 ], [ 249141.742595598276239, 9856612.842241305857897 ], [ 249150.5664924372104, 9856618.281384259462357 ], [ 249158.176343823870411, 9856624.294652637094259 ], [ 249166.035088076809188, 9856625.861346952617168 ], [ 249177.735225557524245, 9856626.988993972539902 ], [ 249187.046640024462249, 9856622.561551600694656 ], [ 249196.54413933068281, 9856621.70719669945538 ], [ 249204.722798973525641, 9856614.081921601668 ], [ 249208.96989602438407, 9856608.134521272033453 ], [ 249214.169495437177829, 9856607.763053750619292 ], [ 249219.941242337896256, 9856615.013589730486274 ], [ 249236.206184224545723, 9856628.490126807242632 ], [ 249249.539499666221673, 9856633.457624465227127 ], [ 249267.962457685032859, 9856636.504919391125441 ], [ 249281.753872080123983, 9856639.63658419623971 ], [ 249297.414424253453035, 9856644.18580474331975 ], [ 249312.573365783289773, 9856649.420400695875287 ], [ 249325.064186606090516, 9856650.29432400316 ], [ 249329.227202879934339, 9856651.249331150203943 ], [ 249333.412101929774508, 9856652.635762680321932 ], [ 249342.481272035016445, 9856657.687950829043984 ], [ 249344.84864501649281, 9856662.214278385043144 ], [ 249357.419965380395297, 9856660.201175961643457 ], [ 249375.491390492563369, 9856657.91642383299768 ], [ 249389.508022642607102, 9856658.17224726639688 ], [ 249399.581865412037587, 9856660.216552764177322 ], [ 249411.801339282799745, 9856665.747189275920391 ], [ 249418.653718108602334, 9856672.21329315751791 ], [ 249417.433704632770969, 9856679.501843249425292 ], [ 249419.401262622268405, 9856682.921646112576127 ], [ 249420.365219018713105, 9856688.143607351928949 ], [ 249426.876645938638831, 9856689.908200727775693 ], [ 249436.618258836591849, 9856689.961108233779669 ], [ 249446.770899123162962, 9856691.032053478062153 ], [ 249454.316887741879327, 9856693.737806539982557 ], [ 249463.220275342289824, 9856697.418191688135266 ], [ 249466.315297542954795, 9856697.465189469978213 ], [ 249470.530104306351859, 9856702.778531709685922 ], [ 249482.553729766659671, 9856703.187438201159239 ], [ 249497.792689526453614, 9856706.065951019525528 ], [ 249500.200862257246627, 9856714.795737650245428 ], [ 249507.33517292040051, 9856717.213518409058452 ] ] } },
{ "type": "Feature", "properties": { "name": null, "fclass": "stream" }, "geometry": { "type": "LineString", "coordinates": [ [ 249507.33517292040051, 9856717.213518409058452 ], [ 249512.714437216694932, 9856727.638377448543906 ] ] } },
{ "type": "Feature", "properties": { "name": "Kirichwa Kubwa", "fclass": "stream" }, "geometry": { "type": "LineString", "coordinates": [ [ 249512.714437216694932, 9856727.638377448543906 ], [ 249516.860715465852991, 9856734.898506997153163 ], [ 249525.852697449823609, 9856739.109924564138055 ], [ 249532.995478416763945, 9856744.525418844074011 ], [ 249538.359091408550739, 9856747.50576831959188 ], [ 249544.845488637249218, 9856752.378657462075353 ], [ 249552.00339226363576, 9856753.303132658824325 ], [ 249561.14332947038929, 9856753.886456843465567 ], [ 249565.215527310938342, 9856756.810349700972438 ], [ 249570.334364398295293, 9856759.61349374987185 ], [ 249576.004395213385578, 9856768.578466407954693 ], [ 249573.254392810864374, 9856781.197367737069726 ], [ 249574.838588590297149, 9856790.059156639501452 ], [ 249578.998213693965226, 9856794.830421363934875 ], [ 249584.618119554623263, 9856797.55657703243196 ], [ 249592.397779523365898, 9856800.406327988952398 ], [ 249600.710306270309957, 9856804.982168732210994 ], [ 249605.513169655750971, 9856812.563661644235253 ], [ 249611.441685824218439, 9856818.807693744078279 ], [ 249621.929302331351209, 9856818.77275600284338 ], [ 249631.045086465979693, 9856821.479888699948788 ], [ 249644.986559927114286, 9856818.594110721722245 ], [ 249653.040437073854264, 9856813.53502494096756 ], [ 249675.115192943689181, 9856829.018793519586325 ], [ 249680.635614387982059, 9856830.937356218695641 ] ] } },
{ "type": "Feature", "properties": { "name": null, "fclass": "stream" }, "geometry": { "type": "LineString", "coordinates": [ [ 249680.635614387982059, 9856830.937356218695641 ], [ 249689.014978869439801, 9856835.469003010541201 ] ] } },
{ "type": "Feature", "properties": { "name": null, "fclass": "stream" }, "geometry": { "type": "LineString", "coordinates": [ [ 249689.014978869439801, 9856835.469003010541201 ], [ 249694.663955483410973, 9856843.073363283649087 ], [ 249705.958194999839179, 9856849.919477550312877 ], [ 249714.698777245153906, 9856861.420276118442416 ], [ 249717.968632762465859, 9856865.184134291484952 ] ] } },
{ "type": "Feature", "properties": { "name": null, "fclass": "stream" }, "geometry": { "type": "LineString", "coordinates": [ [ 249717.968632762465859, 9856865.184134291484952 ], [ 249724.886474227416329, 9856873.165712675079703 ] ] } },
{ "type": "Feature", "properties": { "name": "Kirichwa Kubwa", "fclass": "stream" }, "geometry": { "type": "LineString", "coordinates": [ [ 249724.886474227416329, 9856873.165712675079703 ], [ 249732.534445565805072, 9856873.858317095786333 ], [ 249739.568603666906711, 9856876.220684429630637 ], [ 249746.936427180015016, 9856878.959442984312773 ], [ 249754.717124356538989, 9856880.636649934574962 ], [ 249758.933046110672876, 9856884.700009413063526 ], [ 249761.029050607379759, 9856893.93833545781672 ], [ 249764.813247959362343, 9856907.768737487494946 ], [ 249772.976992161071394, 9856916.912886865437031 ], [ 249783.870621604117332, 9856923.548463301733136 ], [ 249789.430370285612298, 9856931.340782802551985 ], [ 249796.13812392638647, 9856937.696106446906924 ], [ 249803.904502097953809, 9856942.96832731179893 ], [ 249807.411354691110319, 9856943.126297846436501 ], [ 249810.831356122420402, 9856940.784262012690306 ], [ 249813.871472523518605, 9856939.968395102769136 ], [ 249817.14179078565212, 9856943.212351819500327 ], [ 249823.388787523959763, 9856941.846244810149074 ], [ 249827.521613704564516, 9856939.172991687431931 ], [ 249832.02153475486557, 9856936.842974547296762 ], [ 249837.144381261634408, 9856935.121899232268333 ], [ 249840.264047432254301, 9856932.480933437123895 ], [ 249844.473659317736747, 9856931.101959573104978 ], [ 249848.735761858959449, 9856933.307000909000635 ], [ 249858.336261201446177, 9856929.255888883024454 ], [ 249869.436853651946876, 9856928.48034874536097 ], [ 249905.14863103342941, 9856920.271075403317809 ], [ 249912.197877300553955, 9856918.164549790322781 ], [ 249916.683467231312534, 9856919.440610840916634 ], [ 249923.341567955969367, 9856919.00404422916472 ], [ 249927.696390146767953, 9856917.083179138600826 ], [ 249931.780171891383361, 9856919.498231384903193 ], [ 249936.911913632589858, 9856920.299214415252209 ], [ 249946.473695676424541, 9856922.243468854576349 ], [ 249959.486111312202411, 9856924.965092808008194 ], [ 249969.591816841217224, 9856928.723933927714825 ], [ 249979.050674573605647, 9856933.743226354941726 ], [ 249985.253111390018603, 9856932.399201290681958 ], [ 249995.490127855329774, 9856926.169512331485748 ], [ 250004.331583829538431, 9856924.34111306630075 ], [ 250020.620751487789676, 9856910.462143242359161 ], [ 250027.889527795894537, 9856899.318467985838652 ], [ 250035.908274278044701, 9856896.184069890528917 ], [ 250037.821935250045499, 9856897.61271352507174 ] ] } },
{ "type": "Feature", "properties": { "name": null, "fclass": "stream" }, "geometry": { "type": "LineString", "coordinates": [ [ 250037.821935250045499, 9856897.61271352507174 ], [ 250047.57934933481738, 9856904.933084346354008 ] ] } },
{ "type": "Feature", "properties": { "name": "Kirichwa Kubwa", "fclass": "stream" }, "geometry": { "type": "LineString", "coordinates": [ [ 250047.57934933481738, 9856904.933084346354008 ], [ 250059.239281668676995, 9856913.693148801103234 ], [ 250070.512859720183769, 9856918.714043052867055 ], [ 250083.205241194780683, 9856918.227507619187236 ], [ 250092.698895229783375, 9856909.08795690536499 ], [ 250100.083354334987234, 9856905.599024515599012 ], [ 250114.575945462740492, 9856908.930339289829135 ], [ 250134.205353782192105, 9856919.898712251335382 ], [ 250149.044376974838087, 9856921.75913562066853 ], [ 250167.028523732791655, 9856917.361470116302371 ], [ 250181.26281063206261, 9856910.637547878548503 ], [ 250192.09809957179823, 9856907.693687895312905 ], [ 250202.662567026069155, 9856908.842382995411754 ], [ 250218.341712115739938, 9856917.484311174601316 ], [ 250228.107015342626255, 9856928.466064868494868 ], [ 250240.30028263721033, 9856938.421235539019108 ], [ 250249.71488063869765, 9856943.119684264063835 ], [ 250263.170923985162517, 9856947.744275657460093 ], [ 250267.208240537933307, 9856952.338411971926689 ], [ 250271.397754372446798, 9856961.080783640965819 ], [ 250280.697703664831351, 9856969.529010830447078 ], [ 250297.446739416162018, 9856976.932971289381385 ], [ 250315.554541836172575, 9856983.762927331030369 ], [ 250338.729984150617383, 9856988.329732824116945 ], [ 250350.188647087867139, 9856985.474908318370581 ], [ 250357.754724445258034, 9856978.02608017809689 ], [ 250359.821301575284451, 9856970.196296548470855 ], [ 250369.080250587459886, 9856962.05208533257246 ], [ 250384.692697992664762, 9856945.385001854971051 ], [ 250386.909768323443132, 9856931.040073402225971 ], [ 250381.286099892866332, 9856919.995628912001848 ], [ 250379.532903079380048, 9856900.780087383463979 ], [ 250384.71341033585486, 9856884.192276349291205 ], [ 250392.233780021488201, 9856878.070804474875331 ], [ 250405.238990275131073, 9856876.312452176585793 ], [ 250421.300072929123417, 9856881.083141844719648 ], [ 250433.449860650784103, 9856889.832543959841132 ], [ 250443.046002983144717, 9856890.659587139263749 ], [ 250452.33448247652268, 9856886.88473623432219 ], [ 250458.445335668104235, 9856875.77324154227972 ], [ 250458.419819989037933, 9856866.857577400282025 ], [ 250462.536334542528493, 9856857.425681633874774 ], [ 250469.44373451024876, 9856852.022673072293401 ], [ 250480.689550931390841, 9856850.638858251273632 ], [ 250488.270560973905958, 9856851.475181497633457 ], [ 250503.207890454970766, 9856855.437376970425248 ], [ 250512.379272009420674, 9856858.177698338404298 ], [ 250520.545527955604484, 9856851.868753228336573 ], [ 250528.645120816247072, 9856845.404887380078435 ], [ 250531.414685378869763, 9856835.772695634514093 ], [ 250534.477206846466288, 9856822.191777443513274 ], [ 250541.071453395590652, 9856818.392423825338483 ], [ 250550.687525340326829, 9856821.852141609415412 ], [ 250569.780201486952137, 9856835.408401129767299 ], [ 250585.53240660415031, 9856849.525843888521194 ], [ 250596.080825350771192, 9856856.205301448702812 ], [ 250604.00914132289472, 9856854.575195353478193 ], [ 250613.217916529887589, 9856852.791358837857842 ], [ 250618.220073703123489, 9856861.622920176014304 ], [ 250622.82973323125043, 9856873.661991871893406 ], [ 250627.572719146526651, 9856886.010904800146818 ], [ 250636.230696695827646, 9856890.188769793137908 ], [ 250646.745724832813721, 9856884.257993238046765 ], [ 250654.311469703272451, 9856877.163145652040839 ], [ 250659.599494741822127, 9856877.466480497270823 ], [ 250668.794582915463252, 9856878.569700641557574 ], [ 250681.373061059130123, 9856880.936928991228342 ], [ 250698.943655371462228, 9856878.29767351411283 ], [ 250706.36181112533086, 9856874.432676058262587 ], [ 250715.256560043693753, 9856862.637835692614317 ], [ 250719.512356123130303, 9856846.757177703082561 ], [ 250722.618908419972286, 9856833.729390561580658 ], [ 250729.623188041587127, 9856832.065282119438052 ], [ 250736.813565635791747, 9856833.98528709821403 ], [ 250744.826414467155701, 9856837.476761393249035 ], [ 250759.255317331088008, 9856837.224031195044518 ], [ 250777.527577324566664, 9856834.264611251652241 ], [ 250795.546584824012825, 9856828.119235772639513 ], [ 250816.65147712896578, 9856819.731088576838374 ], [ 250824.395879935240373, 9856812.028018606826663 ], [ 250832.168402119568782, 9856797.699096817523241 ], [ 250836.920810780400643, 9856786.774469707161188 ], [ 250844.822934711031849, 9856776.969843938946724 ], [ 250858.830316983512603, 9856774.957953302189708 ], [ 250866.516608232137514, 9856770.020225519314408 ], [ 250869.041482485481538, 9856760.100234987214208 ], [ 250869.798012627608841, 9856748.099108582362533 ], [ 250869.374969703319948, 9856735.477492440491915 ], [ 250866.556848613865441, 9856724.479809189215302 ], [ 250864.708423264703015, 9856712.233026014640927 ], [ 250867.078178645519074, 9856701.472220402210951 ], [ 250872.600538444559788, 9856701.156316265463829 ], [ 250880.669559852220118, 9856704.061577286571264 ], [ 250892.422522370732622, 9856708.27535773254931 ] ] } },
{ "type": "Feature", "properties": { "name": null, "fclass": "stream" }, "geometry": { "type": "LineString", "coordinates": [ [ 250892.422522370732622, 9856708.27535773254931 ], [ 250902.919483841455076, 9856710.165099583566189 ] ] } },
{ "type": "Feature", "properties": { "name": "Kirichwa Kubwa", "fclass": "stream" }, "geometry": { "type": "LineString", "coordinates": [ [ 251721.883001922455151, 9856628.048038924112916 ], [ 251745.629312420263886, 9856628.876455737277865 ], [ 251754.214700292795897, 9856626.926135489717126 ], [ 251761.154340052162297, 9856622.751003168523312 ], [ 251770.210428762802621, 9856617.27247897721827 ], [ 251779.680470950901508, 9856609.493527846410871 ], [ 251787.13264364443603, 9856604.85426496528089 ], [ 251801.286485211050604, 9856600.773982910439372 ], [ 251815.004991995781893, 9856597.987512486055493 ], [ 251825.059093064395711, 9856597.011898497119546 ], [ 251828.234116464998806, 9856594.658597301691771 ], [ 251831.40856472129235, 9856592.957923958078027 ], [ 251838.211580829462036, 9856592.211736602708697 ], [ 251846.394044509099331, 9856592.672467613592744 ], [ 251853.541885361919412, 9856592.269490143284202 ], [ 251861.386787058436312, 9856596.778430296108127 ], [ 251870.8109193755663, 9856603.191337998956442 ], [ 251876.483746931364294, 9856608.959373565390706 ], [ 251882.204001112986589, 9856611.442186903208494 ], [ 251887.214023619191721, 9856611.324923539534211 ], [ 251898.705494369671214, 9856608.990009104833007 ], [ 251904.664902574120788, 9856605.389211867004633 ], [ 251912.048095941601787, 9856603.216601215302944 ], [ 251924.294786580139771, 9856602.96191206201911 ], [ 251934.480452011019224, 9856604.287200251594186 ], [ 251938.709253238077508, 9856606.326238626614213 ], [ 251942.582612208032515, 9856607.435798725113273 ], [ 251947.916964780975832, 9856605.648535275831819 ], [ 251956.52748985166545, 9856600.424034165218472 ], [ 251967.641860073897988, 9856596.462747935205698 ], [ 251976.962985582649708, 9856593.417986020445824 ], [ 251982.652574310282944, 9856592.792491657659411 ], [ 251988.160428608040093, 9856596.259587019681931 ], [ 251992.47787488164613, 9856598.774346070364118 ], [ 251998.244839904684341, 9856598.77942406386137 ], [ 252004.743260829796782, 9856602.568173820152879 ], [ 252009.673798890318722, 9856604.209614705294371 ], [ 252014.168313694244716, 9856607.930230559781194 ], [ 252014.764663058827864, 9856613.428313238546252 ], [ 252014.850524317356758, 9856617.067617129534483 ], [ 252018.05409234383842, 9856620.22296030446887 ], [ 252020.589604097651318, 9856623.455145621672273 ], [ 252027.279547843121691, 9856624.677797801792622 ], [ 252029.862464573961915, 9856624.646886976435781 ], [ 252032.810963716212427, 9856626.67373375967145 ], [ 252040.290590552787762, 9856628.77093761600554 ], [ 252045.620013111096341, 9856632.580778297036886 ], [ 252051.473481618158985, 9856635.495099825784564 ], [ 252060.679571349930484, 9856636.653596049174666 ], [ 252064.988882717589149, 9856635.761408556252718 ], [ 252067.94095433363691, 9856633.728694109246135 ], [ 252076.413375809264835, 9856633.614473935216665 ], [ 252081.534986786777154, 9856633.198644833639264 ], [ 252086.200947100354824, 9856631.864311907440424 ], [ 252092.837929068540689, 9856630.011823961511254 ], [ 252099.451009154290659, 9856630.017643354833126 ], [ 252107.05740020002122, 9856627.225782737135887 ], [ 252116.989213326014578, 9856626.028821146115661 ], [ 252125.709938249812694, 9856622.076486019417644 ], [ 252131.511135466047563, 9856621.130303625017405 ], [ 252136.343798944639275, 9856620.127961589023471 ], [ 252142.415052265685517, 9856615.929942920804024 ], [ 252148.375460671813926, 9856611.178753143176436 ], [ 252155.648497348622186, 9856607.656542276963592 ], [ 252161.625652782531688, 9856609.177223533391953 ], [ 252166.136719729343895, 9856606.736606948077679 ], [ 252169.870083379733842, 9856602.4591015111655 ], [ 252175.391529494227143, 9856603.127648118883371 ], [ 252178.484650120837614, 9856605.276295414194465 ], [ 252179.639536519098328, 9856608.639999324455857 ], [ 252181.918557206605328, 9856612.358659313991666 ], [ 252186.259444319817703, 9856613.53499442525208 ], [ 252189.608675595140085, 9856615.628559205681086 ], [ 252192.103059870627476, 9856614.989188216626644 ], [ 252196.520866673061391, 9856617.315983766689897 ], [ 252201.297696911147796, 9856616.501637030392885 ], [ 252202.926548462419305, 9856612.620493445545435 ], [ 252202.873315590055427, 9856609.85507875867188 ], [ 252197.244227177259745, 9856604.994140513241291 ], [ 252197.347510249703191, 9856601.487744815647602 ], [ 252198.166262133192504, 9856594.630352661013603 ], [ 252198.771752514119726, 9856589.741714892908931 ], [ 252200.868954916280927, 9856584.998188830912113 ], [ 252203.454924636549549, 9856581.49397774413228 ], [ 252206.096443139220355, 9856578.122553274035454 ], [ 252209.217863556812517, 9856573.413113171234727 ], [ 252214.253363159252331, 9856569.634521029889584 ], [ 252219.298759540863102, 9856567.260744474828243 ], [ 252226.236727728159167, 9856564.95500211417675 ], [ 252233.026811504736543, 9856566.233045747503638 ], [ 252238.790565356030129, 9856569.877340456470847 ], [ 252240.691788647061912, 9856572.766056613996625 ], [ 252239.653926874743775, 9856575.585818065330386 ], [ 252239.194919223053148, 9856578.483519101515412 ], [ 252245.816702157229884, 9856581.243650475516915 ], [ 252249.227232642588206, 9856589.586997972801328 ], [ 252248.918056288122898, 9856599.342941047623754 ], [ 252250.290876734041376, 9856608.08270850777626 ], [ 252255.919798993563745, 9856613.131688812747598 ], [ 252263.072937356715556, 9856619.343463219702244 ], [ 252269.606385825405596, 9856621.273904260247946 ], [ 252273.345557460590499, 9856623.047027202323079 ], [ 252276.560266325803241, 9856626.191310649737716 ], [ 252282.325578032789053, 9856628.065768165513873 ], [ 252288.748735705390573, 9856628.8125343862921 ], [ 252298.367525897250744, 9856629.075405780225992 ], [ 252303.553759358765092, 9856631.1263367831707 ], [ 252307.213802627054974, 9856634.259949220344424 ], [ 252312.041909105639206, 9856638.434366013854742 ], [ 252316.459160054218955, 9856641.391660276800394 ], [ 252323.325152137054829, 9856644.970548922196031 ], [ 252326.696483320411062, 9856647.252173965796828 ], [ 252329.121392678905977, 9856649.654643025249243 ], [ 252332.082082072156481, 9856650.475793795660138 ], [ 252333.395002197707072, 9856651.372926341369748 ], [ 252333.994848685426405, 9856652.899935435503721 ], [ 252332.98061697059893, 9856654.17111212015152 ], [ 252333.201752802357078, 9856655.907956117764115 ], [ 252334.547051445639227, 9856657.966570623219013 ], [ 252334.500817530148197, 9856659.902285914868116 ], [ 252335.79108261159854, 9856661.241856941953301 ], [ 252340.165055614750599, 9856662.772183137014508 ] ] } },
{ "type": "Feature", "properties": { "name": null, "fclass": "stream" }, "geometry": { "type": "LineString", "coordinates": [ [ 251711.006228922284208, 9856627.673423122614622 ], [ 251721.883001922455151, 9856628.048038924112916 ] ] } },
{ "type": "Feature", "properties": { "name": "Kirichwa Dogo River", "fclass": "stream" }, "geometry": { "type": "LineString", "coordinates": [ [ 251269.338639823225094, 9857503.965727102011442 ], [ 251290.88403557651327, 9857513.696658723056316 ], [ 251301.713088284741389, 9857517.776803622022271 ], [ 251307.462121934338938, 9857525.580227112397552 ], [ 251309.749985842907336, 9857531.942614709958434 ], [ 251328.928478272020584, 9857536.572095774114132 ], [ 251352.315393660275731, 9857541.127834603190422 ], [ 251370.304937030537985, 9857543.123624401167035 ], [ 251391.910677991312696, 9857560.210504638031125 ], [ 251409.246998129732674, 9857583.454905366525054 ], [ 251415.755091318365885, 9857588.980310482904315 ], [ 251423.06720392574789, 9857604.439667873084545 ], [ 251427.618232413718943, 9857619.951911872252822 ], [ 251437.975047224899754, 9857629.330096548423171 ], [ 251462.177095673599979, 9857643.841892881318927 ], [ 251482.820352367154555, 9857653.970204232260585 ], [ 251493.89647557301214, 9857655.605948343873024 ] ] } },
{ "type": "Feature", "properties": { "name": "Kirichwa Dogo River", "fclass": "stream" }, "geometry": { "type": "LineString", "coordinates": [ [ 251493.89647557301214, 9857655.605948343873024 ], [ 251504.994864591222722, 9857657.241711299866438 ] ] } },
{ "type": "Feature", "properties": { "name": "Kirichwa Dogo River", "fclass": "stream" }, "geometry": { "type": "LineString", "coordinates": [ [ 251504.994864591222722, 9857657.241711299866438 ], [ 251519.243545034958515, 9857659.344816029071808 ], [ 251559.357087800250156, 9857671.425929397344589 ], [ 251584.05172327166656, 9857682.818782862275839 ], [ 251607.419095702178311, 9857696.964785370975733 ], [ 251634.58015251159668, 9857714.24450833722949 ], [ 251654.464661286736373, 9857726.296826021745801 ], [ 251676.187774260499282, 9857736.492414453998208 ], [ 251686.228753101575421, 9857737.839638957753778 ], [ 251694.98370549059473, 9857745.712026143446565 ], [ 251701.347892616526224, 9857750.297054711729288 ], [ 251705.339372886839556, 9857756.406495559960604 ], [ 251712.95023716671858, 9857761.269150856882334 ], [ 251720.415847619005945, 9857766.72899966686964 ], [ 251727.90961418178631, 9857765.452417235821486 ], [ 251737.956016690906836, 9857760.594139792025089 ], [ 251750.309313984704204, 9857765.81490708515048 ], [ 251771.518362222035648, 9857778.222327496856451 ] ] } },
{ "type": "Feature", "properties": { "name": "Kirichwa Dogo River", "fclass": "stream" }, "geometry": { "type": "LineString", "coordinates": [ [ 251771.518362222035648, 9857778.222327496856451 ], [ 251790.928073265240528, 9857798.515018962323666 ], [ 251791.104928477172507, 9857799.975291300565004 ] ] } },
{ "type": "Feature", "properties": { "name": "Motoine River", "fclass": "stream" }, "geometry": { "type": "LineString", "coordinates": [ [ 247443.988801412924659, 9855215.492156594991684 ], [ 247480.975058309326414, 9855177.395627118647099 ], [ 247516.518657867069123, 9855146.410537311807275 ], [ 247581.008989677589852, 9855103.217329258099198 ], [ 247625.421791213448159, 9855089.03208595700562 ], [ 247663.828223603399238, 9855068.580435663461685 ], [ 247689.908764884545235, 9855061.778929827734828 ], [ 247744.911742720054463, 9855057.27127187512815 ], [ 247847.195647546061082, 9855030.904087953269482 ], [ 247924.831384975637775, 9855027.843860546126962 ], [ 247986.987864080787404, 9855029.039452750235796 ], [ 248042.276335081231082, 9855028.801852533593774 ], [ 248086.68305838201195, 9855021.165150528773665 ] ] } },
{ "type": "Feature", "properties": { "name": "Kivuli stream", "fclass": "stream" }, "geometry": { "type": "LineString", "coordinates": [ [ 248203.696300087904092, 9857454.014235591515899 ], [ 248205.216571011580527, 9857447.124119877815247 ], [ 248215.928465334523935, 9857445.408007171005011 ], [ 248226.941295652359258, 9857443.316062452271581 ], [ 248248.450268254673574, 9857431.720346793532372 ], [ 248249.074781815521419, 9857405.493513152003288 ], [ 248252.185527062218171, 9857387.885986106470227 ], [ 248278.596483265137067, 9857360.078125186264515 ], [ 248301.151042551617138, 9857337.023389600217342 ], [ 248324.738852369744563, 9857316.392097542062402 ], [ 248344.141645572439302, 9857319.506633212789893 ], [ 248438.497860119328834, 9857243.839783439412713 ], [ 248457.589785932737868, 9857208.392860943451524 ], [ 248502.317752308706986, 9857190.191850246861577 ], [ 248509.450177191960393, 9857157.234256390482187 ], [ 248552.457559881993802, 9857145.801500342786312 ], [ 248607.415277614607476, 9857129.633894009515643 ], [ 248662.367690335260704, 9857119.406423263251781 ], [ 248710.550169797876151, 9857122.612907771021128 ], [ 248745.601692717755213, 9857106.029379241168499 ], [ 248791.002320661646081, 9857094.99696633964777 ], [ 248823.273633201024495, 9857074.860164765268564 ], [ 248851.953315827820916, 9857062.231069536879659 ], [ 248883.822060852951836, 9857044.0628995988518 ], [ 248916.488994345796527, 9857017.200949892401695 ], [ 248936.796251517545898, 9857017.21899926289916 ], [ 248947.57323183704284, 9856992.306581862270832 ], [ 248977.853037747438066, 9856970.586210358887911 ], [ 248997.748589329625247, 9856982.86024790070951 ], [ 249014.882940442417748, 9856970.220903841778636 ], [ 249052.313748057116754, 9856957.201379714533687 ], [ 249095.342972918384476, 9856933.51230737939477 ], [ 249124.42772335241898, 9856903.483566084876657 ], [ 249153.509895156166749, 9856888.874811490997672 ], [ 249181.156022617244162, 9856911.6643146853894 ], [ 249219.627033351454884, 9856918.247007768601179 ], [ 249258.806353926484007, 9856904.510029738768935 ], [ 249273.04778928658925, 9856877.322030970826745 ], [ 249289.010301780333975, 9856855.301365522667766 ], [ 249306.315724393061828, 9856875.625965788960457 ], [ 249321.561049831128912, 9856883.902574513107538 ], [ 249341.994323969644029, 9856904.926828248426318 ], [ 249336.091029577364679, 9856920.418981157243252 ], [ 249341.284186546894489, 9856927.303949050605297 ], [ 249370.381036617502104, 9856946.267352491617203 ], [ 249391.153720235422952, 9856961.207974841818213 ], [ 249409.458221490494907, 9856972.296943323686719 ], [ 249434.937150068843039, 9856978.248601593077183 ], [ 249470.782698811875889, 9856969.973098697140813 ], [ 249512.993338574131485, 9856965.265094207599759 ], [ 249553.201624715555226, 9856971.240865705534816 ], [ 249596.17605882906355, 9856996.588028645142913 ], [ 249635.57494397929986, 9857023.912037279456854 ], [ 249651.508907878014725, 9857008.89338274858892 ], [ 249677.399115948734106, 9857002.987287232652307 ], [ 249690.957555726607097, 9856980.057456502690911 ], [ 249706.09297879843507, 9856974.141831416636705 ], [ 249734.365712565748254, 9856968.226788381114602 ], [ 249772.976985499961302, 9856979.731922850012779 ], [ 249801.650848410034087, 9856973.430072782561183 ], [ 249822.945934114308329, 9856951.61327475681901 ], [ 249858.336261201446177, 9856929.255888883024454 ] ] } },
{ "type": "Feature", "properties": { "name": "Kivuli stream", "fclass": "stream" }, "geometry": { "type": "LineString", "coordinates": [ [ 247017.883333709498402, 9857463.046370195224881 ], [ 247030.245716249191901, 9857470.844931859523058 ], [ 247057.087438607210061, 9857484.662985689938068 ], [ 247093.896071065886645, 9857495.779779614880681 ], [ 247124.062533464370063, 9857501.802201356738806 ], [ 247151.82068087393418, 9857511.716228973120451 ], [ 247171.111471708194586, 9857528.226602803915739 ], [ 247182.278921092540259, 9857527.628162140026689 ], [ 247187.70458489691373, 9857536.028917867690325 ], [ 247198.274818912701448, 9857530.949908947572112 ], [ 247235.683391025086166, 9857530.983264051377773 ], [ 247275.217387840966694, 9857532.213184226304293 ], [ 247310.817504277365515, 9857537.643078353255987 ], [ 247347.938186872605002, 9857535.873086543753743 ], [ 247369.064033583039418, 9857529.59774674475193 ], [ 247420.072247401927598, 9857510.760706393048167 ], [ 247440.284521491645137, 9857517.670215483754873 ], [ 247450.544787526130676, 9857523.077513203024864 ], [ 247459.602983733057044, 9857515.596747014671564 ], [ 247478.313654443365522, 9857508.412187254056334 ], [ 247487.97538038060884, 9857510.82120362110436 ], [ 247503.369865514629055, 9857501.841679347679019 ], [ 247519.655479374603601, 9857504.853931894525886 ], [ 247541.389363868016517, 9857503.379948640242219 ], [ 247578.835418442031369, 9857473.734522428363562 ], [ 247609.917489198909607, 9857464.171638403087854 ], [ 247644.917924889130518, 9857467.797889763489366 ], [ 247666.359725863323547, 9857456.73307847045362 ], [ 247678.427076463383855, 9857458.237164866179228 ], [ 247715.548268854239723, 9857443.281508484855294 ], [ 247727.307802338822512, 9857452.882540244609118 ], [ 247752.955561635026243, 9857457.108848823234439 ], [ 247775.278348683932563, 9857469.418350921943784 ], [ 247799.100421999843093, 9857485.921593740582466 ], [ 247823.264932979887817, 9857480.434334294870496 ], [ 247831.505838470649906, 9857478.030201245099306 ], [ 247840.599502004130045, 9857480.704179152846336 ], [ 247849.956608725944534, 9857487.603986529633403 ], [ 247854.788326174224494, 9857500.351442433893681 ], [ 247863.744688468170352, 9857507.184520499780774 ], [ 247870.138142057840014, 9857516.504215609282255 ], [ 247879.520213007752318, 9857520.373116753995419 ], [ 247919.311990310729016, 9857519.501439122483134 ], [ 247979.222512803971767, 9857517.961814215406775 ], [ 247993.852496967214392, 9857529.788778871297836 ], [ 247998.889260546828154, 9857524.793341247364879 ], [ 248007.573556998977438, 9857524.568763902410865 ], [ 248012.154045273957308, 9857519.351685885339975 ], [ 248027.931555947085144, 9857517.772817363962531 ], [ 248038.456094138353365, 9857513.921619340777397 ], [ 248045.307227577432059, 9857521.881110960617661 ], [ 248060.634747167729074, 9857525.534050490707159 ], [ 248078.670616350165801, 9857513.371088463813066 ], [ 248093.810942664305912, 9857502.156865315511823 ], [ 248115.768506009189878, 9857499.455188281834126 ], [ 248140.231528948235791, 9857508.790919279679656 ], [ 248159.887932198529597, 9857514.715356964617968 ], [ 248171.104551024356624, 9857508.818349156528711 ], [ 248181.413437811832409, 9857484.524851858615875 ], [ 248191.948264190548798, 9857469.080954199656844 ] ] } },
{ "type": "Feature", "properties": { "name": "Kivuli stream", "fclass": "stream" }, "geometry": { "type": "LineString", "coordinates": [ [ 248191.948264190548798, 9857469.080954199656844 ], [ 248199.984640318230959, 9857458.767487412318587 ] ] } },
{ "type": "Feature", "properties": { "name": "Kivuli stream", "fclass": "stream" }, "geometry": { "type": "LineString", "coordinates": [ [ 248199.984640318230959, 9857458.767487412318587 ], [ 248203.696300087904092, 9857454.014235591515899 ] ] } },
{ "type": "Feature", "properties": { "name": "Kivuli stream", "fclass": "stream" }, "geometry": { "type": "LineString", "coordinates": [ [ 245580.298725762055255, 9857606.659460311755538 ], [ 245627.118953673605574, 9857578.128504166379571 ], [ 245687.473615682043601, 9857541.678300894796848 ], [ 245729.441712792438921, 9857510.731515420600772 ], [ 245805.385920952103334, 9857508.68680320866406 ], [ 245852.484415710117901, 9857517.390508631244302 ], [ 245886.098935294750845, 9857527.398481547832489 ], [ 245933.919599464803468, 9857537.7731579169631 ], [ 245970.65245982047054, 9857559.155537780374289 ], [ 246043.05737837581546, 9857592.959169642999768 ], [ 246083.948301993339555, 9857608.4934894554317 ], [ 246118.950178976665484, 9857623.325626187026501 ], [ 246141.80099951318698, 9857642.969862826168537 ], [ 246167.450615446432494, 9857645.404302075505257 ], [ 246249.941498978208983, 9857655.466965449973941 ], [ 246290.144530208810465, 9857655.845833078026772 ], [ 246339.676850238261977, 9857656.940994774922729 ], [ 246428.938618173240684, 9857652.584966979920864 ], [ 246523.696476296987385, 9857652.525827921926975 ], [ 246565.035238689015387, 9857652.706557929515839 ], [ 246612.873672130022896, 9857643.0148502625525 ], [ 246647.885047273157397, 9857634.650170084089041 ], [ 246676.248610176582588, 9857627.485294818878174 ], [ 246715.637998709193198, 9857616.270565962418914 ], [ 246771.786411508859601, 9857601.641627822071314 ], [ 246843.990657131071202, 9857585.566858211532235 ], [ 246946.367250974290073, 9857556.443926326930523 ], [ 246991.400531367660733, 9857546.04174636118114 ], [ 246996.867296839482151, 9857545.814326159656048 ], [ 246998.946819783974206, 9857523.604031886905432 ], [ 247002.049078590556746, 9857478.186937028542161 ], [ 247003.353009838348953, 9857464.250198591500521 ], [ 247017.883333709498402, 9857463.046370195224881 ] ] } },
{ "type": "Feature", "properties": { "name": "Kagisu stream", "fclass": "stream" }, "geometry": { "type": "LineString", "coordinates": [ [ 245256.275943413202185, 9857099.742446606978774 ], [ 245277.315221136785112, 9857103.389726806432009 ], [ 245314.36291863193037, 9857096.608952637761831 ], [ 245351.721181144472212, 9857091.122703885659575 ], [ 245420.021905856119702, 9857083.263886423781514 ], [ 245442.901167212694418, 9857083.627415109425783 ], [ 245464.049470544647193, 9857077.451779460534453 ], [ 245485.53919609557488, 9857075.402552472427487 ], [ 245519.170434877596563, 9857066.826657064259052 ], [ 245551.76099360108492, 9857051.712224354967475 ], [ 245571.181409407727187, 9857047.935471316799521 ], [ 245572.928172514686594, 9857036.919364789500833 ], [ 245568.092523634113604, 9857016.262391332536936 ], [ 245562.560087879159255, 9857002.828227741643786 ], [ 245569.503481746418402, 9856982.524783477187157 ], [ 245577.140858396800468, 9856970.474163567647338 ], [ 245570.921683674619999, 9856940.756223369389772 ], [ 245574.589142338460078, 9856935.759537255391479 ], [ 245595.864534819440451, 9856924.429173702374101 ], [ 245614.616783878853312, 9856920.806699061766267 ], [ 245636.338210221030749, 9856921.058572512120008 ], [ 245662.865466959454352, 9856925.617861395701766 ], [ 245695.56009940293734, 9856930.879602713510394 ], [ 245721.173776757001178, 9856936.123898724094033 ], [ 245748.124914724612609, 9856915.053099235519767 ], [ 245792.806527421344072, 9856899.894273271784186 ], [ 245806.324782923678868, 9856897.583446642383933 ], [ 245833.19428628613241, 9856892.961642228066921 ], [ 245868.099876147025498, 9856829.143747977912426 ], [ 245936.933131949277595, 9856798.331977000460029 ], [ 245981.303821151464945, 9856782.188382865861058 ], [ 246041.868961482075974, 9856759.090382175520062 ], [ 246093.115804593340727, 9856747.775970159098506 ], [ 246130.159167015983257, 9856745.541639158502221 ], [ 246158.52776611642912, 9856732.84601148404181 ], [ 246207.93261999686365, 9856726.983445171266794 ], [ 246262.8216993715032, 9856713.858155459165573 ], [ 246356.153106681274949, 9856690.325052618980408 ], [ 246412.878339531394886, 9856678.108484456315637 ], [ 246501.628867307677865, 9856660.013690438121557 ], [ 246562.002149588079192, 9856651.893284136429429 ], [ 246607.746390814165352, 9856643.295116787776351 ], [ 246643.878820852114586, 9856651.048783961683512 ], [ 246688.244102442200528, 9856640.646286683157086 ], [ 246727.583266919944435, 9856635.681698523461819 ], [ 246765.549321060214425, 9856634.80875557102263 ], [ 246856.112452526460402, 9856631.250799285247922 ], [ 246872.142413988767657, 9856609.008786199614406 ], [ 246895.473199540574569, 9856602.215660445392132 ], [ 246946.253332526830491, 9856589.540179904550314 ], [ 246968.682181417447282, 9856570.478673595935106 ], [ 246997.056304997415282, 9856551.422513062134385 ], [ 247018.107148964598309, 9856541.906132644042373 ], [ 247053.327644536911976, 9856536.030763108283281 ], [ 247056.540504453820176, 9856516.498467633500695 ], [ 247102.931411375437165, 9856519.073306076228619 ], [ 247157.179921140515944, 9856499.774917919188738 ], [ 247175.484041141957277, 9856486.616736931726336 ], [ 247197.889584650314646, 9856493.45094146206975 ], [ 247212.99717236997094, 9856481.650493770837784 ], [ 247231.748949592758436, 9856441.114732185378671 ], [ 247250.407103086792631, 9856430.434722937643528 ], [ 247263.287569253181573, 9856431.497166616842151 ], [ 247272.746909658919321, 9856423.673903172835708 ], [ 247274.875750598759623, 9856396.275713607668877 ], [ 247281.723539771075593, 9856370.706964092329144 ], [ 247301.967317959177308, 9856354.818276606500149 ], [ 247314.853304458229104, 9856337.341140523552895 ], [ 247343.492282260063803, 9856333.196578467264771 ], [ 247410.166239773563575, 9856325.590662425383925 ], [ 247443.584177061013179, 9856318.408394353464246 ], [ 247470.924627743399469, 9856297.293864350765944 ], [ 247490.284218609274831, 9856274.147859545424581 ] ] } },
{ "type": "Feature", "properties": { "name": null, "fclass": "stream" }, "geometry": { "type": "LineString", "coordinates": [ [ 247354.370518598443596, 9856035.223473943769932 ], [ 247358.533646246622084, 9856036.090043596923351 ], [ 247368.757704962685239, 9856032.139124577865005 ], [ 247429.936380226688925, 9856031.674303917214274 ], [ 247451.430849057534942, 9856036.339608933776617 ], [ 247490.934859059227165, 9856045.844062687829137 ], [ 247521.250961162906606, 9856058.481788212433457 ] ] } },
{ "type": "Feature", "properties": { "name": null, "fclass": "stream" }, "geometry": { "type": "LineString", "coordinates": [ [ 247303.957911714591319, 9856010.908465640619397 ], [ 247304.948787648900179, 9856010.909358270466328 ], [ 247310.203770030871965, 9856010.914092153310776 ] ] } },
{ "type": "Feature", "properties": { "name": null, "fclass": "stream" }, "geometry": { "type": "LineString", "coordinates": [ [ 247238.942211687448435, 9856019.223680613562465 ], [ 247242.322143613564549, 9856024.370468618348241 ], [ 247263.026966673787683, 9856028.139076394960284 ], [ 247288.413432310218923, 9856025.695162232965231 ], [ 247296.280236707156291, 9856018.379331531003118 ], [ 247304.948787648900179, 9856010.909358270466328 ] ] } },
{ "type": "Feature", "properties": { "name": null, "fclass": "stream" }, "geometry": { "type": "LineString", "coordinates": [ [ 246880.154381891188677, 9855872.14277820289135 ], [ 246894.317932692647446, 9855870.175502080470324 ], [ 246918.314414359483635, 9855865.905182620510459 ], [ 246972.690593661885941, 9855877.867878073826432 ], [ 246986.848273644369328, 9855882.39388675801456 ], [ 247026.01717027919949, 9855893.203464752063155 ], [ 247035.365076728223357, 9855897.857868935912848 ], [ 247041.158566988888197, 9855905.661684986203909 ], [ 247047.681854731432395, 9855919.019195362925529 ], [ 247051.182284485927084, 9855926.345282316207886 ], [ 247059.608436723181512, 9855940.766442641615868 ], [ 247068.905354783026269, 9855952.577796142548323 ], [ 247077.524979214358609, 9855962.342099716886878 ], [ 247081.541251777933212, 9855965.564712772145867 ], [ 247085.599603993352503, 9855971.508572006598115 ], [ 247089.283379617903847, 9855973.060549464076757 ], [ 247100.84664552580216, 9855977.938179209828377 ], [ 247104.853460659884149, 9855979.302396506071091 ], [ 247115.148739757016301, 9855982.818277383223176 ], [ 247117.339176673383918, 9855985.983933223411441 ], [ 247129.479257011495065, 9855993.218247711658478 ], [ 247142.211195167416008, 9855998.473028523847461 ], [ 247158.830760213895701, 9856001.452577821910381 ], [ 247177.441077134717489, 9856006.801148613914847 ], [ 247187.093056823505322, 9856007.606298776343465 ], [ 247194.763821144239046, 9856007.812324907630682 ], [ 247203.424215519276913, 9856009.401969537138939 ], [ 247209.493009297613753, 9856008.223824640735984 ], [ 247215.168214604171226, 9856011.392617886886001 ], [ 247223.484946675831452, 9856011.344803430140018 ] ] } },
{ "type": "Feature", "properties": { "name": null, "fclass": "stream" }, "geometry": { "type": "LineString", "coordinates": [ [ 248516.931483108666725, 9854823.316691899672151 ], [ 248548.596786237176275, 9854808.611098358407617 ] ] } },
{ "type": "Feature", "properties": { "name": null, "fclass": "stream" }, "geometry": { "type": "LineString", "coordinates": [ [ 248308.506927928247023, 9854869.930432530120015 ], [ 248326.026665330689866, 9854862.180936371907592 ] ] } },
{ "type": "Feature", "properties": { "name": "Motoine River", "fclass": "stream" }, "geometry": { "type": "LineString", "coordinates": [ [ 246713.109794410294853, 9855218.44673908315599 ], [ 246735.156378223182401, 9855215.867220608517528 ], [ 246782.937888001120882, 9855207.204923868179321 ], [ 246817.186509973107604, 9855204.857714733108878 ], [ 246885.194170284376014, 9855199.819925680756569 ], [ 246908.391243548190687, 9855180.81461657397449 ], [ 247035.231247325893492, 9855172.113413983955979 ], [ 247202.623519062733976, 9855183.061530895531178 ], [ 247255.171085104258964, 9855197.7439318690449 ], [ 247319.38070591451833, 9855194.195956487208605 ], [ 247396.616945327725261, 9855214.61963040754199 ], [ 247443.988801412924659, 9855215.492156594991684 ] ] } },
{ "type": "Feature", "properties": { "name": "Motoine River", "fclass": "stream" }, "geometry": { "type": "LineString", "coordinates": [ [ 243995.20204057788942, 9856151.604125171899796 ], [ 244024.018621014052769, 9856148.743205497041345 ], [ 244075.503698940505274, 9856133.303291821852326 ], [ 244093.339521052868804, 9856121.449990209192038 ], [ 244135.28714693384245, 9856113.689495760947466 ], [ 244169.845416834868956, 9856102.183299751952291 ], [ 244241.241117530822521, 9856070.478238601237535 ], [ 244285.77777682908345, 9856043.837237561121583 ], [ 244294.385484273254406, 9856017.882527627050877 ], [ 244310.648263370443601, 9856009.501280726864934 ], [ 244340.240804792323615, 9855985.855542950332165 ], [ 244354.437368787155719, 9855972.372827533632517 ], [ 244370.14132937224349, 9855954.112698758020997 ], [ 244385.645457834150875, 9855935.221855888143182 ], [ 244399.842340077681001, 9855921.385162519291043 ], [ 244411.964229239587439, 9855912.082002719864249 ], [ 244428.68746743092197, 9855887.108173787593842 ], [ 244438.067585225857329, 9855880.977312978357077 ], [ 244452.246912991569843, 9855874.176046468317509 ], [ 244473.752994918148033, 9855866.474376957863569 ], [ 244479.486039942305069, 9855855.118925854563713 ], [ 244496.008708387787919, 9855818.109466839581728 ], [ 244528.845980605285149, 9855801.314111052080989 ], [ 244553.56884779399843, 9855770.097572257742286 ], [ 244590.220097624434857, 9855746.403018619865179 ], [ 244602.183794107113499, 9855727.42048423178494 ], [ 244615.345266412303317, 9855701.337244048714638 ], [ 244641.238907153514447, 9855680.398390296846628 ], [ 244664.656480627018027, 9855652.078933134675026 ], [ 244749.252473184722476, 9855624.611770901829004 ], [ 244831.341896860685665, 9855598.735250962898135 ], [ 244892.102050521789351, 9855582.042841881513596 ], [ 245000.271905503905145, 9855562.174635017290711 ], [ 245104.978883026225958, 9855567.004615776240826 ], [ 245150.220213742984924, 9855609.745006335899234 ], [ 245242.134780440421309, 9855626.642896397039294 ], [ 245308.455357159400592, 9855628.970980286598206 ], [ 245424.871491889469326, 9855637.295957759022713 ], [ 245445.580281600734452, 9855624.659943649545312 ], [ 245487.024083252792479, 9855595.029542414471507 ], [ 245602.552309957885882, 9855526.716627929359674 ], [ 245650.078804079908878, 9855517.346174538135529 ], [ 245671.073541785619454, 9855484.068891631439328 ], [ 245744.393335108470637, 9855416.901272831484675 ], [ 245800.965321809489978, 9855389.663017194718122 ], [ 245841.578617591701914, 9855379.412400778383017 ], [ 245883.017954610550078, 9855354.538694299757481 ], [ 245960.921098012739094, 9855327.950395649299026 ], [ 245991.669244743214222, 9855318.586819959804416 ], [ 246028.190929772012169, 9855314.438650833442807 ], [ 246130.398113935720176, 9855288.182195965200663 ], [ 246166.380364548938815, 9855289.520224856212735 ], [ 246258.056789677939378, 9855298.209727063775063 ], [ 246261.762145818967838, 9855263.777460703626275 ], [ 246263.586544042424066, 9855228.690834185108542 ], [ 246296.534863379056333, 9855211.685505092144012 ], [ 246311.176007316273171, 9855211.012983839958906 ], [ 246343.998614565236494, 9855209.80390115454793 ], [ 246377.521255603758618, 9855210.099866271018982 ] ] } }
]
}
