{"type":"FeatureCollection","features":[{"type":"Feature","geometry":{"type":"Polygon","coordinates":[[[36.86371395438566,-1.3659831666720947],[36.863762965416626,-1.3659876349962592],[36.86376739857359,-1.3659475340818656],[36.86371838754559,-1.3659430657386584],[36.86371395438566,-1.3659831666720947]]]},"id":"0018000000000000c726","properties":{"FID":256083}},{"type":"Feature","geometry":{"type":"Polygon","coordinates":[[[36.856133435041244,-1.3753740610895588],[36.85614681799378,-1.3754186090186633],[36.8562404985934,-1.375396370997117],[36.856227115657894,-1.3753473086504533],[36.856133435041244,-1.3753740610895588]]]},"id":"00180000000000015886","properties":{"FID":256084}},{"type":"Feature","geometry":{"type":"Polygon","coordinates":[[[36.84493663480616,-1.3992079367074468],[36.84501694469102,-1.3992213304457788],[36.84504363251683,-1.3990741770512587],[36.84496340477751,-1.39905632292031],[36.84493663480616,-1.3992079367074468]]]},"id":"0018000000000001ae81","properties":{"FID":256390}},{"type":"Feature","geometry":{"type":"Polygon","coordinates":[[[36.84529786436662,-1.3990429527614936],[36.84540486155278,-1.3990384988877183],[36.84540486155278,-1.3989983699031558],[36.84529786436662,-1.3990028237179244],[36.84529786436662,-1.3990429527614936]]]},"id":"00180000000000012d54","properties":{"FID":256395}},{"type":"Feature","geometry":{"type":"Polygon","coordinates":[[[36.84767007787366,-1.3981867922849107],[36.84770571510029,-1.3982269216277428],[36.84774143442304,-1.3981957127873594],[36.84770571510029,-1.3981555849868836],[36.84767007787366,-1.3981867922849107]]]},"id":"00180000000000014a72","properties":{"FID":256400}},{"type":"Feature","geometry":{"type":"Polygon","coordinates":[[[36.847768203375416,-1.3974733641571375],[36.847781587847955,-1.39750456650609],[36.847826175367764,-1.3974867503031516],[36.847812790903326,-1.3974554885393806],[36.847768203375416,-1.3974733641571375]]]},"id":"0018000000000000fead","properties":{"FID":256401}},{"type":"Feature","geometry":{"type":"Polygon","coordinates":[[[36.84772361582052,-1.3973351350281638],[36.84775925302126,-1.397379722158631],[36.84785737840424,-1.397303919645794],[36.84781722502065,-1.3972592962492527],[36.84772361582052,-1.3973351350281638]]]},"id":"00180000000000013bcc","properties":{"FID":256402}},{"type":"Feature","geometry":{"type":"Polygon","coordinates":[[[36.846443785477156,-1.397072043565373],[36.84655529730735,-1.3970943202915282],[36.846559731500356,-1.3970586310724478],[36.846448301791675,-1.397036352821375],[36.846443785477156,-1.397072043565373]]]},"id":"0018000000000000bdef","properties":{"FID":256403}},{"type":"Feature","geometry":{"type":"Polygon","coordinates":[[[36.846876365036536,-1.397005172298954],[36.847005694992525,-1.397031879127493],[36.84702794793349,-1.3969248867168875],[36.84689861801656,-1.396898120361962],[36.846876365036536,-1.397005172298954]]]},"id":"0018000000000001e2f5","properties":{"FID":256404}},{"type":"Feature","geometry":{"type":"Polygon","coordinates":[[[36.846805007649344,-1.3967197695953495],[36.84684516158459,-1.3967286665052259],[36.846854029935436,-1.3966885573447874],[36.84681839229686,-1.3966796374044657],[36.846805007649344,-1.3967197695953495]]]},"id":"0018000000000000e1e7","properties":{"FID":256407}},{"type":"Feature","geometry":{"type":"Polygon","coordinates":[[[36.84800895928295,-1.3960642916134776],[36.84804016224202,-1.39613564850317],[36.84818287455484,-1.3960687259133253],[36.8481516716562,-1.3959973692671286],[36.84800895928295,-1.3960642916134776]]]},"id":"001800000000000191ef","properties":{"FID":256409}},{"type":"Feature","geometry":{"type":"Polygon","coordinates":[[[36.84842362910732,-1.3974867125848287],[36.84852618768012,-1.3976249516938144],[36.84864213042635,-1.397540263296424],[36.84858415907604,-1.3974600013310952],[36.84864213042635,-1.397419827177082],[36.84859310932999,-1.3973574137464713],[36.84842362910732,-1.3974867125848287]]]},"id":"0018000000000002b268","properties":{"FID":256432}},{"type":"Feature","geometry":{"type":"Polygon","coordinates":[[[36.848824994429364,-1.39539095666113],[36.848874015371436,-1.3953954120355234],[36.84887853153699,-1.3953106850721606],[36.848829428485764,-1.3953062311551085],[36.848824994429364,-1.39539095666113]]]},"id":"00180000000000018f37","properties":{"FID":256433}},{"type":"Feature","geometry":{"type":"Polygon","coordinates":[[[36.8486154439039,-1.3953017536781276],[36.84877597345468,-1.3953419201507726],[36.84879379180268,-1.39527947881458],[36.84863326229074,-1.395239312300224],[36.8486154439039,-1.3953017536781276]]]},"id":"0018000000000002254c","properties":{"FID":256434}},{"type":"Feature","geometry":{"type":"Polygon","coordinates":[[[36.88674069838901,-1.3767920321713787],[36.88675858961504,-1.3768366611104972],[36.886794207914456,-1.376818798522103],[36.88678083053675,-1.376778660590048],[36.88674069838901,-1.3767920321713787]]]},"id":"0018000000000000ac95","properties":{"FID":256436}}]}