{"type":"FeatureCollection","features":[{"type":"Feature","geometry":{"type":"Polygon","coordinates":[[[36.8911463222814,-1.4390500317975865],[36.89125776637576,-1.4390500137603328],[36.891262279940086,-1.4389652810357303],[36.8911463222814,-1.4389652650317668],[36.8911463222814,-1.4390500317975865]]]},"id":"00180000000000030c94","properties":{"FID":129025}},{"type":"Feature","geometry":{"type":"Polygon","coordinates":[[[36.889969091385815,-1.4379932073360153],[36.889995844977804,-1.4379931794657232],[36.889995844977804,-1.4379307802250674],[36.889969091385815,-1.43793074858992],[36.889969091385815,-1.4379932073360153]]]},"id":"0018000000000003010d","properties":{"FID":129026}},{"type":"Feature","geometry":{"type":"Polygon","coordinates":[[[36.89023219530593,-1.4378371633394487],[36.890308024208416,-1.4378415651252177],[36.89030802420841,-1.4377434760513803],[36.89023219530593,-1.4377390147009743],[36.89023219530593,-1.4378371633394487]]]},"id":"001800000000000359ac","properties":{"FID":129027}},{"type":"Feature","geometry":{"type":"Polygon","coordinates":[[[36.88986207692041,-1.437609704416747],[36.88986659057049,-1.4377167502798123],[36.88997360502932,-1.4377122968363134],[36.889969091385815,-1.437605251130774],[36.88986207692041,-1.437609704416747]]]},"id":"001800000000000318f9","properties":{"FID":129028}},{"type":"Feature","geometry":{"type":"Polygon","coordinates":[[[36.93184449430933,-1.3996047917339693],[36.93188911285718,-1.3996181662358074],[36.93190248201236,-1.3995736182548981],[36.931862374539485,-1.3995602203378537],[36.93184449430933,-1.3996047917339693]]]},"id":"0018000000000001028b","properties":{"FID":524810}},{"type":"Feature","geometry":{"type":"Polygon","coordinates":[[[36.890245572055235,-1.4348405900147732],[36.890294647470476,-1.4348495414777576],[36.89030351058546,-1.4348049442535762],[36.89025000361582,-1.434796016555069],[36.890245572055235,-1.4348405900147732]]]},"id":"00180000000000030f46","properties":{"FID":129037}},{"type":"Feature","geometry":{"type":"Polygon","coordinates":[[[36.89082076997113,-1.4348272255142314],[36.890860899890214,-1.434836166527941],[36.89087427652503,-1.434773760287288],[36.89082971508792,-1.434769244437344],[36.89082076997113,-1.4348272255142314]]]},"id":"00180000000000033438","properties":{"FID":129038}},{"type":"Feature","geometry":{"type":"Polygon","coordinates":[[[36.89073607853619,-1.4346444337645563],[36.89074945519375,-1.4347291174510832],[36.89081633844498,-1.4347157868257094],[36.8908029617996,-1.4346355046240105],[36.89073607853619,-1.4346444337645563]]]},"id":"0018000000000003544c","properties":{"FID":129039}},{"type":"Feature","geometry":{"type":"Polygon","coordinates":[[[36.889777384380224,-1.4139140573797835],[36.88993347462553,-1.414043368894617],[36.88997360502932,-1.4139942986073462],[36.889817514869286,-1.4138649872503701],[36.889777384380224,-1.4139140573797835]]]},"id":"00180000000000034fea","properties":{"FID":128807}},{"type":"Feature","geometry":{"type":"Polygon","coordinates":[[[36.890397147688546,-1.4136375890004378],[36.89045959971286,-1.413704494213216],[36.89052205168409,-1.4136465114753662],[36.89045959971286,-1.413579606385082],[36.890397147688546,-1.4136375890004378]]]},"id":"00180000000000035786","properties":{"FID":128809}},{"type":"Feature","geometry":{"type":"Polygon","coordinates":[[[36.88940726370331,-1.4134101762311622],[36.88947857978365,-1.41349492910223],[36.88941169531447,-1.4135484171176462],[36.88943844910944,-1.4135796049003544],[36.88954546419195,-1.4134993382257863],[36.88945182600328,-1.413374518260581],[36.88940726370331,-1.4134101762311622]]]},"id":"00180000000000036d7b","properties":{"FID":128812}},{"type":"Feature","geometry":{"type":"Polygon","coordinates":[[[36.88986659057049,-1.413142627612084],[36.889911152591836,-1.413196132733852],[36.889982468183035,-1.4131381651974624],[36.889937906204935,-1.4130802020703679],[36.88986659057049,-1.413142627612084]]]},"id":"001800000000000349f6","properties":{"FID":128817}},{"type":"Feature","geometry":{"type":"Polygon","coordinates":[[[36.88973725386925,-1.412085844332893],[36.88978624755761,-1.4120947460228135],[36.88979962438812,-1.4120278666174186],[36.889746117051466,-1.412018929479676],[36.88973725386925,-1.412085844332893]]]},"id":"001800000000000354a3","properties":{"FID":128833}},{"type":"Feature","geometry":{"type":"Polygon","coordinates":[[[36.88973725386925,-1.4438792138492813],[36.889808569629245,-1.4439014850240337],[36.88982194645569,-1.4438658326734934],[36.889750630708676,-1.4438435614943068],[36.88973725386925,-1.4438792138492813]]]},"id":"00180000000000031b16","properties":{"FID":129104}},{"type":"Feature","geometry":{"type":"Polygon","coordinates":[[[36.889139725201495,-1.4432950859646707],[36.8891932329798,-1.4433396474535645],[36.8892377954096,-1.4432816907519381],[36.88918880135546,-1.443241565590535],[36.889139725201495,-1.4432950859646707]]]},"id":"00180000000000030167","properties":{"FID":129107}},{"type":"Feature","geometry":{"type":"Polygon","coordinates":[[[36.8906112569701,-1.441194833508879],[36.890638010328225,-1.44120372799353],[36.890655818539734,-1.4411324208921326],[36.890629065188094,-1.4411279286270224],[36.8906112569701,-1.441194833508879]]]},"id":"001800000000000301e7","properties":{"FID":129119}},{"type":"Feature","geometry":{"type":"Polygon","coordinates":[[[36.890308024208416,-1.4409228583598792],[36.890361531135795,-1.4409228601265163],[36.89036596268938,-1.4408782190251135],[36.890308024208416,-1.440878241350006],[36.890308024208416,-1.4409228583598792]]]},"id":"00180000000000033587","properties":{"FID":129121}},{"type":"Feature","geometry":{"type":"Polygon","coordinates":[[[36.89070489368092,-1.440690978255187],[36.8908029617996,-1.4407043572940506],[36.89081633844498,-1.4406196311934434],[36.890767263378244,-1.4406151434930885],[36.89076283184887,-1.4406463395963147],[36.890713756746386,-1.4406374497482655],[36.89070489368092,-1.440690978255187]]]},"id":"00180000000000035a24","properties":{"FID":129122}},{"type":"Feature","geometry":{"type":"Polygon","coordinates":[[[36.89072270187621,-1.4406329978276564],[36.89075840031923,-1.4406419020632115],[36.890767263378244,-1.4406196051316846],[36.890727133408014,-1.4406062633608],[36.89072270187621,-1.4406329978276564]]]},"id":"0018000000000002f5c3","properties":{"FID":129123}},{"type":"Feature","geometry":{"type":"Polygon","coordinates":[[[36.8908832216353,-1.4405393689596364],[36.890936728143714,-1.440557157955342],[36.89095010476473,-1.4405036636638862],[36.89089659826606,-1.4404858151752167],[36.8908832216353,-1.4405393689596364]]]},"id":"00180000000000032d8b","properties":{"FID":129125}},{"type":"Feature","geometry":{"type":"Polygon","coordinates":[[[36.89017425671946,-1.4394647083153218],[36.8902678939873,-1.4394781125510274],[36.89027675710551,-1.4393933552087828],[36.890223250116385,-1.4393888909032884],[36.89021881855419,-1.4394200860380837],[36.89017868828435,-1.439415667052726],[36.89017425671946,-1.4394647083153218]]]},"id":"00180000000000035480","properties":{"FID":129129}},{"type":"Feature","geometry":{"type":"Polygon","coordinates":[[[36.90199532566878,-1.4387333964787203],[36.90203988033052,-1.4387512324906537],[36.90206219867762,-1.438697758527511],[36.902013131126154,-1.438679888617288],[36.90199532566878,-1.4387333964787203]]]},"id":"00180000000000033af6","properties":{"FID":129131}},{"type":"Feature","geometry":{"type":"Polygon","coordinates":[[[36.896448182105,-1.4387155843571635],[36.89651949134912,-1.438764621064646],[36.89659088258282,-1.4386576377534774],[36.89651506016679,-1.4386085672254902],[36.896448182105,-1.4387155843571635]]]},"id":"00180000000000035e06","properties":{"FID":129132}},{"type":"Feature","geometry":{"type":"Polygon","coordinates":[[[36.9025928317917,-1.4386620640473566],[36.9027845873948,-1.438742311610687],[36.902820279974215,-1.4386531382916887],[36.90262852446437,-1.4385728907623452],[36.9025928317917,-1.4386620640473566]]]},"id":"00180000000000036852","properties":{"FID":129133}},{"type":"Feature","geometry":{"type":"Polygon","coordinates":[[[36.896639953758374,-1.4384658399516987],[36.89670231841579,-1.4385283090610765],[36.89675138951689,-1.4384837259102246],[36.89668894284242,-1.4384212584333196],[36.896639953758374,-1.4384658399516987]]]},"id":"00180000000000034934","properties":{"FID":129134}},{"type":"Feature","geometry":{"type":"Polygon","coordinates":[[[36.896412486427444,-1.4383053645464157],[36.89646598890777,-1.4383231524561362],[36.89648830894939,-1.4382518315705783],[36.89643480648533,-1.4382339841754863],[36.896412486427444,-1.4383053645464157]]]},"id":"00180000000000030942","properties":{"FID":129135}},{"type":"Feature","geometry":{"type":"Polygon","coordinates":[[[36.90222720654064,-1.438287473982146],[36.9024457121554,-1.4383276070298887],[36.902467948326816,-1.4382161468600512],[36.90224944277825,-1.4381760136512955],[36.90222720654064,-1.438287473982146]]]},"id":"00180000000000034e1a","properties":{"FID":129136}},{"type":"Feature","geometry":{"type":"Polygon","coordinates":[[[36.89697885579798,-1.4382117211126986],[36.89704122016755,-1.4382384423473202],[36.8970858598943,-1.4381269694167595],[36.89701898235238,-1.438104675210126],[36.89697885579798,-1.4382117211126986]]]},"id":"001800000000000334c8","properties":{"FID":129137}},{"type":"Feature","geometry":{"type":"Polygon","coordinates":[[[36.89632780144026,-1.438104667649192],[36.89635012152388,-1.4381581956608502],[36.89640362404965,-1.4381403550529943],[36.89638573517267,-1.4380868626004066],[36.89632780144026,-1.438104667649192]]]},"id":"001800000000000312b4","properties":{"FID":129138}},{"type":"Feature","geometry":{"type":"Polygon","coordinates":[[[36.89659088258282,-1.437997645299263],[36.89665332934069,-1.4380021197562554],[36.89665332934069,-1.4379575100816337],[36.89659088258283,-1.4379575560428584],[36.89659088258282,-1.437997645299263]]]},"id":"0018000000000002fc82","properties":{"FID":129139}},{"type":"Feature","geometry":{"type":"Polygon","coordinates":[[[36.89419636631665,-1.437520557477902],[36.894281053761794,-1.4375517369575044],[36.89429442977376,-1.4375160942068588],[36.89420974234404,-1.4374848552471597],[36.89419636631665,-1.437520557477902]]]},"id":"001800000000000339ad","properties":{"FID":129140}},{"type":"Feature","geometry":{"type":"Polygon","coordinates":[[[36.900488164201164,-1.4374804300983868],[36.90057727532722,-1.4374937995429329],[36.90058621925563,-1.437426899355722],[36.90049702608595,-1.4374135314094203],[36.900488164201164,-1.4374804300983868]]]},"id":"00180000000000033523","properties":{"FID":129141}},{"type":"Feature","geometry":{"type":"Polygon","coordinates":[[[36.900916241246534,-1.4373466385373908],[36.90100986481816,-1.4373599824857455],[36.901023239604356,-1.4372841971944605],[36.90092961604979,-1.437266392553537],[36.900916241246534,-1.4373466385373908]]]},"id":"0018000000000002f782","properties":{"FID":129142}},{"type":"Feature","geometry":{"type":"Polygon","coordinates":[[[36.90070216200876,-1.437145955323285],[36.900755661363185,-1.4371459592531834],[36.900755661363185,-1.4371058136076889],[36.90070216200876,-1.4371103297538605],[36.90070216200876,-1.437145955323285]]]},"id":"0018000000000002f210","properties":{"FID":129143}},{"type":"Feature","geometry":{"type":"Polygon","coordinates":[[[36.89610033314236,-1.436254171365715],[36.89615834911356,-1.436312140714553],[36.89621628297966,-1.4362541314501436],[36.89615391790945,-1.4361961845310383],[36.89610033314236,-1.436254171365715]]]},"id":"001800000000000352b5","properties":{"FID":129144}},{"type":"Feature","geometry":{"type":"Polygon","coordinates":[[[36.89006724255292,-1.4276570042212842],[36.89015636632517,-1.427674843180862],[36.89016531152286,-1.4276436344128947],[36.89007167412426,-1.4276213603538979],[36.89006724255292,-1.4276570042212842]]]},"id":"00180000000000030ffa","properties":{"FID":128889}},{"type":"Feature","geometry":{"type":"Polygon","coordinates":[[[36.895779316077174,-1.4361203791338912],[36.89585062597083,-1.4361515718003364],[36.8958863219215,-1.4360713202905755],[36.895815012062506,-1.436035666878198],[36.895779316077174,-1.4361203791338912]]]},"id":"00180000000000033c29","properties":{"FID":129145}},{"type":"Feature","geometry":{"type":"Polygon","coordinates":[[[36.89043727783905,-1.4271040711583192],[36.89047740796762,-1.4271130141033177],[36.89048635312622,-1.427068426337279],[36.89045065455101,-1.4270594600383166],[36.89043727783905,-1.4271040711583192]]]},"id":"0018000000000002f529","properties":{"FID":128890}},{"type":"Feature","geometry":{"type":"Polygon","coordinates":[[[36.90252595926629,-1.435250858580817],[36.902592831791694,-1.4352553104150367],[36.90259726260717,-1.435201822708901],[36.90253039008582,-1.4351973708371808],[36.90252595926629,-1.435250858580817]]]},"id":"001800000000000339ae","properties":{"FID":129146}},{"type":"Feature","geometry":{"type":"Polygon","coordinates":[[[36.89131127261136,-1.4268053418947666],[36.89141828496563,-1.426858822602308],[36.89151192064774,-1.4266670855781036],[36.89142279852009,-1.4266224876645264],[36.891440606541344,-1.4265823737173762],[36.89136477880798,-1.4265466848464712],[36.89131127261136,-1.4266581682442547],[36.89136477880798,-1.4266849383227866],[36.89131127261136,-1.4268053418947666]]]},"id":"00180000000000036d07","properties":{"FID":128891}},{"type":"Feature","geometry":{"type":"Polygon","coordinates":[[[36.893389204719576,-1.4351617007958921],[36.89342490186667,-1.4351706057033626],[36.893442709402535,-1.4351126377534094],[36.89340258089397,-1.43510369716505],[36.893389204719576,-1.4351617007958921]]]},"id":"0018000000000002f8e1","properties":{"FID":129147}},{"type":"Feature","geometry":{"type":"Polygon","coordinates":[[[36.915229906628504,-1.4389340903605607],[36.915310221795544,-1.438996503118678],[36.91535476837223,-1.4389429749365186],[36.915274535291935,-1.4388805607117499],[36.915229906628504,-1.4389340903605607]]]},"id":"00180000000000033c3a","properties":{"FID":148348}},{"type":"Feature","geometry":{"type":"Polygon","coordinates":[[[36.891489681158234,-1.4262836045381235],[36.8915476187072,-1.4263014317267817],[36.89155656373548,-1.4262702248957857],[36.891503057678555,-1.4262523744012487],[36.891489681158234,-1.4262836045381235]]]},"id":"0018000000000003068a","properties":{"FID":128892}},{"type":"Feature","geometry":{"type":"Polygon","coordinates":[[[36.89340258089397,-1.43530883401362],[36.8934962961088,-1.4353400229482978],[36.89357203957948,-1.435076959570619],[36.89348291995148,-1.4350502044783309],[36.89340258089397,-1.43530883401362]]]},"id":"00180000000000036e2e","properties":{"FID":129148}},{"type":"Feature","geometry":{"type":"Polygon","coordinates":[[[36.91639377062951,-1.4374357991387015],[36.916442828564016,-1.437462585061616],[36.91648294447602,-1.4373867859329597],[36.91643388656836,-1.4373600000371978],[36.91639377062951,-1.4374357991387015]]]},"id":"00180000000000031d84","properties":{"FID":148349}},{"type":"Feature","geometry":{"type":"Polygon","coordinates":[[[36.893121680720164,-1.435099222024934],[36.89316632282953,-1.4351170588883417],[36.893219827674834,-1.435005604396162],[36.89317075421389,-1.4349877913392297],[36.893121680720164,-1.435099222024934]]]},"id":"00180000000000033b9c","properties":{"FID":129149}},{"type":"Feature","geometry":{"type":"Polygon","coordinates":[[[36.91484645997094,-1.4373153954000815],[36.91493112359026,-1.4373421652783194],[36.91494900794695,-1.4372842070204945],[36.91486426230985,-1.4372574386781187],[36.91484645997094,-1.4373153954000815]]]},"id":"0018000000000002f135","properties":{"FID":148350}},{"type":"Feature","geometry":{"type":"Polygon","coordinates":[[[36.892600006118606,-1.4346800760438478],[36.892657942791786,-1.43469790119401],[36.89268469540449,-1.4346087186987166],[36.89263119016934,-1.4345909292399293],[36.892600006118606,-1.4346800760438478]]]},"id":"00180000000000034ac6","properties":{"FID":129150}},{"type":"Feature","geometry":{"type":"Polygon","coordinates":[[[36.91493563569901,-1.4371504256809278],[36.91497575243553,-1.4371816619708095],[36.91500249691433,-1.4371504150903576],[36.91496238019246,-1.4371192382887343],[36.91493563569901,-1.4371504256809278]]]},"id":"00180000000000032b33","properties":{"FID":148351}},{"type":"Feature","geometry":{"type":"Polygon","coordinates":[[[36.89173488962231,-1.426024999770951],[36.89177501904201,-1.4260472624118854],[36.89179734050932,-1.4260115843029824],[36.89175721110182,-1.4259893216740205],[36.89173488962231,-1.426024999770951]]]},"id":"0018000000000003167f","properties":{"FID":128895}},{"type":"Feature","geometry":{"type":"Polygon","coordinates":[[[36.89579712304215,-1.4309389180061522],[36.89588189070098,-1.4309611760536518],[36.89589969764107,-1.4308942977111188],[36.895815012062506,-1.430872038103981],[36.89579712304215,-1.4309389180061522]]]},"id":"001800000000000343e8","properties":{"FID":129151}},{"type":"Feature","geometry":{"type":"Polygon","coordinates":[[[36.9145833622278,-1.4371771598850995],[36.9146502237643,-1.4371905883246388],[36.91466359606428,-1.437128136361025],[36.91460116463058,-1.4371147433872333],[36.9145833622278,-1.4371771598850995]]]},"id":"00180000000000032b6b","properties":{"FID":148352}},{"type":"Feature","geometry":{"type":"Polygon","coordinates":[[[36.9001938341423,-1.4305465283061578],[36.900202778117425,-1.4305999973384134],[36.90024290290986,-1.4305955586492407],[36.90023838989749,-1.4305420660845052],[36.9001938341423,-1.4305465283061578]]]},"id":"0018000000000002f8b8","properties":{"FID":129152}},{"type":"Feature","geometry":{"type":"Polygon","coordinates":[[[36.91502029921538,-1.4369230453325925],[36.91507387016896,-1.4369854251486571],[36.91511398682985,-1.4369453044316647],[36.915060497943784,-1.436887323481056],[36.91502029921538,-1.4369230453325925]]]},"id":"0018000000000002f11d","properties":{"FID":148353}},{"type":"Feature","geometry":{"type":"Polygon","coordinates":[[[36.899788071922856,-1.4297884767496682],[36.899796933892155,-1.4298196478249545],[36.89983714096162,-1.4298107483502487],[36.899828196941954,-1.4297750596455],[36.899788071922856,-1.4297884767496682]]]},"id":"0018000000000002ffaf","properties":{"FID":129153}},{"type":"Feature","geometry":{"type":"Polygon","coordinates":[[[36.92074585285667,-1.436628688853678],[36.92083050966434,-1.4366331594058595],[36.920835021410085,-1.4365841395533594],[36.920750282575774,-1.4365796705007743],[36.92074585285667,-1.436628688853678]]]},"id":"0018000000000002f0f9","properties":{"FID":148354}},{"type":"Feature","geometry":{"type":"Polygon","coordinates":[[[36.90012244641187,-1.4298018371377714],[36.90016708426524,-1.4298062933111872],[36.90016708426524,-1.4297438574132348],[36.90012244641187,-1.4297394012129547],[36.90012244641187,-1.4298018371377714]]]},"id":"0018000000000002ffbb","properties":{"FID":129154}},{"type":"Feature","geometry":{"type":"Polygon","coordinates":[[[36.920643230955825,-1.4366197998624448],[36.92071911047269,-1.436619797910079],[36.920723540193414,-1.4365663201162262],[36.92064323095582,-1.4365618270758764],[36.920643230955825,-1.4366197998624448]]]},"id":"00180000000000032ad1","properties":{"FID":148355}},{"type":"Feature","geometry":{"type":"Polygon","coordinates":[[[36.90021615305068,-1.4297349704493982],[36.90022952798149,-1.4297929339403355],[36.90028302768035,-1.429784023415043],[36.90026965275929,-1.4297215408197985],[36.90021615305068,-1.4297349704493982]]]},"id":"001800000000000349cc","properties":{"FID":129155}},{"type":"Feature","geometry":{"type":"Polygon","coordinates":[[[36.918498474182975,-1.436512785731262],[36.91870798961975,-1.4365216841853543],[36.9187125014961,-1.436481582275503],[36.91850290403788,-1.4364726258114209],[36.918498474182975,-1.436512785731262]]]},"id":"00180000000000030637","properties":{"FID":148356}},{"type":"Feature","geometry":{"type":"Polygon","coordinates":[[[36.89975680885597,-1.4296680550829992],[36.89977469691162,-1.4297349726640909],[36.899846002925,-1.4297215662895812],[36.89983262792431,-1.4296502234936033],[36.89975680885597,-1.4296680550829992]]]},"id":"0018000000000002ecd5","properties":{"FID":129156}},{"type":"Feature","geometry":{"type":"Polygon","coordinates":[[[36.91471708523983,-1.4364503687555477],[36.91474834193325,-1.4364949725523715],[36.91477951657484,-1.4364770817763686],[36.91474391185153,-1.4364280406507044],[36.91471708523983,-1.4364503687555477]]]},"id":"00180000000000031355","properties":{"FID":148357}},{"type":"Feature","geometry":{"type":"Polygon","coordinates":[[[36.89997532182434,-1.4296457674257208],[36.899984265826085,-1.4297082141849469],[36.900019959767164,-1.4297037401089014],[36.900015446741094,-1.4296413293333448],[36.89997532182434,-1.4296457674257208]]]},"id":"001800000000000332b3","properties":{"FID":129157}},{"type":"Feature","geometry":{"type":"Polygon","coordinates":[[[36.920678914846505,-1.4365127553519066],[36.92079490787923,-1.4365083116696735],[36.92079039613103,-1.4364102299341002],[36.920678914846505,-1.4364102480046892],[36.920678914846505,-1.4365127553519066]]]},"id":"00180000000000030c99","properties":{"FID":148358}},{"type":"Feature","geometry":{"type":"Polygon","coordinates":[[[36.90015814028577,-1.4295565989569257],[36.90016708426524,-1.4296189859574466],[36.90022501496829,-1.4296145712207111],[36.900220584009624,-1.4295476400894276],[36.90015814028577,-1.4295565989569257]]]},"id":"00180000000000034421","properties":{"FID":129158}},{"type":"Feature","geometry":{"type":"Polygon","coordinates":[[[36.91760659127877,-1.4364191593627185],[36.9176645902485,-1.4364458952397012],[36.91768690384274,-1.4363968358772123],[36.91762890489066,-1.436370100011001],[36.91760659127877,-1.4364191593627185]]]},"id":"00180000000000031ecc","properties":{"FID":148359}},{"type":"Feature","geometry":{"type":"Polygon","coordinates":[[[36.890406092856914,-1.4235011193247165],[36.89045065455101,-1.423514499443264],[36.89045959971286,-1.4234743761655853],[36.890415038024194,-1.4234654554756871],[36.890406092856914,-1.4235011193247165]]]},"id":"0018000000000003049c","properties":{"FID":128903}},{"type":"Feature","geometry":{"type":"Polygon","coordinates":[[[36.89419185293263,-1.4284418283137559],[36.89424535703084,-1.4284551584468688],[36.89425430173057,-1.4284194905970804],[36.894200797638874,-1.4284061604556764],[36.89419185293263,-1.4284418283137559]]]},"id":"0018000000000002ec3c","properties":{"FID":129159}},{"type":"Feature","geometry":{"type":"Polygon","coordinates":[[[36.92033561048821,-1.4364191500264576],[36.92039352526688,-1.436486021413566],[36.92046046353763,-1.4364280369003393],[36.92040246677963,-1.4363611671871213],[36.92033561048821,-1.4364191500264576]]]},"id":"001800000000000362c8","properties":{"FID":148360}},{"type":"Feature","geometry":{"type":"Polygon","coordinates":[[[36.890553236616995,-1.4221499901672456],[36.890655818539734,-1.4221857159474547],[36.89067814034715,-1.422132205453426],[36.89057555845558,-1.4220920204244092],[36.890553236616995,-1.4221499901672456]]]},"id":"001800000000000341bd","properties":{"FID":128904}},{"type":"Feature","geometry":{"type":"Polygon","coordinates":[[[36.89455308690023,-1.4284016515656386],[36.89459764607846,-1.4284105701933418],[36.89460659073527,-1.428374902550317],[36.89456194950137,-1.4283659854482569],[36.89455308690023,-1.4284016515656386]]]},"id":"001800000000000309bd","properties":{"FID":129160}},{"type":"Feature","geometry":{"type":"Polygon","coordinates":[[[36.917428246210285,-1.4363923702304322],[36.91747287353582,-1.4364191200826397],[36.91749961710392,-1.4363745557650967],[36.917454989794656,-1.4363433463406041],[36.917428246210285,-1.4363923702304322]]]},"id":"00180000000000031ec8","properties":{"FID":148361}},{"type":"Feature","geometry":{"type":"Polygon","coordinates":[[[36.88987102215393,-1.421895851224913],[36.889964659808285,-1.4219315061432671],[36.88997803660631,-1.421900280106551],[36.88988439896901,-1.4218646251907296],[36.88987102215393,-1.421895851224913]]]},"id":"0018000000000003336d","properties":{"FID":128905}},{"type":"Feature","geometry":{"type":"Polygon","coordinates":[[[36.89502575746823,-1.4282545553912802],[36.895061371759304,-1.4282545433238396],[36.895061371759304,-1.4282188649793657],[36.895030188740414,-1.4282143938170333],[36.89502575746823,-1.4282545553912802]]]},"id":"001800000000000335ec","properties":{"FID":129161}},{"type":"Feature","geometry":{"type":"Polygon","coordinates":[[[36.91887747191168,-1.4363879179835592],[36.91893546987611,-1.4363923558016225],[36.91893989970459,-1.436325498661457],[36.91887747191168,-1.4363210252840568],[36.91887747191168,-1.4363879179835592]]]},"id":"0018000000000002f7f1","properties":{"FID":148362}},{"type":"Feature","geometry":{"type":"Polygon","coordinates":[[[36.89115075378764,-1.4216238565802921],[36.891190883526455,-1.4216238229988114],[36.89118645202264,-1.4215435813991326],[36.891150753787635,-1.4215480510478642],[36.89115075378764,-1.4216238565802921]]]},"id":"0018000000000003085e","properties":{"FID":128906}},{"type":"Feature","geometry":{"type":"Polygon","coordinates":[[[36.895025757468225,-1.4281163019508698],[36.89505694048901,-1.4281118535837634],[36.895052509218445,-1.4280761393354033],[36.89502575746824,-1.4280761639593922],[36.895025757468225,-1.4281163019508698]]]},"id":"0018000000000002ed1b","properties":{"FID":129162}},{"type":"Feature","geometry":{"type":"Polygon","coordinates":[[[36.91779838967695,-1.436361200892176],[36.917874190103184,-1.4364414137721224],[36.91794999045106,-1.436374520091482],[36.917874190103184,-1.43629430738402],[36.91779838967695,-1.436361200892176]]]},"id":"00180000000000034488","properties":{"FID":148363}},{"type":"Feature","geometry":{"type":"Polygon","coordinates":[[[36.8915476187072,-1.4215257402792587],[36.89155656373548,-1.421588179849726],[36.89162344625182,-1.4215837242249105],[36.8916190147741,-1.4215212601513059],[36.8915476187072,-1.4215257402792587]]]},"id":"00180000000000031e45","properties":{"FID":128907}},{"type":"Feature","geometry":{"type":"Polygon","coordinates":[[[36.909138823757104,-1.4390366416329128],[36.909187804499496,-1.4390767537893774],[36.90921012067279,-1.439049986857069],[36.90915662748132,-1.4390099003403747],[36.909138823757104,-1.4390366416329128]]]},"id":"00180000000000032662","properties":{"FID":129163}},{"type":"Feature","geometry":{"type":"Polygon","coordinates":[[[36.91503818355034,-1.4362942984608464],[36.91513178910384,-1.4363477774705626],[36.915189790031015,-1.4362363226197976],[36.91509618455155,-1.436187243935219],[36.91503818355034,-1.4362942984608464]]]},"id":"00180000000000036cce","properties":{"FID":148364}},{"type":"Feature","geometry":{"type":"Polygon","coordinates":[[[36.89110176100931,-1.4213874828423823],[36.89116413036968,-1.4213964293291697],[36.891168643939764,-1.4213518135692407],[36.891106192518244,-1.4213429280421908],[36.89110176100931,-1.4213874828423823]]]},"id":"00180000000000032d2f","properties":{"FID":128908}},{"type":"Feature","geometry":{"type":"Polygon","coordinates":[[[36.90915662748133,-1.438907311258327],[36.90928149956384,-1.4389652612917272],[36.90931267652894,-1.4388939615196263],[36.909187804499496,-1.4388404124256975],[36.90915662748133,-1.438907311258327]]]},"id":"001800000000000341ae","properties":{"FID":129164}},{"type":"Feature","geometry":{"type":"Polygon","coordinates":[[[36.92081270877395,-1.4361382029402334],[36.92090638898736,-1.4361426824405148],[36.92091081869676,-1.436013336958766],[36.920817138489014,-1.4360133761421443],[36.92081270877395,-1.4361382029402334]]]},"id":"001800000000000356ea","properties":{"FID":148365}},{"type":"Feature","geometry":{"type":"Polygon","coordinates":[[[36.89021438699172,-1.4211957857941928],[36.8902901338467,-1.4212537126048033],[36.89034364078711,-1.421186840363383],[36.8902678939873,-1.4211243950495727],[36.89021438699172,-1.4211957857941928]]]},"id":"00180000000000035be5","properties":{"FID":128909}},{"type":"Feature","geometry":{"type":"Polygon","coordinates":[[[36.90920117779534,-1.4387913935397325],[36.909321619392806,-1.4388449072096583],[36.909352796340855,-1.4387780086578092],[36.90923243683928,-1.438724493467588],[36.90920117779534,-1.4387913935397325]]]},"id":"00180000000000034b0b","properties":{"FID":129165}},{"type":"Feature","geometry":{"type":"Polygon","coordinates":[[[36.92035341149445,-1.4360802559002435],[36.92040689651948,-1.4360891786319405],[36.92042477954062,-1.4360044703854071],[36.920371294528636,-1.4359910882385925],[36.92035341149445,-1.4360802559002435]]]},"id":"0018000000000002fb3f","properties":{"FID":148366}},{"type":"Feature","geometry":{"type":"Polygon","coordinates":[[[36.891057117645154,-1.4210976987292494],[36.89109724743511,-1.4211065835938934],[36.89110176100931,-1.4210619681894479],[36.89106154915679,-1.4210575439266917],[36.891057117645154,-1.4210976987292494]]]},"id":"0018000000000002f2bc","properties":{"FID":128910}},{"type":"Feature","geometry":{"type":"Polygon","coordinates":[[[36.90924137971293,-1.4385951531014425],[36.90931267652894,-1.4386174786810695],[36.90940185898492,-1.4383543633331117],[36.909330562255576,-1.4383276368851834],[36.90924137971293,-1.4385951531014425]]]},"id":"001800000000000355e8","properties":{"FID":129166}},{"type":"Feature","geometry":{"type":"Polygon","coordinates":[[[36.91800790711426,-1.4359197463272833],[36.91801241903369,-1.435977694486108],[36.918083707323895,-1.4359732607761848],[36.91807927744366,-1.435910792171896],[36.91800790711426,-1.4359197463272833]]]},"id":"00180000000000031a2e","properties":{"FID":148367}},{"type":"Feature","geometry":{"type":"Polygon","coordinates":[[[36.89000479019504,-1.4210842833375776],[36.89002711220027,-1.4211154981995742],[36.89006272891517,-1.4210931937030933],[36.89004048898693,-1.4210619773425175],[36.89000479019504,-1.4210842833375776]]]},"id":"0018000000000002ea2c","properties":{"FID":128911}},{"type":"Feature","geometry":{"type":"Polygon","coordinates":[[[36.911814256616516,-1.4366956032820146],[36.911854375060344,-1.4367936806120247],[36.911939124175284,-1.436762470809979],[36.911899005777805,-1.4366643936597834],[36.911814256616516,-1.4366956032820146]]]},"id":"001800000000000316ab","properties":{"FID":129167}},{"type":"Feature","geometry":{"type":"Polygon","coordinates":[[[36.92041583803059,-1.4359063540642365],[36.92047826451357,-1.4359286650318688],[36.920509518751174,-1.4358394840968272],[36.92044709229481,-1.4358171731272207],[36.92041583803059,-1.4359063540642365]]]},"id":"001800000000000301b2","properties":{"FID":148368}},{"type":"Feature","geometry":{"type":"Polygon","coordinates":[[[36.88984426851648,-1.4210887566923582],[36.88990672101082,-1.4211110200133026],[36.88993347462553,-1.421030792571186],[36.88987102215393,-1.4210084697926704],[36.88984426851648,-1.4210887566923582]]]},"id":"00180000000000035628","properties":{"FID":128912}},{"type":"Feature","geometry":{"type":"Polygon","coordinates":[[[36.91222897689405,-1.436218495054578],[36.91226458283825,-1.43625861783903],[36.912309213306116,-1.4362184715348285],[36.912277955573195,-1.4361783264319263],[36.91222897689405,-1.436218495054578]]]},"id":"001800000000000327ce","properties":{"FID":129168}},{"type":"Feature","geometry":{"type":"Polygon","coordinates":[[[36.92056743339244,-1.4357146026534888],[36.920625430019946,-1.4357145813827907],[36.920625430019946,-1.4356744474136232],[36.920567433392456,-1.4356700093248165],[36.92056743339244,-1.4357146026534888]]]},"id":"0018000000000003398b","properties":{"FID":148369}},{"type":"Feature","geometry":{"type":"Polygon","coordinates":[[[36.89100361122443,-1.4209683702133153],[36.89107500782008,-1.4209728087982045],[36.8910838708409,-1.4207810826347629],[36.89101255631894,-1.4207811014290421],[36.89100361122443,-1.4209683702133153]]]},"id":"0018000000000002f78d","properties":{"FID":128913}},{"type":"Feature","geometry":{"type":"Polygon","coordinates":[[[36.90350696900225,-1.4312376492283712],[36.90355595350401,-1.4312466015899292],[36.903569327826276,-1.4311975319232721],[36.90351583052258,-1.4311886046957305],[36.90350696900225,-1.4312376492283712]]]},"id":"001800000000000316c4","properties":{"FID":129169}},{"type":"Feature","geometry":{"type":"Polygon","coordinates":[[[36.91878378910561,-1.435286532425851],[36.91883284544106,-1.4352909607618538],[36.91882398577086,-1.4353712774314369],[36.918913156661844,-1.4353801833258821],[36.918930958013476,-1.4352419645233871],[36.91879273081469,-1.4352241113196198],[36.91878378910561,-1.435286532425851]]]},"id":"001800000000000356b8","properties":{"FID":148370}},{"type":"Feature","geometry":{"type":"Polygon","coordinates":[[[36.9136870835988,-1.4301541060071583],[36.91374057348655,-1.4301764091578655],[36.9137673184158,-1.4301228755670004],[36.91371382854756,-1.430096113432519],[36.9136870835988,-1.4301541060071583]]]},"id":"0018000000000002f15e","properties":{"FID":129170}},{"type":"Feature","geometry":{"type":"Polygon","coordinates":[[[36.91894884139463,-1.4345463309195619],[36.91897558442438,-1.434555222251992],[36.918957701049735,-1.434604313310816],[36.9190156989507,-1.4346221300296218],[36.91905138363358,-1.4345284682810258],[36.91896221291073,-1.4344972653316284],[36.91894884139463,-1.4345463309195619]]]},"id":"00180000000000034e76","properties":{"FID":148371}},{"type":"Feature","geometry":{"type":"Polygon","coordinates":[[[36.91318319381512,-1.4283972255072792],[36.91323668407037,-1.4284284464574426],[36.91325005662809,-1.4284016811366198],[36.913200996557784,-1.4283704367205705],[36.91318319381512,-1.4283972255072792]]]},"id":"001800000000000324bb","properties":{"FID":129171}},{"type":"Feature","geometry":{"type":"Polygon","coordinates":[[[36.922730094124304,-1.4338863978930976],[36.92279251863644,-1.4339086489360755],[36.922814830669935,-1.433846220078677],[36.9227524061768,-1.43382396903433],[36.922730094124304,-1.4338863978930976]]]},"id":"0018000000000002f096","properties":{"FID":148372}},{"type":"Feature","geometry":{"type":"Polygon","coordinates":[[[36.89083866020361,-1.4207587714146244],[36.890923351520264,-1.4207588010562782],[36.890927783039956,-1.4206160886299994],[36.890905543373606,-1.420616086164703],[36.89090997489438,-1.4205447186703428],[36.890847523252944,-1.4205402917103132],[36.89083866020361,-1.4207587714146244]]]},"id":"0018000000000002f804","properties":{"FID":128916}},{"type":"Feature","geometry":{"type":"Polygon","coordinates":[[[36.91326342918337,-1.428299116453648],[36.913281313946726,-1.428343726234092],[36.91332143158816,-1.4283303123346243],[36.91330354683456,-1.4282857620418938],[36.91326342918337,-1.428299116453648]]]},"id":"00180000000000033596","properties":{"FID":129172}},{"type":"Feature","geometry":{"type":"Polygon","coordinates":[[[36.920670055399405,-1.433725829704598],[36.920674485123094,-1.4337704561077393],[36.92071016899857,-1.4337659803571976],[36.92070565724516,-1.433721355521432],[36.920670055399405,-1.433725829704598]]]},"id":"00180000000000031f66","properties":{"FID":148373}},{"type":"Feature","geometry":{"type":"Polygon","coordinates":[[[36.92254282026892,-1.4333512766097523],[36.92261418618351,-1.4333557619142154],[36.922618615789716,-1.43331560791845],[36.92254733190926,-1.433306662129353],[36.92254282026892,-1.4333512766097523]]]},"id":"00180000000000031f4a","properties":{"FID":148374}},{"type":"Feature","geometry":{"type":"Polygon","coordinates":[[[36.89180628550719,-1.4203173450115552],[36.891886544246645,-1.4203262564714574],[36.89189097570823,-1.4202771851519032],[36.891810716973616,-1.4202727325974196],[36.89180628550719,-1.4203173450115552]]]},"id":"0018000000000002fee8","properties":{"FID":128918}},{"type":"Feature","geometry":{"type":"Polygon","coordinates":[[[36.92054963243816,-1.4325754105867172],[36.92057637488398,-1.4325932197239377],[36.9206210002933,-1.4325307890849466],[36.920589746103225,-1.4325084868695317],[36.92054963243816,-1.4325754105867172]]]},"id":"00180000000000033203","properties":{"FID":148375}},{"type":"Feature","geometry":{"type":"Polygon","coordinates":[[[36.89070038008234,-1.419920493135736],[36.89070489368091,-1.4199650582732337],[36.8907450236633,-1.4199650849926522],[36.89074051006719,-1.4199160014694223],[36.89070038008234,-1.419920493135736]]]},"id":"0018000000000002fc77","properties":{"FID":128919}},{"type":"Feature","geometry":{"type":"Polygon","coordinates":[[[36.9165631762342,-1.4322677346167407],[36.91663003596563,-1.4322677280520377],[36.916630035965625,-1.4322097596818706],[36.9165631762342,-1.4322097661979227],[36.9165631762342,-1.4322677346167407]]]},"id":"00180000000000031994","properties":{"FID":148376}},{"type":"Feature","geometry":{"type":"Polygon","coordinates":[[[36.89047740796762,-1.4197242830335663],[36.89048635312623,-1.4197911793302398],[36.89056661330785,-1.4197777966581346],[36.89055775022461,-1.419710898928205],[36.89047740796762,-1.4197242830335663]]]},"id":"0018000000000002eaf2","properties":{"FID":128920}},{"type":"Feature","geometry":{"type":"Polygon","coordinates":[[[36.89853507716283,-1.441136890427205],[36.89891409597392,-1.44127957480971],[36.89901215313081,-1.4410120118595253],[36.89899877797821,-1.4410120263808226],[36.8989898338564,-1.4409718657050898],[36.89893190217867,-1.4409495822960319],[36.89892295804871,-1.4409361889841714],[36.898905151841795,-1.4409496113161195],[36.8988694573587,-1.4409361875315458],[36.898815956629704,-1.4409451085376335],[36.89880701248561,-1.4409495601300941],[36.89877140001122,-1.4409585004294196],[36.8987357054631,-1.440918368700915],[36.89873127441453,-1.4409406395316924],[36.89870001089763,-1.4409451554781096],[36.89870001089763,-1.4409228492984272],[36.898686635688165,-1.440954032979674],[36.89863756588042,-1.4409629893514309],[36.898642078991195,-1.4409897311225706],[36.89857520286675,-1.4409986072277992],[36.89863313482594,-1.441016488979096],[36.898655454208786,-1.4410477128504573],[36.898686635688165,-1.4410209516339447],[36.8986420789912,-1.441136893085122],[36.89861975960429,-1.4411101304153453],[36.89855731451883,-1.4411190419809676],[36.89853507716283,-1.441136890427205]]]},"id":"001800000000000370bf","properties":{"FID":129176}},{"type":"Feature","geometry":{"type":"Polygon","coordinates":[[[36.917058182911056,-1.4319912548500386],[36.91708935657071,-1.4320046414344012],[36.91710715836514,-1.4319644731660743],[36.91707598471306,-1.4319511460388996],[36.917058182911056,-1.4319912548500386]]]},"id":"00180000000000031e85","properties":{"FID":148377}},{"type":"Feature","geometry":{"type":"Polygon","coordinates":[[[36.89168589723358,-1.4196484882651128],[36.89169032870727,-1.4197064306591751],[36.89173488962231,-1.4196975168045267],[36.89172602668004,-1.4196439968008439],[36.89168589723358,-1.4196484882651128]]]},"id":"0018000000000003342a","properties":{"FID":128921}},{"type":"Feature","geometry":{"type":"Polygon","coordinates":[[[36.898240739273724,-1.4408826813802817],[36.898298671496825,-1.4408782569804124],[36.898298671496825,-1.4408381057433877],[36.898240739273724,-1.44084258959226],[36.898240739273724,-1.4408826813802817]]]},"id":"001800000000000320ca","properties":{"FID":129177}},{"type":"Feature","geometry":{"type":"Polygon","coordinates":[[[36.91693775401719,-1.4315854842204887],[36.917031357145966,-1.4316122060259457],[36.917049240990444,-1.4315408832349548],[36.916960067832626,-1.4315185967367248],[36.91693775401719,-1.4315854842204887]]]},"id":"00180000000000033dac","properties":{"FID":148378}},{"type":"Feature","geometry":{"type":"Polygon","coordinates":[[[36.89013855799258,-1.4184445220892736],[36.89024114049438,-1.418444519191605],[36.89024114049438,-1.418382096157678],[36.89013855799258,-1.4183865577651353],[36.89013855799258,-1.4184445220892736]]]},"id":"0018000000000002ef4a","properties":{"FID":128922}},{"type":"Feature","geometry":{"type":"Polygon","coordinates":[[[36.89900772209893,-1.440111295954518],[36.8990300413679,-1.4401202135385964],[36.899025528280966,-1.4401558686230642],[36.89905679165927,-1.4401647959290134],[36.8990434165148,-1.4402093620257344],[36.89903890342869,-1.4402450766833692],[36.899105779130764,-1.4402673698272899],[36.89908797296819,-1.4403252840813976],[36.89903447239843,-1.4403030360222828],[36.8990210972499,-1.4403297577702492],[36.899177167849814,-1.440387722709527],[36.89920391808757,-1.4403877533554637],[36.899217293202796,-1.440392200073819],[36.89919054296991,-1.4403922289114572],[36.899284168742376,-1.4404278765422225],[36.89943129471503,-1.4400176532830062],[36.89908354194088,-1.4398882981280183],[36.89905227857398,-1.4399730535864506],[36.899128098369935,-1.439999817612116],[36.89904784754453,-1.439995323665523],[36.89903890342869,-1.4399908528264502],[36.899012153130805,-1.4400577385530202],[36.899012153130805,-1.4401023496308283],[36.89900772209893,-1.440111295954518]]]},"id":"0018000000000003709a","properties":{"FID":129178}},{"type":"Feature","geometry":{"type":"Polygon","coordinates":[[[36.918935469876104,-1.4303904318895166],[36.918980014250444,-1.4304171814221565],[36.91899338576085,-1.4303904160977745],[36.91894884139463,-1.4303681253086238],[36.918935469876104,-1.4303904318895166]]]},"id":"0018000000000002fec2","properties":{"FID":148379}},{"type":"Feature","geometry":{"type":"Polygon","coordinates":[[[36.89081190691856,-1.4179628979063734],[36.89082076997113,-1.418007498690023],[36.890860899890214,-1.4180030676896167],[36.89085203684248,-1.4179540082392572],[36.89081190691856,-1.4179628979063734]]]},"id":"001800000000000316aa","properties":{"FID":128923}},{"type":"Feature","geometry":{"type":"Polygon","coordinates":[[[36.899663183686265,-1.4397857659141056],[36.899770183870466,-1.4398036144178608],[36.89975680885597,-1.4398838679010246],[36.89980144693167,-1.4398883197669154],[36.8998192529212,-1.439772413510708],[36.89966761467858,-1.4397501130646642],[36.899663183686265,-1.4397857659141056]]]},"id":"00180000000000032b5d","properties":{"FID":129179}},{"type":"Feature","geometry":{"type":"Polygon","coordinates":[[[36.9187837891056,-1.4303681284895193],[36.918819473901365,-1.4303725721246348],[36.91882841560609,-1.4303324541858484],[36.91879273081469,-1.430323551802381],[36.9187837891056,-1.4303681284895193]]]},"id":"0018000000000002fa6b","properties":{"FID":148380}},{"type":"Feature","geometry":{"type":"Polygon","coordinates":[[[36.89045065455102,-1.417904924390081],[36.89048635312623,-1.4179049749811317],[36.89048635312623,-1.417869305332023],[36.89045065455101,-1.4178692547250527],[36.89045065455102,-1.417904924390081]]]},"id":"0018000000000002f254","properties":{"FID":128924}},{"type":"Feature","geometry":{"type":"Polygon","coordinates":[[[36.89658193816769,-1.4390767915321212],[36.89663995375839,-1.4390946131764146],[36.896653329340694,-1.4390544490136346],[36.89659088258282,-1.4390366513987636],[36.89658193816769,-1.4390767915321212]]]},"id":"0018000000000002fb42","properties":{"FID":129180}},{"type":"Feature","geometry":{"type":"Polygon","coordinates":[[[36.91899338576086,-1.4303101589896765],[36.91905581345507,-1.4303458473379593],[36.9190870682991,-1.430287892498289],[36.91902464063149,-1.4302522041800483],[36.91899338576086,-1.4303101589896765]]]},"id":"001800000000000320db","properties":{"FID":148381}},{"type":"Feature","geometry":{"type":"Polygon","coordinates":[[[36.89069151701525,-1.4178113380117798],[36.89069594854893,-1.4179183237834627],[36.89083414661326,-1.4179138554862247],[36.89082971508792,-1.417802411237837],[36.89069151701525,-1.4178113380117798]]]},"id":"001800000000000351f4","properties":{"FID":128925}},{"type":"Feature","geometry":{"type":"Polygon","coordinates":[[[36.91878378910561,-1.4302744950293258],[36.91883735730972,-1.4302745013896825],[36.918841787144146,-1.4302432667157476],[36.9187883009773,-1.4302388000710944],[36.91878378910561,-1.4302744950293258]]]},"id":"0018000000000002feba","properties":{"FID":148382}},{"type":"Feature","geometry":{"type":"Polygon","coordinates":[[[36.89045959971286,-1.4177979277849913],[36.890508674985135,-1.4178023671230024],[36.89052205168409,-1.417673054719515],[36.89047297642076,-1.417668615319788],[36.89045959971286,-1.4177979277849913]]]},"id":"0018000000000003086f","properties":{"FID":128926}},{"type":"Feature","geometry":{"type":"Polygon","coordinates":[[[36.91907812662592,-1.4301006162529994],[36.91915835554441,-1.4301273506646477],[36.91918066868405,-1.4300560095774522],[36.91910043978998,-1.4300337338390048],[36.91907812662592,-1.4301006162529994]]]},"id":"00180000000000033c52","properties":{"FID":148383}},{"type":"Feature","geometry":{"type":"Polygon","coordinates":[[[36.890281270730114,-1.4175615987226309],[36.890330264055656,-1.4175704983880424],[36.89033920923218,-1.417530382657054],[36.8902901338467,-1.417521484501933],[36.890281270730114,-1.4175615987226309]]]},"id":"00180000000000030252","properties":{"FID":128927}},{"type":"Feature","geometry":{"type":"Polygon","coordinates":[[[36.914083908723775,-1.4286246453009797],[36.91413739832211,-1.4286246544730157],[36.9141419104797,-1.428557747868779],[36.914088420884646,-1.428557738652006],[36.914083908723775,-1.4286246453009797]]]},"id":"00180000000000033993","properties":{"FID":148384}},{"type":"Feature","geometry":{"type":"Polygon","coordinates":[[[36.890187633479314,-1.417530402043827],[36.89022325011639,-1.417534853557466],[36.89022776374427,-1.4174947011757173],[36.890192065043394,-1.4174902511729282],[36.890187633479314,-1.417530402043827]]]},"id":"00180000000000030408","properties":{"FID":128928}},{"type":"Feature","geometry":{"type":"Polygon","coordinates":[[[36.918841787144146,-1.428593400510975],[36.91889527327197,-1.428633536111507],[36.91894884139463,-1.4285532905195593],[36.91889527327197,-1.428513156523793],[36.918841787144146,-1.428593400510975]]]},"id":"0018000000000002f7ee","properties":{"FID":148385}},{"type":"Feature","geometry":{"type":"Polygon","coordinates":[[[36.93101962041428,-1.4374804152507867],[36.93103741882547,-1.4375339442453419],[36.931064157444276,-1.4375294568305401],[36.93104192994282,-1.4374714929202486],[36.93101962041428,-1.4374804152507867]]]},"id":"0018000000000002fda7","properties":{"FID":148386}},{"type":"Feature","geometry":{"type":"Polygon","coordinates":[[[36.93188468381136,-1.4370345079228741],[36.931893541902724,-1.4370701903465721],[36.93193373137785,-1.4370612286165105],[36.93192922031541,-1.4370255832021173],[36.93188468381136,-1.4370345079228741]]]},"id":"0018000000000002fc9d","properties":{"FID":148387}},{"type":"Feature","geometry":{"type":"Polygon","coordinates":[[[36.8902678939873,-1.4174456838426372],[36.890406092856914,-1.4174902616562401],[36.89042841474021,-1.4174233836743222],[36.89028570228854,-1.4173787707198906],[36.8902678939873,-1.4174456838426372]]]},"id":"0018000000000002e949","properties":{"FID":128931}},{"type":"Feature","geometry":{"type":"Polygon","coordinates":[[[36.931327278056074,-1.4368828868743282],[36.931336218234826,-1.436954238996246],[36.931403064490894,-1.4369453100656915],[36.93139863541569,-1.4368739919232538],[36.931327278056074,-1.4368828868743282]]]},"id":"00180000000000034972","properties":{"FID":148388}},{"type":"Feature","geometry":{"type":"Polygon","coordinates":[[[36.93149673116672,-1.4368472332855469],[36.931505671324786,-1.4369052085484815],[36.931559148210816,-1.4368962937959668],[36.93155020805928,-1.4368383185863056],[36.93149673116672,-1.4368472332855469]]]},"id":"0018000000000002f0df","properties":{"FID":148389}},{"type":"Feature","geometry":{"type":"Polygon","coordinates":[[[36.93246882343117,-1.4367491334327809],[36.93247325244167,-1.4368382856173338],[36.93290130684038,-1.4368160110323556],[36.93289687785576,-1.4367223411577792],[36.93246882343117,-1.4367491334327809]]]},"id":"00180000000000036e9c","properties":{"FID":148390}},{"type":"Feature","geometry":{"type":"Polygon","coordinates":[[[36.89351853499075,-1.4091517166785612],[36.8936166814151,-1.4091829496517974],[36.89364343367858,-1.409102698304076],[36.89354528728998,-1.4090714653172132],[36.89351853499075,-1.4091517166785612]]]},"id":"001800000000000334dd","properties":{"FID":128934}},{"type":"Feature","geometry":{"type":"Polygon","coordinates":[[[36.931251491542845,-1.4366376500339455],[36.931327278056074,-1.4367089908004143],[36.93138526616855,-1.4366465444223093],[36.931304968614434,-1.43657522931349],[36.931251491542845,-1.4366376500339455]]]},"id":"00180000000000033b1d","properties":{"FID":148391}},{"type":"Feature","geometry":{"type":"Polygon","coordinates":[[[36.899471419929114,-1.4276168701280947],[36.899573989395115,-1.4276213142585406],[36.89957850244833,-1.4275143218965303],[36.8994893080543,-1.4275143248388906],[36.8994893080543,-1.427550000470816],[36.89947141992911,-1.427549978203484],[36.899471419929114,-1.4276168701280947]]]},"id":"00180000000000035189","properties":{"FID":128935}},{"type":"Feature","geometry":{"type":"Polygon","coordinates":[[[36.93249999053637,-1.4362229466333056],[36.932508930572,-1.4363210488680125],[36.9328611999144,-1.4362898012192635],[36.93285225992178,-1.4361916995061792],[36.93249999053637,-1.4362229466333056]]]},"id":"00180000000000035d59","properties":{"FID":148392}},{"type":"Feature","geometry":{"type":"Polygon","coordinates":[[[36.89953386423708,-1.4273181089313556],[36.89956955839715,-1.4273270144878216],[36.899582933445764,-1.4272780081127674],[36.8995472392922,-1.427269043089971],[36.89953386423708,-1.4273181089313556]]]},"id":"0018000000000002fbdc","properties":{"FID":128936}},{"type":"Feature","geometry":{"type":"Polygon","coordinates":[[[36.89957850244833,-1.4272556749616396],[36.899582933445764,-1.4273404399904588],[36.899618627581965,-1.4273359672695527],[36.899614114531225,-1.42725566323446],[36.89957850244833,-1.4272556749616396]]]},"id":"0018000000000003260a","properties":{"FID":128937}},{"type":"Feature","geometry":{"type":"Polygon","coordinates":[[[36.932928126797016,-1.4360936059607974],[36.93298603162406,-1.436093644935546],[36.932990542621425,-1.4360311978293776],[36.93293255577975,-1.436031219803233],[36.932928126797016,-1.4360936059607974]]]},"id":"00180000000000032d52","properties":{"FID":148394}},{"type":"Feature","geometry":{"type":"Polygon","coordinates":[[[36.89283183460016,-1.4270595012850413],[36.89292546848031,-1.4270594758920654],[36.89292998194215,-1.426943556917663],[36.892836348067775,-1.4269390629619043],[36.89283183460016,-1.4270595012850413]]]},"id":"00180000000000031259","properties":{"FID":128938}},{"type":"Feature","geometry":{"type":"Polygon","coordinates":[[[36.929436610787604,-1.4341360922521715],[36.92945892079822,-1.4341851338401874],[36.92948565999317,-1.434171730651365],[36.92946786120497,-1.4341227231569555],[36.929436610787604,-1.4341360922521715]]]},"id":"0018000000000002f4db","properties":{"FID":148395}},{"type":"Feature","geometry":{"type":"Polygon","coordinates":[[[36.892635621586,-1.426796415044453],[36.892738200600654,-1.42683207913923],[36.892764953184134,-1.4267651589487855],[36.892662374206836,-1.4267250351196705],[36.892635621586,-1.426796415044453]]]},"id":"00180000000000030168","properties":{"FID":128939}},{"type":"Feature","geometry":{"type":"Polygon","coordinates":[[[36.93196489871073,-1.430849695808909],[36.932031826412306,-1.4308586637839378],[36.93204076650507,-1.4308140343001334],[36.931969409770964,-1.4308006913452012],[36.93196489871073,-1.430849695808909]]]},"id":"00180000000000031fa0","properties":{"FID":148396}},{"type":"Feature","geometry":{"type":"Polygon","coordinates":[[[36.894227549689596,-1.4268231591411065],[36.894276622444416,-1.4268231341040722],[36.89427210906532,-1.426796401065913],[36.894307805783285,-1.4267963881345056],[36.89430337446752,-1.426711678254669],[36.894227549689596,-1.426711667913379],[36.894227549689596,-1.4268231591411065]]]},"id":"001800000000000341b7","properties":{"FID":128940}},{"type":"Feature","geometry":{"type":"Polygon","coordinates":[[[36.899863890958905,-1.4260116009928532],[36.89992625287793,-1.4260205437231421],[36.89993076590949,-1.4259893042613148],[36.89986832193912,-1.425980363048085],[36.899863890958905,-1.4260116009928532]]]},"id":"0018000000000002eda7","properties":{"FID":128941}},{"type":"Feature","geometry":{"type":"Polygon","coordinates":[[[36.899939627861556,-1.426016072481916],[36.90000207177128,-1.426020494979625],[36.90000658479817,-1.425940263564565],[36.899944140892295,-1.42593578155848],[36.899939627861556,-1.426016072481916]]]},"id":"0018000000000002fc90","properties":{"FID":128942}},{"type":"Feature","geometry":{"type":"Polygon","coordinates":[[[36.90007345961876,-1.4259045893396107],[36.900135821359754,-1.425904554223011],[36.90014033437843,-1.4258377008100425],[36.90007345961877,-1.4258377012519048],[36.90007345961876,-1.4259045893396107]]]},"id":"0018000000000002f0b7","properties":{"FID":128943}},{"type":"Feature","geometry":{"type":"Polygon","coordinates":[[[36.900082321553604,-1.4257217750752038],[36.90010464049589,-1.4257306928203375],[36.900118015447006,-1.4256905482159539],[36.900091265542315,-1.4256861129444425],[36.900082321553604,-1.4257217750752038]]]},"id":"00180000000000032138","properties":{"FID":128944}},{"type":"Feature","geometry":{"type":"Polygon","coordinates":[[[36.89905679165927,-1.4249860147626734],[36.89913252939454,-1.4249860280343007],[36.899132529394535,-1.42491914094453],[36.89906122268818,-1.4249146452241244],[36.89905679165927,-1.4249860147626734]]]},"id":"0018000000000002f105","properties":{"FID":128945}},{"type":"Feature","geometry":{"type":"Polygon","coordinates":[[[36.89997532182435,-1.4239871699359001],[36.90004670969784,-1.4240094411454443],[36.90006894659597,-1.4239425581269427],[36.89999320982675,-1.4239203085704604],[36.89997532182435,-1.4239871699359001]]]},"id":"00180000000000032564","properties":{"FID":128946}},{"type":"Feature","geometry":{"type":"Polygon","coordinates":[[[36.899640864609765,-1.4238979862505639],[36.89971668379786,-1.4239069169366698],[36.8997211968423,-1.4238578435718783],[36.89964537765888,-1.423848912852579],[36.899640864609765,-1.4238979862505639]]]},"id":"00180000000000033a64","properties":{"FID":128947}},{"type":"Feature","geometry":{"type":"Polygon","coordinates":[[[36.900198265102595,-1.4234074544882864],[36.90029640259898,-1.4234208443156875],[36.9003053465616,-1.4233539728465636],[36.90020720907718,-1.4233405829649635],[36.900198265102595,-1.4234074544882864]]]},"id":"001800000000000325b6","properties":{"FID":128948}},{"type":"Feature","geometry":{"type":"Polygon","coordinates":[[[36.901130237806214,-1.4233316966308418],[36.901188167749204,-1.423331686649627],[36.901188167749204,-1.4232826397302352],[36.901130237806214,-1.423278190865162],[36.901130237806214,-1.4233316966308418]]]},"id":"0018000000000002fadd","properties":{"FID":128949}},{"type":"Feature","geometry":{"type":"Polygon","coordinates":[[[36.90786793845723,-1.4447041698817795],[36.907917002094244,-1.4447130558051962],[36.907921432588275,-1.4446863236555527],[36.907876881497195,-1.4446729505811564],[36.90786793845723,-1.4447041698817795]]]},"id":"00180000000000032d56","properties":{"FID":129205}},{"type":"Feature","geometry":{"type":"Polygon","coordinates":[[[36.8991504176023,-1.42321575737984],[36.899226237296894,-1.4232291475271814],[36.899235099334014,-1.423171135442436],[36.899159279648565,-1.4231622041697012],[36.8991504176023,-1.42321575737984]]]},"id":"00180000000000032da2","properties":{"FID":128950}},{"type":"Feature","geometry":{"type":"Polygon","coordinates":[[[36.91286659961919,-1.4441958106255677],[36.912960207944316,-1.4442002841967259],[36.91296472017432,-1.4441289440485585],[36.912866599619186,-1.444124496319778],[36.91286659961919,-1.4441958106255677]]]},"id":"001800000000000305d0","properties":{"FID":129206}},{"type":"Feature","geometry":{"type":"Polygon","coordinates":[[[36.9166880357078,-1.428027123433665],[36.916737093445434,-1.428044931152299],[36.916763837281884,-1.4279780873649108],[36.91671929156116,-1.4279602546470906],[36.9166880357078,-1.428027123433665]]]},"id":"0018000000000002f7b1","properties":{"FID":147895}},{"type":"Feature","geometry":{"type":"Polygon","coordinates":[[[36.899177167849814,-1.4230819672344353],[36.899226237296894,-1.4230864032360704],[36.89923066831558,-1.4230195562333614],[36.899186111948794,-1.4230150955303378],[36.899177167849814,-1.4230819672344353]]]},"id":"00180000000000030416","properties":{"FID":128951}},{"type":"Feature","geometry":{"type":"Polygon","coordinates":[[[36.90963371645424,-1.4439773166469254],[36.909691721729175,-1.4440040558792815],[36.909709525319215,-1.4439639267553597],[36.909651602102606,-1.4439371859793295],[36.90963371645424,-1.4439773166469254]]]},"id":"0018000000000002ec97","properties":{"FID":129207}},{"type":"Feature","geometry":{"type":"Polygon","coordinates":[[[36.91572935232791,-1.427179869203122],[36.91575609653189,-1.4272066549677997],[36.91579621281958,-1.4271709499545606],[36.915769468630224,-1.427144223666489],[36.91572935232791,-1.427179869203122]]]},"id":"00180000000000030296","properties":{"FID":147896}},{"type":"Feature","geometry":{"type":"Polygon","coordinates":[[[36.902570513605944,-1.4218111398207367],[36.90260620628947,-1.4218200460056385],[36.90261958078479,-1.4217531566776018],[36.90258388810778,-1.4217442504818887],[36.902570513605944,-1.4218111398207367]]]},"id":"0018000000000002fa04","properties":{"FID":128952}},{"type":"Feature","geometry":{"type":"Polygon","coordinates":[[[36.91034273959684,-1.4432460481808753],[36.91037842850007,-1.443268331918881],[36.91040517465524,-1.4432103699586751],[36.91053004461258,-1.4432638586104414],[36.91054784799917,-1.4432281917969325],[36.910387371234016,-1.443152358422613],[36.91034273959684,-1.4432460481808753]]]},"id":"00180000000000032346","properties":{"FID":129208}},{"type":"Feature","geometry":{"type":"Polygon","coordinates":[[[36.91535919841706,-1.4265734247972663],[36.91541719916439,-1.4266180542436544],[36.91547068779029,-1.4265511287152404],[36.91541276912307,-1.4265020988212296],[36.91535919841706,-1.4265734247972663]]]},"id":"0018000000000002f798","properties":{"FID":147897}},{"type":"Feature","geometry":{"type":"Polygon","coordinates":[[[36.90215138994551,-1.4217040939395529],[36.90220045740454,-1.4217175068921861],[36.90222720654064,-1.4216104793334392],[36.90217813909949,-1.4215970663620552],[36.90215138994551,-1.4217040939395529]]]},"id":"00180000000000032e1a","properties":{"FID":128953}},{"type":"Feature","geometry":{"type":"Polygon","coordinates":[[[36.90800618624674,-1.4431568215080504],[36.908090857761295,-1.4431835924090235],[36.90812654775997,-1.4430810284388258],[36.90804187628659,-1.4430497965348636],[36.90800618624674,-1.4431568215080504]]]},"id":"00180000000000034bc1","properties":{"FID":129209}},{"type":"Feature","geometry":{"type":"Polygon","coordinates":[[[36.9025125847539,-1.421588162892186],[36.90257502647493,-1.4216015645099023],[36.90259726260717,-1.4215078784852566],[36.90253933377625,-1.4214945116910291],[36.9025125847539,-1.421588162892186]]]},"id":"001800000000000352d7","properties":{"FID":128954}},{"type":"Feature","geometry":{"type":"Polygon","coordinates":[[[36.908282598998504,-1.4428982116390914],[36.90828711151624,-1.4429338734573285],[36.908345035810136,-1.4429339084287802],[36.90834060534168,-1.4428937841345366],[36.908282598998504,-1.4428982116390914]]]},"id":"0018000000000002f0ce","properties":{"FID":129210}},{"type":"Feature","geometry":{"type":"Polygon","coordinates":[[[36.898655454208786,-1.4212269609418835],[36.89865988526192,-1.4212894189632428],[36.898717899210766,-1.42128940903306],[36.89871338610465,-1.421222553354839],[36.898655454208786,-1.4212269609418835]]]},"id":"00180000000000032946","properties":{"FID":128955}},{"type":"Feature","geometry":{"type":"Polygon","coordinates":[[[36.91223783736105,-1.4428536449479716],[36.912318155804684,-1.4428937597215243],[36.91236713442428,-1.442800110121677],[36.91228689807558,-1.442759993839053],[36.91223783736105,-1.4428536449479716]]]},"id":"00180000000000035e4e","properties":{"FID":129211}},{"type":"Feature","geometry":{"type":"Polygon","coordinates":[[[36.902231637378186,-1.4212760085201392],[36.90230745389043,-1.4212804821139187],[36.90231188472314,-1.4212091233771607],[36.90223606821547,-1.4212047091716538],[36.902231637378186,-1.4212760085201392]]]},"id":"0018000000000002ea57","properties":{"FID":128956}},{"type":"Feature","geometry":{"type":"Polygon","coordinates":[[[36.90635630290207,-1.442015304736381],[36.90639642433055,-1.4420242418450169],[36.90640536754987,-1.4419885637663716],[36.906360733490345,-1.4419796524261594],[36.90635630290207,-1.442015304736381]]]},"id":"0018000000000002fb33","properties":{"FID":129212}},{"type":"Feature","geometry":{"type":"Polygon","coordinates":[[[36.893554232074976,-1.4208613379713142],[36.89355866343595,-1.4209014452732802],[36.893612167995435,-1.4209014603525532],[36.893612167995435,-1.4208568711566567],[36.893554232074976,-1.4208613379713142]]]},"id":"0018000000000002ed20","properties":{"FID":128957}},{"type":"Feature","geometry":{"type":"Polygon","coordinates":[[[36.9067353633755,-1.4420019573023901],[36.90676211085876,-1.4420197714897791],[36.90679328889442,-1.4419617852606301],[36.90676654142252,-1.4419439710913236],[36.9067353633755,-1.4420019573023901]]]},"id":"001800000000000318cb","properties":{"FID":129213}},{"type":"Feature","geometry":{"type":"Polygon","coordinates":[[[36.898048971801195,-1.4207454174898855],[36.89812036154782,-1.4207498555231963],[36.89812036154782,-1.4207052690456345],[36.89805348494815,-1.420700806444594],[36.898048971801195,-1.4207454174898855]]]},"id":"0018000000000002f557","properties":{"FID":128958}},{"type":"Feature","geometry":{"type":"Polygon","coordinates":[[[36.90633849849836,-1.4418325047833032],[36.90639642433055,-1.4418458639189926],[36.90641874135286,-1.4417477780129129],[36.90636524612627,-1.4417343946366625],[36.90633849849836,-1.4418325047833032]]]},"id":"00180000000000032c05","properties":{"FID":129214}},{"type":"Feature","geometry":{"type":"Polygon","coordinates":[[[36.897687837088164,-1.4198669535558621],[36.897754714020884,-1.4198758753421359],[36.89775914512839,-1.4198446424948046],[36.897692268199705,-1.419835720691126],[36.897687837088164,-1.4198669535558621]]]},"id":"0018000000000002ede3","properties":{"FID":128959}},{"type":"Feature","geometry":{"type":"Polygon","coordinates":[[[36.908153294736096,-1.441618480694436],[36.90821130118149,-1.4416452203641232],[36.90825142159568,-1.4415470983934835],[36.90819349722788,-1.441524817975107],[36.908153294736096,-1.441618480694436]]]},"id":"0018000000000003439d","properties":{"FID":129215}},{"type":"Feature","geometry":{"type":"Polygon","coordinates":[[[36.89292998194215,-1.419403193882308],[36.89297454210513,-1.419407656668498],[36.89297897350108,-1.41938094062418],[36.89293441334079,-1.4193720190646915],[36.89292998194215,-1.419403193882308]]]},"id":"00180000000000033a78","properties":{"FID":128960}},{"type":"Feature","geometry":{"type":"Polygon","coordinates":[[[36.91316087885048,-1.4415159173490146],[36.91323225389734,-1.4415961664690633],[36.91329017428661,-1.4415471366926627],[36.91326342918337,-1.4415203436975343],[36.913281313946726,-1.441502520691582],[36.91323668407037,-1.4414490052551971],[36.91316087885048,-1.4415159173490146]]]},"id":"00180000000000032060","properties":{"FID":129216}},{"type":"Feature","geometry":{"type":"Polygon","coordinates":[[[36.893121680720164,-1.4191133797156348],[36.893206451467165,-1.419144561007561],[36.89322869043686,-1.4190732244685125],[36.89314843316395,-1.4190420187499644],[36.893121680720164,-1.4191133797156348]]]},"id":"0018000000000002f5c7","properties":{"FID":128961}},{"type":"Feature","geometry":{"type":"Polygon","coordinates":[[[36.91246976790802,-1.441315224566207],[36.912527688899424,-1.4413152605487471],[36.91253220115603,-1.4412572481940709],[36.91247419812712,-1.4412572731925746],[36.91246976790802,-1.441315224566207]]]},"id":"0018000000000002f593","properties":{"FID":129217}},{"type":"Feature","geometry":{"type":"Polygon","coordinates":[[[36.89377719484986,-1.4188948503171028],[36.893826267905595,-1.4189127242335562],[36.89383513059444,-1.418881467894276],[36.8937861396066,-1.4188681105495318],[36.89377719484986,-1.4188948503171028]]]},"id":"00180000000000032d34","properties":{"FID":128962}},{"type":"Feature","geometry":{"type":"Polygon","coordinates":[[[36.9125187464264,-1.441154732441687],[36.91256337673961,-1.441168103649137],[36.9125500040567,-1.4412082032877114],[36.91260349477372,-1.4412260460495003],[36.91263024011759,-1.4411368663976851],[36.912536631371346,-1.4411056266737172],[36.9125187464264,-1.441154732441687]]]},"id":"001800000000000311a5","properties":{"FID":129218}},{"type":"Feature","geometry":{"type":"Polygon","coordinates":[[[36.89396446008037,-1.418819081208321],[36.8940357717363,-1.4188324399210064],[36.89404471646156,-1.4188012416681894],[36.893968891416584,-1.4187878479063227],[36.89396446008037,-1.418819081208321]]]},"id":"00180000000000031191","properties":{"FID":128963}},{"type":"Feature","geometry":{"type":"Polygon","coordinates":[[[36.908969318959045,-1.4411368918801788],[36.90900057810179,-1.4411546796354457],[36.90902732475929,-1.4411101030072073],[36.90899606562794,-1.441092255788291],[36.908969318959045,-1.4411368918801788]]]},"id":"00180000000000031b2f","properties":{"FID":129219}},{"type":"Feature","geometry":{"type":"Polygon","coordinates":[[[36.89350515883747,-1.4187833855474241],[36.89353642456616,-1.4187833991112433],[36.89353642456616,-1.4187254366858881],[36.89350515883747,-1.41872542309936],[36.89350515883747,-1.4187833855474241]]]},"id":"0018000000000002f915","properties":{"FID":128964}},{"type":"Feature","geometry":{"type":"Polygon","coordinates":[[[36.90404645312754,-1.4408871857700192],[36.90414458547904,-1.4409094818417543],[36.90415352897278,-1.440869343126837],[36.90405539663324,-1.4408515079601594],[36.90404645312754,-1.4408871857700192]]]},"id":"00180000000000032926","properties":{"FID":129220}},{"type":"Feature","geometry":{"type":"Polygon","coordinates":[[[36.893576553001594,-1.4187209458624708],[36.89365229638949,-1.4187387999113048],[36.893665672515965,-1.4186808269248516],[36.89358992914186,-1.4186629728547195],[36.893576553001594,-1.4187209458624708]]]},"id":"0018000000000003300d","properties":{"FID":128965}},{"type":"Feature","geometry":{"type":"Polygon","coordinates":[[[36.904452273857544,-1.4408247453074394],[36.90452357532702,-1.4408291688384514],[36.90452808807591,-1.4407489065720642],[36.904456704560765,-1.4407444845287602],[36.904452273857544,-1.4408247453074394]]]},"id":"0018000000000002ebbf","properties":{"FID":129221}},{"type":"Feature","geometry":{"type":"Polygon","coordinates":[[[36.894294429773765,-1.4184801607466133],[36.89442818975938,-1.4184935484030057],[36.89443713443684,-1.4183954723149796],[36.89430337446752,-1.418382084534523],[36.894294429773765,-1.4184801607466133]]]},"id":"00180000000000033d2a","properties":{"FID":128966}},{"type":"Feature","geometry":{"type":"Polygon","coordinates":[[[36.9040955193197,-1.4406062333891174],[36.90412678053872,-1.44061962085361],[36.90414901620084,-1.4405527042550605],[36.90411783704172,-1.440543835606504],[36.9040955193197,-1.4406062333891174]]]},"id":"0018000000000003008a","properties":{"FID":129222}},{"type":"Feature","geometry":{"type":"Polygon","coordinates":[[[36.893790570953584,-1.4173029592898074],[36.893812891808366,-1.4173520040357466],[36.89384850668762,-1.4173341630801],[36.89382175449883,-1.4172851411804512],[36.893790570953584,-1.4173029592898074]]]},"id":"00180000000000032adf","properties":{"FID":128967}},{"type":"Feature","geometry":{"type":"Polygon","coordinates":[[[36.90417584667717,-1.4405616549684412],[36.904278327519386,-1.440588389470861],[36.904291783760264,-1.440534902406306],[36.90418922088647,-1.4405036490788756],[36.90417584667717,-1.4405616549684412]]]},"id":"001800000000000339da","properties":{"FID":129223}},{"type":"Feature","geometry":{"type":"Polygon","coordinates":[[[36.90379234223966,-1.4255032593180297],[36.90393502844227,-1.425538941556022],[36.90394840269546,-1.4254898812227235],[36.90380571651886,-1.4254541989550764],[36.90379234223966,-1.4255032593180297]]]},"id":"00180000000000034e3f","properties":{"FID":128968}},{"type":"Feature","geometry":{"type":"Polygon","coordinates":[[[36.907377464376204,-1.440583961409651],[36.90747551022669,-1.4406241008724527],[36.907524574126114,-1.4404947662630145],[36.90743095886484,-1.440459063362786],[36.907377464376204,-1.440583961409651]]]},"id":"00180000000000034fa8","properties":{"FID":129224}},{"type":"Feature","geometry":{"type":"Polygon","coordinates":[[[36.91960871870255,-1.4446818467003464],[36.91961323052347,-1.4447576501938892],[36.91971577183317,-1.4447576709073702],[36.91971577183317,-1.4446773809993982],[36.91960871870255,-1.4446818467003464]]]},"id":"001800000000000337cd","properties":{"FID":148425}},{"type":"Feature","geometry":{"type":"Polygon","coordinates":[[[36.90386815713976,-1.425467598780927],[36.90390827992859,-1.4254809397501653],[36.90392165418665,-1.4254408568139518],[36.90388153140514,-1.4254274563902158],[36.90386815713976,-1.425467598780927]]]},"id":"0018000000000003209c","properties":{"FID":128969}},{"type":"Feature","geometry":{"type":"Polygon","coordinates":[[[36.903680835117676,-1.440521510674619],[36.903747706590856,-1.4405438022615742],[36.903770024418655,-1.4404814043426175],[36.90370758371426,-1.4404546277238477],[36.903680835117676,-1.440521510674619]]]},"id":"00180000000000032f97","properties":{"FID":129225}},{"type":"Feature","geometry":{"type":"Polygon","coordinates":[[[36.92027761363142,-1.444588236384763],[36.92029098490516,-1.4446283656131866],[36.92034004023211,-1.4446060262507068],[36.920322239222614,-1.444565921478035],[36.92027761363142,-1.444588236384763]]]},"id":"0018000000000002fa51","properties":{"FID":148426}},{"type":"Feature","geometry":{"type":"Polygon","coordinates":[[[36.90444333040021,-1.4255255842325547],[36.904581584641754,-1.425579065604583],[36.90462170704053,-1.4254720753738848],[36.90451914462782,-1.4254318987067263],[36.90450577047864,-1.425472040787849],[36.904470078718894,-1.4254586766422477],[36.90444333040021,-1.4255255842325547]]]},"id":"00180000000000036987","properties":{"FID":128970}},{"type":"Feature","geometry":{"type":"Polygon","coordinates":[[[36.90750225744014,-1.4404323215794765],[36.90754246028865,-1.4404367966889513],[36.9075468908053,-1.4404011466285713],[36.90759595465699,-1.4404100341351673],[36.90760038517042,-1.4403788447935213],[36.90751120052468,-1.4403698817882737],[36.90750225744014,-1.4404323215794765]]]},"id":"0018000000000003247f","properties":{"FID":129226}},{"type":"Feature","geometry":{"type":"Polygon","coordinates":[[[36.91921192347485,-1.4445481095320762],[36.919216353286636,-1.4446149935392512],[36.91930109389399,-1.4446105341420568],[36.91929658205386,-1.4445436517679682],[36.91921192347485,-1.4445481095320762]]]},"id":"00180000000000031bad","properties":{"FID":148427}},{"type":"Feature","geometry":{"type":"Polygon","coordinates":[[[36.904291783760264,-1.4254230056514727],[36.90434528049835,-1.425436394047156],[36.904363085385654,-1.4253739341327873],[36.90431401937239,-1.4253561229878586],[36.904291783760264,-1.4254230056514727]]]},"id":"00180000000000031742","properties":{"FID":128971}},{"type":"Feature","geometry":{"type":"Polygon","coordinates":[[[36.907493396401186,-1.4403208530691902],[36.90753794772512,-1.4403208449713691],[36.90753351720793,-1.4402807231698207],[36.907493396401186,-1.4402807071119248],[36.907493396401186,-1.4403208530691902]]]},"id":"0018000000000002fb99","properties":{"FID":129227}},{"type":"Feature","geometry":{"type":"Polygon","coordinates":[[[36.920723540193414,-1.4445213302386462],[36.9207324816659,-1.444574865003488],[36.920781536697405,-1.4445703677002284],[36.92077702494839,-1.444516868041241],[36.920723540193414,-1.4445213302386462]]]},"id":"00180000000000032287","properties":{"FID":148428}},{"type":"Feature","geometry":{"type":"Polygon","coordinates":[[[36.90339989221372,-1.4254408500583962],[36.903547091988514,-1.4254943435798662],[36.903605020024074,-1.4253471865890535],[36.90346233317989,-1.425289209316989],[36.90339989221372,-1.4254408500583962]]]},"id":"001800000000000364b5","properties":{"FID":128972}},{"type":"Feature","geometry":{"type":"Polygon","coordinates":[[[36.913192136207144,-1.4400087217262503],[36.91323225389734,-1.4400622019738931],[36.91326794139472,-1.4400310199823736],[36.913223311510215,-1.43998196630088],[36.913192136207144,-1.4400087217262503]]]},"id":"0018000000000002ef27","properties":{"FID":129228}},{"type":"Feature","geometry":{"type":"Polygon","coordinates":[[[36.92053626121161,-1.4442850224678758],[36.92057637488398,-1.4444321717285429],[36.92070122752335,-1.444400903957982],[36.9206611139193,-1.4442537550491235],[36.92053626121161,-1.4442850224678758]]]},"id":"00180000000000035834","properties":{"FID":148429}},{"type":"Feature","geometry":{"type":"Polygon","coordinates":[[[36.907917002094244,-1.422408645781909],[36.90797492668033,-1.422417552844568],[36.90797943921698,-1.4223863199919786],[36.90792594512823,-1.422372990919755],[36.907917002094244,-1.422408645781909]]]},"id":"001800000000000304e5","properties":{"FID":128973}},{"type":"Feature","geometry":{"type":"Polygon","coordinates":[[[36.908420846006706,-1.4399641078180387],[36.90855014979759,-1.440026554491669],[36.908563523209665,-1.4399953161015009],[36.908438731950746,-1.43993290325562],[36.908420846006706,-1.4399641078180387]]]},"id":"0018000000000002eb63","properties":{"FID":129229}},{"type":"Feature","geometry":{"type":"Polygon","coordinates":[[[36.92043372104955,-1.4440486574141556],[36.92044709229481,-1.4440932464523115],[36.92055406216913,-1.4440575602181276],[36.920540690943376,-1.4440129712810217],[36.92043372104955,-1.4440486574141556]]]},"id":"0018000000000003434f","properties":{"FID":148430}},{"type":"Feature","geometry":{"type":"Polygon","coordinates":[[[36.908768718631556,-1.4399775275378024],[36.908817699621025,-1.4399953376629346],[36.9087909528871,-1.4400755970491543],[36.909111995095415,-1.4401915203494497],[36.90913882375711,-1.4401112594232663],[36.90888013597728,-1.440017651807661],[36.908906882678686,-1.4399418532002473],[36.90919231696155,-1.4400488730018186],[36.909223493964554,-1.4399596689206986],[36.90888907889387,-1.4398392995405334],[36.90887127510473,-1.439888344399059],[36.90881326918112,-1.4398704666527533],[36.908768718631556,-1.4399775275378024]]]},"id":"001800000000000370f0","properties":{"FID":129230}},{"type":"Feature","geometry":{"type":"Polygon","coordinates":[[[36.920741341105455,-1.4426217784765805],[36.92074585285667,-1.44270203670008],[36.92086619346387,-1.4426931002297685],[36.92086176375177,-1.4425860793260894],[36.92082607995009,-1.4425860999573927],[36.920826079950096,-1.4425637989043059],[36.9207636537633,-1.4425637899996566],[36.920768083481335,-1.442621748513101],[36.920741341105455,-1.4426217784765805]]]},"id":"00180000000000034afb","properties":{"FID":148431}},{"type":"Feature","geometry":{"type":"Polygon","coordinates":[[[36.90921455108873,-1.4398883504395403],[36.90928149956383,-1.4399195598298358],[36.90933499266425,-1.4398035885430172],[36.90926812628264,-1.4397723776360156],[36.90921455108873,-1.4398883504395403]]]},"id":"00180000000000035c17","properties":{"FID":129231}},{"type":"Feature","geometry":{"type":"Polygon","coordinates":[[[36.920540690943376,-1.4425013407892728],[36.920571945154364,-1.4425860886905124],[36.920625430019946,-1.442563787153438],[36.920589746103225,-1.4424790636479234],[36.920540690943376,-1.4425013407892728]]]},"id":"001800000000000314c9","properties":{"FID":148432}},{"type":"Feature","geometry":{"type":"Polygon","coordinates":[[[36.90842978897928,-1.4397902153527178],[36.908514542050504,-1.4398214460385734],[36.908563523209665,-1.4396787365723456],[36.90848328270068,-1.4396475397120703],[36.90842978897928,-1.4397902153527178]]]},"id":"00180000000000034630","properties":{"FID":129232}},{"type":"Feature","geometry":{"type":"Polygon","coordinates":[[[36.92133885861321,-1.4422962452821633],[36.92136117108918,-1.4423631419343108],[36.92138791323893,-1.442354191744754],[36.92141465537894,-1.4424433649568373],[36.92145928027795,-1.4424300327066655],[36.92141465537894,-1.4422739387391068],[36.92133885861321,-1.4422962452821633]]]},"id":"00180000000000034cd0","properties":{"FID":148433}},{"type":"Feature","geometry":{"type":"Polygon","coordinates":[[[36.908612586381544,-1.4395404868246577],[36.90869290879443,-1.4395672810638622],[36.90871965556409,-1.4395004044029103],[36.90863933318048,-1.4394691496685323],[36.908612586381544,-1.4395404868246577]]]},"id":"001800000000000314f0","properties":{"FID":129233}},{"type":"Feature","geometry":{"type":"Polygon","coordinates":[[[36.92082165023557,-1.44214016538339],[36.92083945112378,-1.4421891879324906],[36.92089293579419,-1.4421669464530495],[36.920879564630255,-1.4421223598408957],[36.92082165023557,-1.44214016538339]]]},"id":"00180000000000031659","properties":{"FID":148434}},{"type":"Feature","geometry":{"type":"Polygon","coordinates":[[[36.90937954286996,-1.4395717548267155],[36.90949104133248,-1.439620798213003],[36.90958022357163,-1.4394022789061005],[36.909473237689426,-1.4393576703821391],[36.90937954286996,-1.4395717548267155]]]},"id":"00180000000000036d01","properties":{"FID":129234}},{"type":"Feature","geometry":{"type":"Polygon","coordinates":[[[36.9209776744636,-1.442050986438736],[36.92099555734549,-1.4421356883672365],[36.92106684273501,-1.4421178679628126],[36.92104904190201,-1.4420376247283335],[36.9209776744636,-1.442050986438736]]]},"id":"00180000000000035119","properties":{"FID":148435}},{"type":"Feature","geometry":{"type":"Polygon","coordinates":[[[36.90902732475929,-1.4394112202402023],[36.909143254177366,-1.4394602397736609],[36.909187804499496,-1.4393577011962],[36.90907187515182,-1.4393086222179408],[36.90902732475929,-1.4394112202402023]]]},"id":"00180000000000034492","properties":{"FID":129235}},{"type":"Feature","geometry":{"type":"Polygon","coordinates":[[[36.92084839258215,-1.4419261083702866],[36.92086176375177,-1.4420197562470929],[36.92089293579419,-1.4420153015514028],[36.920879564630255,-1.4419216537228803],[36.92084839258215,-1.4419261083702866]]]},"id":"0018000000000003247d","properties":{"FID":148436}},{"type":"Feature","geometry":{"type":"Polygon","coordinates":[[[36.90869290879443,-1.4392461860553887],[36.908795465373586,-1.4392997400749499],[36.90889802180936,-1.439090127869611],[36.90879546537358,-1.4390410938803493],[36.90869290879443,-1.4392461860553887]]]},"id":"00180000000000036df7","properties":{"FID":129236}},{"type":"Feature","geometry":{"type":"Polygon","coordinates":[[[36.919827254582344,-1.4417388737868424],[36.91983168435695,-1.4418681348921858],[36.91992979559268,-1.441863723393014],[36.919920854022294,-1.4417343693242037],[36.919827254582344,-1.4417388737868424]]]},"id":"00180000000000034220","properties":{"FID":148437}},{"type":"Feature","geometry":{"type":"Polygon","coordinates":[[[36.92082607995009,-1.4400176488949714],[36.92097324475824,-1.4400131464115065],[36.92097324475824,-1.4399686072020565],[36.92082607995009,-1.4399685902593886],[36.92082607995009,-1.4400176488949714]]]},"id":"00180000000000031312","properties":{"FID":148438}},{"type":"Feature","geometry":{"type":"Polygon","coordinates":[[[36.92054963243817,-1.4399908750122123],[36.920723540193414,-1.4399997826272568],[36.92072796991386,-1.4399462993937726],[36.92055406216913,-1.439941851561113],[36.92054963243817,-1.4399908750122123]]]},"id":"00180000000000032af8","properties":{"FID":148439}},{"type":"Feature","geometry":{"type":"Polygon","coordinates":[[[36.92000559381534,-1.439924017495198],[36.92018844440002,-1.4399150953745392],[36.92018401464696,-1.4398838407570635],[36.92000559381534,-1.4398927981188925],[36.92000559381534,-1.439924017495198]]]},"id":"00180000000000034782","properties":{"FID":148440}}]}